station,valid,tmpf,dwpf,relh,drct,sknt,p01i,alti,mslp,vsby,gust,skyc1,skyc2,skyc3,skyc4,skyl1,skyl2,skyl3,skyl4,wxcodes,ice_accretion_1hr,ice_accretion_3hr,ice_accretion_6hr,peak_wind_gust,peak_wind_drct,peak_wind_time,feel,metar,snowdepth
SBD,2016-07-01 00:05,96.44,53.60,23.81,260.00,12.00,0.00,29.79,M,10.00,16.00,CLR,M,M,M,M,M,M,M,M,M,M,M,M,M,M,94.21,KSBD 010005Z AUTO 26012G16KT 10SM CLR 36/12 A2979 RMK AO2 T03580120,M
SBD,2016-07-01 00:24,95.00,54.32,25.55,260.00,12.00,0.00,29.80,M,10.00,M,CLR,M,M,M,M,M,M,M,M,M,M,M,M,M,M,92.90,KSBD 010024Z AUTO 26012KT 10SM CLR 35/12 A2980 RMK AO2 T03500124,M
SBD,2016-07-01 00:44,93.74,53.60,25.88,280.00,9.00,0.00,29.80,M,10.00,14.00,CLR,M,M,M,M,M,M,M,M,M,M,M,M,M,M,91.41,KSBD 010044Z AUTO 28009G14KT 10SM CLR 34/12 A2980 RMK AO2 T03430120,M
SBD,2016-07-01 00:49,93.20,53.60,26.31,250.00,11.00,0.00,29.80,M,7.00,M,FEW,M,M,M,7000.00,M,M,M,M,M,M,M,M,M,M,90.86,KSBD 010049Z 25011KT 7SM FEW070 34/12 A2980,M
SBD,2016-07-01 01:05,92.84,54.50,27.50,260.00,11.00,0.00,29.80,M,10.00,M,CLR,M,M,M,M,M,M,M,M,M,M,M,M,M,M,90.73,KSBD 010105Z AUTO 26011KT 10SM CLR 34/13 A2980 RMK AO2 T03380125,M
SBD,2016-07-01 01:24,91.76,55.04,29.01,250.00,9.00,0.00,29.80,M,10.00,M,CLR,M,M,M,M,M,M,M,M,M,M,M,M,M,M,89.79,KSBD 010124Z AUTO 25009KT 10SM CLR 33/13 A2980 RMK AO2 T03320128,M
SBD,2016-07-01 01:44,90.68,56.30,31.41,260.00,11.00,0.00,29.81,M,10.00,M,CLR,M,M,M,M,M,M,M,M,M,M,M,M,M,M,89.07,KSBD 010144Z AUTO 26011KT 10SM CLR 33/14 A2981 RMK AO2 T03260135,M
SBD,2016-07-01 01:47,89.60,55.40,31.45,230.00,9.00,0.00,29.81,M,7.00,M,FEW,M,M,M,7000.00,M,M,M,M,M,M,M,M,M,M,87.78,KSBD 010147Z 23009KT 7SM FEW070 32/13 A2981,M
SBD,2016-07-01 02:05,88.34,57.20,34.93,240.00,10.00,0.00,29.81,M,10.00,M,CLR,M,M,M,M,M,M,M,M,M,M,M,M,M,M,87.08,KSBD 010205Z AUTO 24010KT 10SM CLR 31/14 A2981 RMK AO2 T03130140,M
SBD,2016-07-01 02:24,86.54,57.56,37.46,230.00,7.00,0.00,29.82,M,10.00,M,CLR,M,M,M,M,M,M,M,M,M,M,M,M,M,M,85.54,KSBD 010224Z AUTO 23007KT 10SM CLR 30/14 A2982 RMK AO2 T03030142,M
SBD,2016-07-01 02:44,85.10,58.10,40.00,240.00,9.00,0.00,29.83,M,10.00,M,CLR,M,M,M,M,M,M,M,M,M,M,M,M,M,M,85.10,KSBD 010244Z AUTO 24009KT 10SM CLR 30/15 A2983 RMK AO2 T02950145,M
SBD,2016-07-01 02:50,75.20,57.20,53.55,240.00,8.00,0.00,29.83,M,7.00,M,CLR,M,M,M,M,M,M,M,M,M,M,M,M,M,M,75.20,KSBD 010250Z 24008KT 7SM SKC 24/14 A2983,M
SBD,2016-07-01 03:04,83.48,58.64,42.96,240.00,7.00,0.00,29.83,M,10.00,M,CLR,M,M,M,M,M,M,M,M,M,M,M,M,M,M,83.23,KSBD 010304Z AUTO 24007KT 10SM CLR 29/15 A2983 RMK AO2 T02860148,M
SBD,2016-07-01 03:24,82.40,59.00,45.07,250.00,8.00,0.00,29.84,M,10.00,M,CLR,M,M,M,M,M,M,M,M,M,M,M,M,M,M,82.46,KSBD 010324Z AUTO 25008KT 10SM CLR 28/15 A2984 RMK AO2 T02800150,M
SBD,2016-07-01 03:44,81.32,59.18,46.98,240.00,8.00,0.00,29.85,M,10.00,M,CLR,M,M,M,M,M,M,M,M,M,M,M,M,M,M,81.68,KSBD 010344Z AUTO 24008KT 10SM CLR 27/15 A2985 RMK AO2 T02740151,M
SBD,2016-07-01 04:04,80.24,59.36,48.98,260.00,7.00,0.00,29.86,M,10.00,M,CLR,M,M,M,M,M,M,M,M,M,M,M,M,M,M,80.92,KSBD 010404Z AUTO 26007KT 10SM CLR 27/15 A2986 RMK AO2 T02680152,M
SBD,2016-07-01 04:25,79.16,59.36,50.75,240.00,5.00,0.00,29.87,M,10.00,M,CLR,M,M,M,M,M,M,M,M,M,M,M,M,M,M,79.16,KSBD 010425Z AUTO 24005KT 10SM CLR 26/15 A2987 RMK AO2 T02620152,M
SBD,2016-07-01 04:44,78.80,59.36,51.35,240.00,5.00,0.00,29.88,M,10.00,M,CLR,M,M,M,M,M,M,M,M,M,M,M,M,M,M,78.80,KSBD 010444Z AUTO 24005KT 10SM CLR 26/15 A2988 RMK AO2 T02600152,M
SBD,2016-07-01 05:04,77.90,59.54,53.24,250.00,7.00,0.00,29.89,M,10.00,M,CLR,M,M,M,M,M,M,M,M,M,M,M,M,M,M,77.90,KSBD 010504Z AUTO 25007KT 10SM CLR 26/15 A2989 RMK AO2 T02550153,M
SBD,2016-07-01 05:25,77.00,59.90,55.56,240.00,6.00,0.00,29.89,M,10.00,M,CLR,M,M,M,M,M,M,M,M,M,M,M,M,M,M,77.00,KSBD 010525Z AUTO 24006KT 10SM CLR 25/16 A2989 RMK AO2 T02500155,M
SBD,2016-07-01 05:44,76.28,59.90,56.90,240.00,6.00,0.00,29.89,M,10.00,M,CLR,M,M,M,M,M,M,M,M,M,M,M,M,M,M,76.28,KSBD 010544Z AUTO 24006KT 10SM CLR 25/16 A2989 RMK AO2 T02460155 10361 20246 403920203,M
SBD,2016-07-01 06:04,75.20,60.08,59.37,240.00,6.00,0.00,29.89,M,10.00,M,CLR,M,M,M,M,M,M,M,M,M,M,M,M,M,M,75.20,KSBD 010604Z AUTO 24006KT 10SM CLR 24/16 A2989 RMK AO2 T02400156,M
SBD,2016-07-01 06:25,74.30,60.26,61.57,250.00,6.00,0.00,29.89,M,10.00,M,CLR,M,M,M,M,M,M,M,M,M,M,M,M,M,M,74.30,KSBD 010625Z AUTO 25006KT 10SM CLR 24/16 A2989 RMK AO2 T02350157,M
SBD,2016-07-01 06:44,73.40,60.26,63.46,260.00,5.00,0.00,29.90,M,10.00,M,CLR,M,M,M,M,M,M,M,M,M,M,M,M,M,M,73.40,KSBD 010644Z AUTO 26005KT 10SM CLR 23/16 A2990 RMK AO2 T02300157,M
SBD,2016-07-01 07:04,72.50,60.26,65.42,250.00,6.00,0.00,29.90,M,10.00,M,CLR,M,M,M,M,M,M,M,M,M,M,M,M,M,M,72.50,KSBD 010704Z AUTO 25006KT 10SM CLR 23/16 A2990 RMK AO2 T02250157,M
SBD,2016-07-01 07:25,71.78,60.44,67.46,270.00,8.00,0.00,29.89,M,10.00,M,CLR,M,M,M,M,M,M,M,M,M,M,M,M,M,M,71.78,KSBD 010725Z AUTO 27008KT 10SM CLR 22/16 A2989 RMK AO2 T02210158,M
SBD,2016-07-01 07:44,71.24,60.44,68.71,250.00,6.00,0.00,29.90,M,10.00,M,CLR,M,M,M,M,M,M,M,M,M,M,M,M,M,M,71.24,KSBD 010744Z AUTO 25006KT 10SM CLR 22/16 A2990 RMK AO2 T02180158,M
SBD,2016-07-01 08:04,70.70,60.44,69.98,250.00,7.00,0.00,29.90,M,10.00,M,CLR,M,M,M,M,M,M,M,M,M,M,M,M,M,M,70.70,KSBD 010804Z AUTO 25007KT 10SM CLR 22/16 A2990 RMK AO2 T02150158,M
SBD,2016-07-01 08:25,69.98,60.44,71.72,250.00,5.00,0.00,29.90,M,10.00,M,CLR,M,M,M,M,M,M,M,M,M,M,M,M,M,M,69.98,KSBD 010825Z AUTO 25005KT 10SM CLR 21/16 A2990 RMK AO2 T02110158,M
SBD,2016-07-01 08:44,69.80,60.80,73.09,240.00,5.00,0.00,29.90,M,10.00,M,CLR,M,M,M,M,M,M,M,M,M,M,M,M,M,M,69.80,KSBD 010844Z AUTO 24005KT 10SM CLR 21/16 A2990 RMK AO2 T02100160,M
SBD,2016-07-01 09:04,69.26,60.80,74.46,260.00,4.00,0.00,29.90,M,10.00,M,CLR,M,M,M,M,M,M,M,M,M,M,M,M,M,M,69.26,KSBD 010904Z AUTO 26004KT 10SM CLR 21/16 A2990 RMK AO2 T02070160,M
SBD,2016-07-01 09:25,68.90,60.80,75.38,250.00,5.00,0.00,29.90,M,10.00,M,CLR,M,M,M,M,M,M,M,M,M,M,M,M,M,M,68.90,KSBD 010925Z AUTO 25005KT 10SM CLR 21/16 A2990 RMK AO2 T02050160,M
SBD,2016-07-01 09:44,68.90,60.80,75.38,260.00,3.00,0.00,29.90,M,7.00,M,CLR,M,M,M,M,M,M,M,M,M,M,M,M,M,M,68.90,KSBD 010944Z AUTO 26003KT 7SM CLR 21/16 A2990 RMK AO2 T02050160,M
SBD,2016-07-01 10:04,68.90,60.80,75.38,0.00,0.00,0.00,29.90,M,10.00,M,CLR,M,M,M,M,M,M,M,M,M,M,M,M,M,M,68.90,KSBD 011004Z AUTO 00000KT 10SM CLR 21/16 A2990 RMK AO2 T02050160,M
SBD,2016-07-01 10:25,68.72,60.80,75.85,0.00,0.00,0.00,29.90,M,10.00,M,CLR,M,M,M,M,M,M,M,M,M,M,M,M,M,M,68.72,KSBD 011025Z AUTO 00000KT 10SM CLR 20/16 A2990 RMK AO2 T02040160,M
SBD,2016-07-01 10:44,68.36,60.80,76.79,0.00,0.00,0.00,29.89,M,10.00,M,CLR,M,M,M,M,M,M,M,M,M,M,M,M,M,M,68.36,KSBD 011044Z AUTO 00000KT 10SM CLR 20/16 A2989 RMK AO2 T02020160,M
SBD,2016-07-01 11:04,68.18,60.80,77.27,250.00,3.00,0.00,29.89,M,7.00,M,CLR,M,M,M,M,M,M,M,M,M,M,M,M,M,M,68.18,KSBD 011104Z AUTO 25003KT 7SM CLR 20/16 A2989 RMK AO2 T02010160,M
SBD,2016-07-01 11:25,68.00,60.80,77.75,250.00,3.00,0.00,29.89,M,7.00,M,CLR,M,M,M,M,M,M,M,M,M,M,M,M,M,M,68.00,KSBD 011125Z AUTO 25003KT 7SM CLR 20/16 A2989 RMK AO2 T02000160,M
SBD,2016-07-01 11:44,68.00,60.80,77.75,260.00,3.00,0.00,29.89,M,7.00,M,CLR,M,M,M,M,M,M,M,M,M,M,M,M,M,M,68.00,KSBD 011144Z AUTO 26003KT 7SM CLR 20/16 A2989 RMK AO2 T02000160 10245 20200,M
SBD,2016-07-01 12:04,67.64,60.80,78.72,260.00,3.00,0.00,29.90,M,7.00,M,CLR,M,M,M,M,M,M,M,M,M,M,M,M,M,M,67.64,KSBD 011204Z AUTO 26003KT 7SM CLR 20/16 A2990 RMK AO2 T01980160,M
SBD,2016-07-01 12:24,67.64,60.80,78.72,0.00,0.00,0.00,29.90,M,7.00,M,CLR,M,M,M,M,M,M,M,M,M,M,M,M,M,M,67.64,KSBD 011224Z AUTO 00000KT 7SM CLR 20/16 A2990 RMK AO2 T01980160,M
SBD,2016-07-01 12:45,67.46,60.80,79.21,260.00,3.00,0.00,29.90,M,7.00,M,CLR,M,M,M,M,M,M,M,M,M,M,M,M,M,M,67.46,KSBD 011245Z AUTO 26003KT 7SM CLR 20/16 A2990 RMK AO2 T01970160,M
SBD,2016-07-01 13:04,67.28,60.98,80.21,0.00,0.00,0.00,29.90,M,7.00,M,CLR,M,M,M,M,M,M,M,M,M,M,M,M,M,M,67.28,KSBD 011304Z AUTO 00000KT 7SM CLR 20/16 A2990 RMK AO2 T01960161,M
SBD,2016-07-01 13:24,68.00,61.34,79.25,0.00,0.00,0.00,29.91,M,7.00,M,CLR,M,M,M,M,M,M,M,M,M,M,M,M,M,M,68.00,KSBD 011324Z AUTO 00000KT 7SM CLR 20/16 A2991 RMK AO2 T02000163,M
SBD,2016-07-01 13:44,68.90,61.34,76.84,260.00,3.00,0.00,29.91,M,5.00,M,CLR,M,M,M,M,M,M,M,HZ,M,M,M,M,M,M,68.90,KSBD 011344Z AUTO 26003KT 5SM HZ CLR 21/16 A2991 RMK AO2 T02050163,M
SBD,2016-07-01 14:00,68.00,57.20,68.35,0.00,0.00,0.00,29.91,M,4.00,M,CLR,M,M,M,M,M,M,M,HZ,M,M,M,M,M,M,68.00,KSBD 011400Z 00000KT 4SM HZ SKC 20/14 A2991,M
SBD,2016-07-01 14:04,69.80,61.52,74.98,0.00,0.00,0.00,29.91,M,5.00,M,CLR,M,M,M,M,M,M,M,HZ,M,M,M,M,M,M,69.80,KSBD 011404Z AUTO 00000KT 5SM HZ CLR 21/16 A2991 RMK AO2 T02100164,M
SBD,2016-07-01 14:24,70.88,61.34,71.81,0.00,0.00,0.00,29.92,M,5.00,M,CLR,M,M,M,M,M,M,M,HZ,M,M,M,M,M,M,70.88,KSBD 011424Z AUTO 00000KT 5SM HZ CLR 22/16 A2992 RMK AO2 T02160163,M
SBD,2016-07-01 14:45,71.78,61.34,69.65,0.00,0.00,0.00,29.92,M,5.00,M,CLR,M,M,M,M,M,M,M,HZ,M,M,M,M,M,M,71.78,KSBD 011445Z AUTO 00000KT 5SM HZ CLR 22/16 A2992 RMK AO2 T02210163,M
SBD,2016-07-01 14:48,73.40,64.40,73.44,0.00,0.00,0.00,29.92,M,4.00,M,CLR,M,M,M,M,M,M,M,HZ,M,M,M,M,M,M,73.40,KSBD 011448Z 00000KT 4SM HZ SKC 23/18 A2992,M
SBD,2016-07-01 15:04,73.58,61.52,65.96,0.00,0.00,0.00,29.92,M,5.00,M,CLR,M,M,M,M,M,M,M,HZ,M,M,M,M,M,M,73.58,KSBD 011504Z AUTO 00000KT 5SM HZ CLR 23/16 A2992 RMK AO2 T02310164,M
SBD,2016-07-01 15:24,74.30,61.52,64.39,280.00,3.00,0.00,29.92,M,5.00,M,CLR,M,M,M,M,M,M,M,HZ,M,M,M,M,M,M,74.30,KSBD 011524Z AUTO 28003KT 5SM HZ CLR 24/16 A2992 RMK AO2 T02350164,M
SBD,2016-07-01 15:45,75.56,61.34,61.34,250.00,4.00,0.00,29.92,M,0.25,M,VV ,M,M,M,200.00,M,M,M,HZ,M,M,M,M,M,M,75.56,KSBD 011545Z AUTO 25004KT 1/4SM HZ VV002 24/16 A2992 RMK AO2 T02420163,M
SBD,2016-07-01 15:49,75.20,64.40,69.14,270.00,6.00,0.00,29.92,M,4.00,M,CLR,M,M,M,M,M,M,M,HZ,M,M,M,M,M,M,75.20,KSBD 011549Z 27006KT 4SM HZ SKC 24/18 A2992,M
SBD,2016-07-01 16:04,77.00,61.16,58.10,0.00,0.00,0.00,29.92,M,5.00,M,CLR,M,M,M,M,M,M,M,HZ,M,M,M,M,M,M,77.00,KSBD 011604Z AUTO 00000KT 5SM HZ CLR 25/16 A2992 RMK AO2 T02500162,M
SBD,2016-07-01 16:24,77.72,61.16,56.73,230.00,5.00,0.00,29.92,M,5.00,M,CLR,M,M,M,M,M,M,M,HZ,M,M,M,M,M,M,77.72,KSBD 011624Z AUTO 23005KT 5SM HZ CLR 25/16 A2992 RMK AO2 T02540162,M
SBD,2016-07-01 16:46,82.40,64.40,54.55,260.00,8.00,0.00,29.92,M,3.00,M,CLR,M,M,M,M,M,M,M,HZ,M,M,M,M,M,M,83.98,KSBD 011646Z 26008KT 3SM HZ SKC 28/18 A2992,M
SBD,2016-07-01 17:04,79.88,61.34,53.18,240.00,3.00,0.00,29.92,M,5.00,M,CLR,M,M,M,M,M,M,M,HZ,M,M,M,M,M,M,80.99,KSBD 011704Z AUTO 24003KT 5SM HZ CLR 27/16 A2992 RMK AO2 T02660163,M
SBD,2016-07-01 17:24,81.86,60.98,49.22,230.00,4.00,0.00,29.92,M,5.00,M,CLR,M,M,M,M,M,M,M,HZ,M,M,M,M,M,M,82.51,KSBD 011724Z AUTO 23004KT 5SM HZ CLR 28/16 A2992 RMK AO2 T02770161,M
SBD,2016-07-01 17:45,83.84,60.80,45.87,230.00,6.00,0.00,29.92,M,5.00,M,CLR,M,M,M,M,M,M,M,HZ,M,M,M,M,M,M,84.12,KSBD 011745Z AUTO 23006KT 5SM HZ CLR 29/16 A2992 RMK AO2 T02880160 10288 20196,M
SBD,2016-07-01 17:47,84.20,60.80,45.34,230.00,6.00,0.00,29.92,M,3.00,M,M,M,M,M,M,M,M,M,HZ,M,M,M,M,M,M,84.43,KSBD 011747Z 23006KT 3SM HZ 29/16 A2992,M
SBD,2016-07-01 18:04,85.82,60.44,42.50,280.00,6.00,0.00,29.92,M,5.00,M,CLR,M,M,M,M,M,M,M,HZ,M,M,M,M,M,M,85.76,KSBD 011804Z AUTO 28006KT 5SM HZ CLR 30/16 A2992 RMK AO2 T02990158,M
SBD,2016-07-01 18:24,86.90,60.08,40.53,270.00,8.00,0.00,29.92,M,7.00,M,CLR,M,M,M,M,M,M,M,M,M,M,M,M,M,M,86.64,KSBD 011824Z AUTO 27008KT 7SM CLR 31/16 A2992 RMK AO2 T03050156,M
SBD,2016-07-01 18:45,87.98,60.26,39.42,250.00,10.00,0.00,29.92,M,7.00,14.00,CLR,M,M,M,M,M,M,M,M,M,M,M,M,M,M,87.98,KSBD 011845Z AUTO 25010G14KT 7SM CLR 31/16 A2992 RMK AO2 T03110157,M
SBD,2016-07-01 19:04,89.60,59.54,36.50,260.00,8.00,0.00,29.92,M,7.00,M,CLR,M,M,M,M,M,M,M,M,M,M,M,M,M,M,89.60,KSBD 011904Z AUTO 26008KT 7SM CLR 32/15 A2992 RMK AO2 T03200153,M
SBD,2016-07-01 19:24,91.04,59.90,35.34,230.00,6.00,0.00,29.91,M,7.00,M,CLR,M,M,M,M,M,M,M,M,M,M,M,M,M,M,91.04,KSBD 011924Z AUTO 23006KT 7SM CLR 33/16 A2991 RMK AO2 T03280155,M
SBD,2016-07-01 19:45,92.66,59.72,33.38,240.00,7.00,0.00,29.91,M,7.00,M,CLR,M,M,M,M,M,M,M,M,M,M,M,M,M,M,92.66,KSBD 011945Z AUTO 24007KT 230V300 7SM CLR 34/15 A2991 RMK AO2 T03370154,M
SBD,2016-07-01 20:04,92.66,59.36,32.96,260.00,10.00,0.00,29.90,M,10.00,M,CLR,M,M,M,M,M,M,M,M,M,M,M,M,M,M,92.66,KSBD 012004Z AUTO 26010KT 10SM CLR 34/15 A2990 RMK AO2 T03370152,M
SBD,2016-07-01 20:24,93.74,59.18,31.67,270.00,8.00,0.00,29.90,M,10.00,M,CLR,M,M,M,M,M,M,M,M,M,M,M,M,M,M,93.74,KSBD 012024Z AUTO 27008KT 250V320 10SM CLR 34/15 A2990 RMK AO2 T03430151,M
SBD,2016-07-01 20:45,93.92,59.00,31.29,250.00,6.00,0.00,29.89,M,10.00,M,CLR,M,M,M,M,M,M,M,M,M,M,M,M,M,M,93.92,KSBD 012045Z AUTO 25006KT 10SM CLR 34/15 A2989 RMK AO2 T03440150,M
SBD,2016-07-01 20:47,93.20,59.00,31.99,220.00,10.00,0.00,29.89,M,4.00,M,FEW,M,M,M,5000.00,M,M,M,HZ,M,M,M,M,M,M,93.20,KSBD 012047Z 22010KT 04SM HZ FEW050 34/15 A2989,M
SBD,2016-07-01 21:04,95.36,58.82,29.74,250.00,11.00,0.00,29.88,M,10.00,16.00,CLR,M,M,M,M,M,M,M,M,M,M,M,M,M,M,95.36,KSBD 012104Z AUTO 25011G16KT 10SM CLR 35/15 A2988 RMK AO2 T03520149,M
SBD,2016-07-01 21:24,94.28,58.46,30.35,260.00,8.00,0.00,29.88,M,10.00,M,CLR,M,M,M,M,M,M,M,M,M,M,M,M,M,M,94.28,KSBD 012124Z AUTO 26008KT 230V300 10SM CLR 35/15 A2988 RMK AO2 T03460147,M
SBD,2016-07-01 21:44,94.82,58.10,29.46,260.00,10.00,0.00,29.87,M,10.00,M,CLR,M,M,M,M,M,M,M,M,M,M,M,M,M,M,94.82,KSBD 012144Z AUTO 26010KT 10SM CLR 35/15 A2987 RMK AO2 T03490145,M
SBD,2016-07-01 22:05,95.36,57.20,28.05,260.00,11.00,0.00,29.87,M,10.00,18.00,CLR,M,M,M,M,M,M,M,M,M,M,M,M,M,M,94.21,KSBD 012205Z AUTO 26011G18KT 10SM CLR 35/14 A2987 RMK AO2 T03520140,M
SBD,2016-07-01 22:25,93.92,57.02,29.14,260.00,12.00,0.00,29.87,M,10.00,M,CLR,M,M,M,M,M,M,M,M,M,M,M,M,M,M,92.61,KSBD 012225Z AUTO 26012KT 10SM CLR 34/14 A2987 RMK AO2 T03440139,M
SBD,2016-07-01 22:44,93.92,56.30,28.39,280.00,12.00,0.00,29.87,M,10.00,M,CLR,M,M,M,M,M,M,M,M,M,M,M,M,M,M,92.37,KSBD 012244Z AUTO 28012KT 10SM CLR 34/14 A2987 RMK AO2 T03440135,M
SBD,2016-07-01 22:49,93.20,55.40,28.10,270.00,11.00,0.00,29.87,M,5.00,M,FEW,M,M,M,5000.00,M,M,M,HZ,M,M,M,M,M,M,91.35,KSBD 012249Z 27011KT 5SM HZ FEW050 34/13 A2987,M
SBD,2016-07-01 23:05,93.38,54.50,27.04,270.00,13.00,0.00,29.87,M,10.00,17.00,CLR,M,M,M,M,M,M,M,M,M,M,M,M,M,M,91.28,KSBD 012305Z AUTO 27013G17KT 10SM CLR 34/13 A2987 RMK AO2 T03410125,M
SBD,2016-07-01 23:24,93.02,53.06,25.94,250.00,10.00,0.00,29.87,M,10.00,M,CLR,M,M,M,M,M,M,M,M,M,M,M,M,M,M,90.55,KSBD 012324Z AUTO 25010KT 10SM CLR 34/12 A2987 RMK AO2 T03390117,M
SBD,2016-07-01 23:44,93.38,53.24,25.82,280.00,11.00,0.00,29.86,M,10.00,17.00,CLR,M,M,M,M,M,M,M,M,M,M,M,M,M,M,90.96,KSBD 012344Z AUTO 28011G17KT 10SM CLR 34/12 A2986 RMK AO2 T03410118 10352 20292,M
SBD,2016-07-01 23:48,93.20,53.60,26.31,280.00,10.00,0.00,29.86,M,6.00,M,FEW,M,M,M,5000.00,M,M,M,HZ,M,M,M,M,M,M,90.86,KSBD 012348Z 28010KT 6SM HZ FEW050 34/12 A2986,M
SBD,2016-07-02 00:05,92.30,53.78,27.24,250.00,10.00,0.00,29.87,M,10.00,M,CLR,M,M,M,M,M,M,M,M,M,M,M,M,M,M,90.01,KSBD 020005Z AUTO 25010KT 10SM CLR 34/12 A2987 RMK AO2 T03350121,M
SBD,2016-07-02 00:24,91.94,52.88,26.65,250.00,9.00,0.00,29.85,M,10.00,M,CLR,M,M,M,M,M,M,M,M,M,M,M,M,M,M,89.44,KSBD 020024Z AUTO 25009KT 10SM CLR 33/12 A2985 RMK AO2 T03330116,M
SBD,2016-07-02 00:45,91.40,54.32,28.57,290.00,10.00,0.00,29.86,M,10.00,M,CLR,M,M,M,M,M,M,M,M,M,M,M,M,M,M,89.25,KSBD 020045Z AUTO 29010KT 10SM CLR 33/12 A2986 RMK AO2 T03300124,M
SBD,2016-07-02 00:47,91.40,53.60,27.83,280.00,9.00,0.00,29.86,M,6.00,M,FEW,M,M,M,5000.00,M,M,M,HZ,M,M,M,M,M,M,89.08,KSBD 020047Z 28009KT 06SM HZ FEW050 33/12 A2986,M
SBD,2016-07-02 01:05,91.40,53.60,27.83,250.00,11.00,0.00,29.86,M,10.00,14.00,CLR,M,M,M,M,M,M,M,M,M,M,M,M,M,M,89.08,KSBD 020105Z AUTO 25011G14KT 10SM CLR 33/12 A2986 RMK AO2 T03300120,M
SBD,2016-07-02 01:24,90.68,53.96,28.84,260.00,9.00,0.00,29.87,M,10.00,M,CLR,M,M,M,M,M,M,M,M,M,M,M,M,M,M,88.46,KSBD 020124Z AUTO 26009KT 10SM CLR 33/12 A2987 RMK AO2 T03260122,M
SBD,2016-07-02 01:44,88.70,55.76,32.78,250.00,11.00,0.00,29.87,M,10.00,M,CLR,M,M,M,M,M,M,M,M,M,M,M,M,M,M,87.03,KSBD 020144Z AUTO 25011KT 10SM CLR 32/13 A2987 RMK AO2 T03150132,M
SBD,2016-07-02 01:50,87.80,57.20,35.53,240.00,11.00,0.00,29.87,M,7.00,M,FEW,M,M,M,10000.00,M,M,M,M,M,M,M,M,M,M,86.58,KSBD 020150Z 24011KT 07SM FEW100 31/14 A2987,M
SBD,2016-07-02 02:05,86.72,56.66,36.06,250.00,12.00,0.00,29.87,M,10.00,M,CLR,M,M,M,M,M,M,M,M,M,M,M,M,M,M,85.46,KSBD 020205Z AUTO 25012KT 10SM CLR 30/14 A2987 RMK AO2 T03040137,M
SBD,2016-07-02 02:24,84.56,57.56,39.92,250.00,11.00,0.00,29.88,M,10.00,M,CLR,M,M,M,M,M,M,M,M,M,M,M,M,M,M,84.56,KSBD 020224Z AUTO 25011KT 10SM CLR 29/14 A2988 RMK AO2 T02920142,M
SBD,2016-07-02 02:45,82.22,58.10,43.89,240.00,11.00,0.00,29.88,M,10.00,M,CLR,M,M,M,M,M,M,M,M,M,M,M,M,M,M,82.13,KSBD 020245Z AUTO 24011KT 10SM CLR 28/15 A2988 RMK AO2 T02790145,M
SBD,2016-07-02 03:04,80.06,58.46,47.71,240.00,10.00,0.00,29.89,M,10.00,M,CLR,M,M,M,M,M,M,M,M,M,M,M,M,M,M,80.64,KSBD 020304Z AUTO 24010KT 10SM CLR 27/15 A2989 RMK AO2 T02670147,M
SBD,2016-07-02 03:24,78.80,59.00,50.69,240.00,8.00,0.00,29.91,M,10.00,M,CLR,M,M,M,M,M,M,M,M,M,M,M,M,M,M,78.80,KSBD 020324Z AUTO 24008KT 10SM CLR 26/15 A2991 RMK AO2 T02600150,M
SBD,2016-07-02 03:45,77.54,59.00,52.85,240.00,7.00,0.00,29.92,M,10.00,M,CLR,M,M,M,M,M,M,M,M,M,M,M,M,M,M,77.54,KSBD 020345Z AUTO 24007KT 10SM CLR 25/15 A2992 RMK AO2 T02530150,M
SBD,2016-07-02 03:47,77.00,59.00,53.80,230.00,7.00,0.00,29.92,M,7.00,M,FEW,M,M,M,10000.00,M,M,M,M,M,M,M,M,M,M,77.00,KSBD 020347Z 23007KT 07SM FEW100 25/15 A2992,M
SBD,2016-07-02 04:04,76.64,59.00,54.45,250.00,8.00,0.00,29.92,M,10.00,M,CLR,M,M,M,M,M,M,M,M,M,M,M,M,M,M,76.64,KSBD 020404Z AUTO 25008KT 10SM CLR 25/15 A2992 RMK AO2 T02480150,M
SBD,2016-07-02 04:25,75.56,59.00,56.44,250.00,8.00,0.00,29.93,M,10.00,M,CLR,M,M,M,M,M,M,M,M,M,M,M,M,M,M,75.56,KSBD 020425Z AUTO 25008KT 10SM CLR 24/15 A2993 RMK AO2 T02420150,M
SBD,2016-07-02 04:45,74.84,59.00,57.81,250.00,7.00,0.00,29.94,M,10.00,M,CLR,M,M,M,M,M,M,M,M,M,M,M,M,M,M,74.84,KSBD 020445Z AUTO 25007KT 10SM CLR 24/15 A2994 RMK AO2 T02380150,M
SBD,2016-07-02 05:04,73.76,59.18,60.33,260.00,6.00,0.00,29.95,M,10.00,M,CLR,M,M,M,M,M,M,M,M,M,M,M,M,M,M,73.76,KSBD 020504Z AUTO 26006KT 10SM CLR 23/15 A2995 RMK AO2 T02320151,M
SBD,2016-07-02 05:25,73.40,59.00,60.67,240.00,6.00,0.00,29.96,M,10.00,M,CLR,M,M,M,M,M,M,M,M,M,M,M,M,M,M,73.40,KSBD 020525Z AUTO 24006KT 10SM CLR 23/15 A2996 RMK AO2 T02300150,M
SBD,2016-07-02 05:44,72.50,59.00,62.54,250.00,6.00,0.00,29.97,M,10.00,M,CLR,M,M,M,M,M,M,M,M,M,M,M,M,M,M,72.50,KSBD 020544Z AUTO 25006KT 10SM CLR 23/15 A2997 RMK AO2 T02250150 10341 20225 403520196,M
SBD,2016-07-02 06:04,71.42,58.82,64.46,240.00,6.00,0.00,29.97,M,10.00,M,CLR,M,M,M,M,M,M,M,M,M,M,M,M,M,M,71.42,KSBD 020604Z AUTO 24006KT 10SM CLR 22/15 A2997 RMK AO2 T02190149,M
SBD,2016-07-02 06:25,70.34,58.64,66.44,250.00,6.00,0.00,29.97,M,10.00,M,CLR,M,M,M,M,M,M,M,M,M,M,M,M,M,M,70.34,KSBD 020625Z AUTO 25006KT 10SM CLR 21/15 A2997 RMK AO2 T02130148,M
SBD,2016-07-02 06:44,69.80,58.64,67.67,250.00,7.00,0.00,29.97,M,10.00,M,CLR,M,M,M,M,M,M,M,M,M,M,M,M,M,M,69.80,KSBD 020644Z AUTO 25007KT 10SM CLR 21/15 A2997 RMK AO2 T02100148,M
SBD,2016-07-02 07:04,69.08,58.64,69.36,250.00,7.00,0.00,29.97,M,10.00,M,CLR,M,M,M,M,M,M,M,M,M,M,M,M,M,M,69.08,KSBD 020704Z AUTO 25007KT 10SM CLR 21/15 A2997 RMK AO2 T02060148,M
SBD,2016-07-02 07:25,68.90,58.64,69.79,240.00,7.00,0.00,29.97,M,10.00,M,CLR,M,M,M,M,M,M,M,M,M,M,M,M,M,M,68.90,KSBD 020725Z AUTO 24007KT 10SM CLR 21/15 A2997 RMK AO2 T02050148,M
SBD,2016-07-02 07:44,68.00,58.64,71.98,250.00,5.00,0.00,29.97,M,10.00,M,CLR,M,M,M,M,M,M,M,M,M,M,M,M,M,M,68.00,KSBD 020744Z AUTO 25005KT 10SM CLR 20/15 A2997 RMK AO2 T02000148,M
SBD,2016-07-02 08:04,67.46,58.46,72.86,260.00,3.00,0.00,29.97,M,10.00,M,CLR,M,M,M,M,M,M,M,M,M,M,M,M,M,M,67.46,KSBD 020804Z AUTO 26003KT 10SM CLR 20/15 A2997 RMK AO2 T01970147,M
SBD,2016-07-02 08:25,67.10,58.46,73.78,250.00,6.00,0.00,29.97,M,10.00,M,CLR,M,M,M,M,M,M,M,M,M,M,M,M,M,M,67.10,KSBD 020825Z AUTO 25006KT 10SM CLR 20/15 A2997 RMK AO2 T01950147,M
SBD,2016-07-02 08:44,66.92,58.46,74.24,250.00,4.00,0.00,29.97,M,10.00,M,CLR,M,M,M,M,M,M,M,M,M,M,M,M,M,M,66.92,KSBD 020844Z AUTO 25004KT 10SM CLR 19/15 A2997 RMK AO2 T01940147,M
SBD,2016-07-02 09:04,66.20,58.46,76.11,260.00,5.00,0.00,29.97,M,10.00,M,CLR,M,M,M,M,M,M,M,M,M,M,M,M,M,M,66.20,KSBD 020904Z AUTO 26005KT 10SM CLR 19/15 A2997 RMK AO2 T01900147,M
SBD,2016-07-02 09:25,65.84,58.28,76.57,260.00,4.00,0.00,29.97,M,10.00,M,CLR,M,M,M,M,M,M,M,M,M,M,M,M,M,M,65.84,KSBD 020925Z AUTO 26004KT 10SM CLR 19/15 A2997 RMK AO2 T01880146,M
SBD,2016-07-02 09:44,65.30,58.28,78.02,260.00,4.00,0.00,29.97,M,10.00,M,CLR,M,M,M,M,M,M,M,M,M,M,M,M,M,M,65.30,KSBD 020944Z AUTO 26004KT 10SM CLR 19/15 A2997 RMK AO2 T01850146,M
SBD,2016-07-02 10:04,64.94,58.10,78.50,260.00,4.00,0.00,29.96,M,10.00,M,CLR,M,M,M,M,M,M,M,M,M,M,M,M,M,M,64.94,KSBD 021004Z AUTO 26004KT 10SM CLR 18/15 A2996 RMK AO2 T01830145,M
SBD,2016-07-02 10:25,64.76,58.28,79.51,250.00,3.00,0.00,29.96,M,10.00,M,CLR,M,M,M,M,M,M,M,M,M,M,M,M,M,M,64.76,KSBD 021025Z AUTO 25003KT 10SM CLR 18/15 A2996 RMK AO2 T01820146,M
SBD,2016-07-02 10:44,64.58,58.28,80.01,260.00,4.00,0.00,29.96,M,10.00,M,CLR,M,M,M,M,M,M,M,M,M,M,M,M,M,M,64.58,KSBD 021044Z AUTO 26004KT 10SM CLR 18/15 A2996 RMK AO2 T01810146,M
SBD,2016-07-02 11:04,64.40,58.10,79.99,250.00,5.00,0.00,29.97,M,10.00,M,CLR,M,M,M,M,M,M,M,M,M,M,M,M,M,M,64.40,KSBD 021104Z AUTO 25005KT 10SM CLR 18/15 A2997 RMK AO2 T01800145,M
SBD,2016-07-02 11:25,63.86,58.10,81.52,250.00,4.00,0.00,29.97,M,10.00,M,CLR,M,M,M,M,M,M,M,M,M,M,M,M,M,M,63.86,KSBD 021125Z AUTO 25004KT 10SM CLR 18/15 A2997 RMK AO2 T01770145,M
SBD,2016-07-02 11:44,63.86,58.10,81.52,260.00,5.00,0.00,29.97,M,10.00,M,CLR,M,M,M,M,M,M,M,M,M,M,M,M,M,M,63.86,KSBD 021144Z AUTO 26005KT 10SM CLR 18/15 A2997 RMK AO2 T01770145 10223 20177,M
SBD,2016-07-02 12:04,63.14,57.74,82.53,250.00,4.00,0.00,29.97,M,10.00,M,CLR,M,M,M,M,M,M,M,M,M,M,M,M,M,M,63.14,KSBD 021204Z AUTO 25004KT 10SM CLR 17/14 A2997 RMK AO2 T01730143,M
SBD,2016-07-02 12:25,63.14,58.10,83.61,0.00,0.00,0.00,29.97,M,10.00,M,CLR,M,M,M,M,M,M,M,M,M,M,M,M,M,M,63.14,KSBD 021225Z AUTO 00000KT 10SM CLR 17/15 A2997 RMK AO2 T01730145,M
SBD,2016-07-02 12:44,63.50,58.10,82.56,0.00,0.00,0.00,29.97,M,10.00,M,CLR,M,M,M,M,M,M,M,M,M,M,M,M,M,M,63.50,KSBD 021244Z AUTO 00000KT 10SM CLR 18/15 A2997 RMK AO2 T01750145,M
SBD,2016-07-02 13:04,63.50,58.10,82.56,0.00,0.00,0.00,29.97,M,10.00,M,CLR,M,M,M,M,M,M,M,M,M,M,M,M,M,M,63.50,KSBD 021304Z AUTO 00000KT 10SM CLR 18/15 A2997 RMK AO2 T01750145,M
SBD,2016-07-02 13:25,62.96,58.10,84.14,260.00,3.00,0.00,29.97,M,7.00,M,CLR,M,M,M,M,M,M,M,M,M,M,M,M,M,M,62.96,KSBD 021325Z AUTO 26003KT 7SM CLR 17/15 A2997 RMK AO2 T01720145,M
SBD,2016-07-02 13:44,64.22,58.64,82.07,0.00,0.00,0.00,29.98,M,7.00,M,CLR,M,M,M,M,M,M,M,M,M,M,M,M,M,M,64.22,KSBD 021344Z AUTO 00000KT 7SM CLR 18/15 A2998 RMK AO2 T01790148,M
SBD,2016-07-02 13:50,64.40,59.00,82.62,0.00,0.00,0.00,29.98,M,4.00,M,CLR,M,M,M,M,M,M,M,HZ,M,M,M,M,M,M,64.40,KSBD 021350Z 00000KT 4SM HZ SKC 18/15 2998,M
SBD,2016-07-02 14:04,65.30,58.64,79.04,250.00,3.00,0.00,29.98,M,7.00,M,CLR,M,M,M,M,M,M,M,M,M,M,M,M,M,M,65.30,KSBD 021404Z AUTO 25003KT 7SM CLR 19/15 A2998 RMK AO2 T01850148,M
SBD,2016-07-02 14:25,66.20,58.64,76.60,240.00,3.00,0.00,29.99,M,7.00,M,SCT,M,M,M,1100.00,M,M,M,M,M,M,M,M,M,M,66.20,KSBD 021425Z AUTO 24003KT 7SM SCT011 19/15 A2999 RMK AO2 T01900148,M
SBD,2016-07-02 14:44,67.10,58.46,73.78,270.00,3.00,0.00,29.99,M,7.00,M,CLR,M,M,M,M,M,M,M,M,M,M,M,M,M,M,67.10,KSBD 021444Z AUTO 27003KT 7SM CLR 20/15 A2999 RMK AO2 T01950147,M
SBD,2016-07-02 14:48,66.20,59.00,77.60,0.00,0.00,0.00,30.00,M,4.00,M,CLR,M,M,M,M,M,M,M,HZ,M,M,M,M,M,M,66.20,KSBD 021448Z 00000KT 4SM HZ SKC 19/15 A3000,M
SBD,2016-07-02 15:05,68.00,58.64,71.98,0.00,0.00,0.00,30.00,M,7.00,M,CLR,M,M,M,M,M,M,M,M,M,M,M,M,M,M,68.00,KSBD 021505Z AUTO 00000KT 7SM CLR 20/15 A3000 RMK AO2 T02000148,M
SBD,2016-07-02 15:25,69.26,58.64,68.94,300.00,3.00,0.00,30.01,M,7.00,M,CLR,M,M,M,M,M,M,M,M,M,M,M,M,M,M,69.26,KSBD 021525Z AUTO 30003KT 7SM CLR 21/15 A3001 RMK AO2 T02070148,M
SBD,2016-07-02 15:44,70.34,58.82,66.87,260.00,3.00,0.00,30.01,M,7.00,M,CLR,M,M,M,M,M,M,M,M,M,M,M,M,M,M,70.34,KSBD 021544Z AUTO 26003KT 7SM CLR 21/15 A3001 RMK AO2 T02130149,M
SBD,2016-07-02 15:50,71.60,59.00,64.48,240.00,3.00,0.00,30.01,M,4.00,M,CLR,M,M,M,M,M,M,M,HZ,M,M,M,M,M,M,71.60,KSBD 021550Z 24003KT 4SM HZ SKC 22/15 A3001,M
SBD,2016-07-02 16:05,72.32,58.82,62.52,270.00,3.00,0.00,30.01,M,7.00,M,CLR,M,M,M,M,M,M,M,M,M,M,M,M,M,M,72.32,KSBD 021605Z AUTO 27003KT 7SM CLR 22/15 A3001 RMK AO2 T02240149,M
SBD,2016-07-02 16:24,74.30,58.64,58.11,0.00,0.00,0.00,30.01,M,7.00,M,CLR,M,M,M,M,M,M,M,M,M,M,M,M,M,M,74.30,KSBD 021624Z AUTO 00000KT 7SM CLR 24/15 A3001 RMK AO2 T02350148,M
SBD,2016-07-02 16:45,75.20,58.46,56.03,0.00,0.00,0.00,30.01,M,7.00,M,CLR,M,M,M,M,M,M,M,M,M,M,M,M,M,M,75.20,KSBD 021645Z AUTO 00000KT 7SM CLR 24/15 A3001 RMK AO2 T02400147,M
SBD,2016-07-02 16:49,75.20,57.20,53.55,0.00,0.00,0.00,30.01,M,4.00,M,CLR,M,M,M,M,M,M,M,HZ,M,M,M,M,M,M,75.20,KSBD 021649Z 00000KT 4SM HZ SKC 24/14 A3001,M
SBD,2016-07-02 17:04,76.28,58.28,53.70,0.00,0.00,0.00,30.00,M,7.00,M,CLR,M,M,M,M,M,M,M,M,M,M,M,M,M,M,76.28,KSBD 021704Z AUTO 00000KT 7SM CLR 25/15 A3000 RMK AO2 T02460146,M
SBD,2016-07-02 17:24,78.62,58.28,49.70,300.00,6.00,0.00,30.00,M,7.00,M,CLR,M,M,M,M,M,M,M,M,M,M,M,M,M,M,78.62,KSBD 021724Z AUTO 30006KT 7SM CLR 26/15 A3000 RMK AO2 T02590146,M
SBD,2016-07-02 17:44,80.24,57.74,46.22,290.00,4.00,0.00,30.00,M,7.00,M,CLR,M,M,M,M,M,M,M,M,M,M,M,M,M,M,80.65,KSBD 021744Z AUTO 29004KT 7SM CLR 27/14 A3000 RMK AO2 T02680143 10268 20171,M
SBD,2016-07-02 18:05,81.68,56.84,42.69,0.00,0.00,0.00,30.00,M,10.00,M,CLR,M,M,M,M,M,M,M,M,M,M,M,M,M,M,81.49,KSBD 021805Z AUTO 00000KT 10SM CLR 28/14 A3000 RMK AO2 T02760138,M
SBD,2016-07-02 18:24,83.48,56.12,39.24,250.00,3.00,0.00,30.00,M,10.00,M,CLR,M,M,M,M,M,M,M,M,M,M,M,M,M,M,83.48,KSBD 021824Z AUTO 25003KT 10SM CLR 29/13 A3000 RMK AO2 T02860134,M
SBD,2016-07-02 18:44,85.82,54.86,34.77,250.00,7.00,0.00,29.99,M,10.00,M,CLR,M,M,M,M,M,M,M,M,M,M,M,M,M,M,84.28,KSBD 021844Z AUTO 25007KT 10SM CLR 30/13 A2999 RMK AO2 T02990127,M
SBD,2016-07-02 18:50,86.00,53.60,33.01,280.00,7.00,0.00,29.99,M,5.00,M,CLR,M,M,M,M,M,M,M,HZ,M,M,M,M,M,M,84.18,KSBD 021850Z 28007KT 05SM HZ SKC 30/12 A2999,M
SBD,2016-07-02 19:05,87.44,52.70,30.51,290.00,5.00,0.00,29.99,M,10.00,M,CLR,M,M,M,M,M,M,M,M,M,M,M,M,M,M,85.23,KSBD 021905Z AUTO 29005KT 10SM CLR 31/12 A2999 RMK AO2 T03080115,M
SBD,2016-07-02 19:24,88.70,51.98,28.55,240.00,8.00,0.00,29.98,M,10.00,M,CLR,M,M,M,M,M,M,M,M,M,M,M,M,M,M,86.21,KSBD 021924Z AUTO 24008KT 10SM CLR 32/11 A2998 RMK AO2 T03150111,M
SBD,2016-07-02 19:45,91.22,47.48,22.30,280.00,5.00,0.00,29.98,M,10.00,M,CLR,M,M,M,M,M,M,M,M,M,M,M,M,M,M,87.83,KSBD 021945Z AUTO 28005KT 10SM CLR 33/09 A2998 RMK AO2 T03290086,M
SBD,2016-07-02 19:50,91.40,46.40,21.29,250.00,7.00,0.00,29.98,M,5.00,M,CLR,M,M,M,M,M,M,M,HZ,M,M,M,M,M,M,87.86,KSBD 021950Z 25007KT 05SM HZ SKC 33/08 A2998,M
SBD,2016-07-02 20:04,91.22,47.48,22.30,240.00,5.00,0.00,29.97,M,10.00,M,CLR,M,M,M,M,M,M,M,M,M,M,M,M,M,M,87.83,KSBD 022004Z AUTO 24005KT 10SM CLR 33/09 A2997 RMK AO2 T03290086,M
SBD,2016-07-02 20:25,92.30,48.02,22.00,250.00,7.00,0.00,29.97,M,10.00,M,CLR,M,M,M,M,M,M,M,M,M,M,M,M,M,M,88.91,KSBD 022025Z AUTO 25007KT 230V290 10SM CLR 34/09 A2997 RMK AO2 T03350089,M
SBD,2016-07-02 20:44,93.20,48.74,21.98,230.00,9.00,0.00,29.97,M,10.00,M,CLR,M,M,M,M,M,M,M,M,M,M,M,M,M,M,89.89,KSBD 022044Z AUTO 23009KT 10SM CLR 34/09 A2997 RMK AO2 T03400093,M
SBD,2016-07-02 20:50,93.20,48.20,21.54,290.00,9.00,0.00,29.97,M,5.00,M,CLR,M,M,M,M,M,M,M,HZ,M,M,M,M,M,M,89.80,KSBD 022050Z 29009KT 05SM HZ SKC 34/09 A2997,M
SBD,2016-07-02 21:05,93.56,48.56,21.59,270.00,7.00,0.00,29.97,M,10.00,M,CLR,M,M,M,M,M,M,M,M,M,M,M,M,M,M,90.21,KSBD 022105Z AUTO 27007KT 230V310 10SM CLR 34/09 A2997 RMK AO2 T03420092,M
SBD,2016-07-02 21:25,92.84,48.02,21.64,230.00,5.00,0.00,29.96,M,10.00,9.00,CLR,M,M,M,M,M,M,M,M,M,M,M,M,M,M,89.43,KSBD 022125Z AUTO 23005G09KT 10SM CLR 34/09 A2996 RMK AO2 T03380089,M
SBD,2016-07-02 21:44,93.56,47.48,20.73,290.00,7.00,0.00,29.96,M,10.00,M,CLR,M,M,M,M,M,M,M,M,M,M,M,M,M,M,90.04,KSBD 022144Z AUTO 29007KT 10SM CLR 34/09 A2996 RMK AO2 T03420086,M
SBD,2016-07-02 21:50,93.20,46.40,20.13,240.00,8.00,0.00,29.96,M,7.00,M,CLR,M,M,M,M,M,M,M,M,M,M,M,M,M,M,89.55,KSBD 022150Z 24008KT 7SM SKC 34/08 A2996,M
SBD,2016-07-02 22:05,94.28,46.40,19.47,270.00,8.00,0.00,29.95,M,10.00,M,CLR,M,M,M,M,M,M,M,M,M,M,M,M,M,M,90.59,KSBD 022205Z AUTO 27008KT 240V300 10SM CLR 35/08 A2995 RMK AO2 T03460080,M
SBD,2016-07-02 22:25,94.46,45.68,18.84,260.00,9.00,0.00,29.95,M,10.00,M,CLR,M,M,M,M,M,M,M,M,M,M,M,M,M,M,90.67,KSBD 022225Z AUTO 26009KT 10SM CLR 35/08 A2995 RMK AO2 T03470076,M
SBD,2016-07-02 22:44,94.46,46.04,19.10,280.00,4.00,0.00,29.95,M,10.00,M,CLR,M,M,M,M,M,M,M,M,M,M,M,M,M,M,90.71,KSBD 022244Z AUTO 28004KT 10SM CLR 35/08 A2995 RMK AO2 T03470078,M
SBD,2016-07-02 22:47,93.20,46.40,20.13,230.00,10.00,0.00,29.95,M,7.00,M,CLR,M,M,M,M,M,M,M,M,M,M,M,M,M,M,89.55,KSBD 022247Z 23010KT 7SM SKC 34/08 A2995,M
SBD,2016-07-02 23:05,94.28,47.30,20.14,260.00,9.00,0.00,29.95,M,10.00,15.00,CLR,M,M,M,M,M,M,M,M,M,M,M,M,M,M,90.72,KSBD 022305Z AUTO 26009G15KT 10SM CLR 35/09 A2995 RMK AO2 T03460085,M
SBD,2016-07-02 23:25,94.10,47.66,20.53,250.00,9.00,0.00,29.95,M,10.00,14.00,CLR,M,M,M,M,M,M,M,M,M,M,M,M,M,M,90.59,KSBD 022325Z AUTO 25009G14KT 10SM CLR 35/09 A2995 RMK AO2 T03450087,M
SBD,2016-07-02 23:45,94.10,48.56,21.23,260.00,14.00,0.00,29.95,M,10.00,M,CLR,M,M,M,M,M,M,M,M,M,M,M,M,M,M,90.73,KSBD 022345Z AUTO 26014KT 10SM CLR 35/09 A2995 RMK AO2 T03450092 10350 20270,M
SBD,2016-07-02 23:48,93.20,48.20,21.54,250.00,11.00,0.00,29.95,M,7.00,M,CLR,M,M,M,M,M,M,M,M,M,M,M,M,M,M,89.80,KSBD 022348Z 25011KT 07SM SKC 34/09 A2995,M
SBD,2016-07-03 00:04,92.30,48.56,22.45,250.00,13.00,0.00,29.95,M,10.00,M,CLR,M,M,M,M,M,M,M,M,M,M,M,M,M,M,88.99,KSBD 030004Z AUTO 25013KT 10SM CLR 34/09 A2995 RMK AO2 T03350092,M
SBD,2016-07-03 00:24,91.22,48.74,23.38,250.00,13.00,0.00,29.95,M,10.00,M,CLR,M,M,M,M,M,M,M,M,M,M,M,M,M,M,88.00,KSBD 030024Z AUTO 25013KT 10SM CLR 33/09 A2995 RMK AO2 T03290093,M
SBD,2016-07-03 00:44,89.60,50.00,25.79,250.00,13.00,0.00,29.95,M,10.00,M,CLR,M,M,M,M,M,M,M,M,M,M,M,M,M,M,86.70,KSBD 030044Z AUTO 25013KT 10SM CLR 32/10 A2995 RMK AO2 T03200100,M
SBD,2016-07-03 00:49,89.60,50.00,25.79,240.00,12.00,0.00,29.95,M,7.00,M,CLR,M,M,M,M,M,M,M,M,M,M,M,M,M,M,86.70,KSBD 030049Z 24012KT 07SM SKC 32/10 A2995,M
SBD,2016-07-03 01:05,88.34,50.00,26.83,260.00,13.00,0.00,29.95,M,10.00,17.00,CLR,M,M,M,M,M,M,M,M,M,M,M,M,M,M,85.57,KSBD 030105Z AUTO 26013G17KT 10SM CLR 31/10 A2995 RMK AO2 T03130100,M
SBD,2016-07-03 01:24,87.08,51.26,29.26,250.00,12.00,0.00,29.96,M,10.00,M,CLR,M,M,M,M,M,M,M,M,M,M,M,M,M,M,84.68,KSBD 030124Z AUTO 25012KT 10SM CLR 31/11 A2996 RMK AO2 T03060107,M
SBD,2016-07-03 01:44,85.28,52.52,32.47,250.00,12.00,0.00,29.96,M,10.00,M,CLR,M,M,M,M,M,M,M,M,M,M,M,M,M,M,83.41,KSBD 030144Z AUTO 25012KT 10SM CLR 30/11 A2996 RMK AO2 T02960114,M
SBD,2016-07-03 01:50,84.20,53.60,34.97,250.00,12.00,0.00,29.96,M,7.00,M,CLR,M,M,M,M,M,M,M,M,M,M,M,M,M,M,82.76,KSBD 030150Z 25012KT 07SM SKC 29/12 A2996,M
SBD,2016-07-03 02:05,83.84,52.70,34.23,240.00,11.00,0.00,29.97,M,10.00,M,CLR,M,M,M,M,M,M,M,M,M,M,M,M,M,M,82.34,KSBD 030205Z AUTO 24011KT 10SM CLR 29/12 A2997 RMK AO2 T02880115,M
SBD,2016-07-03 02:24,82.04,52.88,36.53,260.00,10.00,0.00,29.98,M,10.00,M,CLR,M,M,M,M,M,M,M,M,M,M,M,M,M,M,82.04,KSBD 030224Z AUTO 26010KT 10SM CLR 28/12 A2998 RMK AO2 T02780116,M
SBD,2016-07-03 02:44,80.78,51.98,36.82,250.00,9.00,0.00,29.99,M,10.00,M,CLR,M,M,M,M,M,M,M,M,M,M,M,M,M,M,80.78,KSBD 030244Z AUTO 25009KT 10SM CLR 27/11 A2999 RMK AO2 T02710111,M
SBD,2016-07-03 02:50,80.60,51.80,36.79,260.00,10.00,0.00,29.99,M,7.00,M,CLR,M,M,M,M,M,M,M,M,M,M,M,M,M,M,80.60,KSBD 030250Z 26010KT 07SM SKC 27/11 A2999,M
SBD,2016-07-03 03:05,78.62,53.42,41.67,260.00,10.00,0.00,30.00,M,10.00,M,CLR,M,M,M,M,M,M,M,M,M,M,M,M,M,M,78.62,KSBD 030305Z AUTO 26010KT 10SM CLR 26/12 A3000 RMK AO2 T02590119,M
SBD,2016-07-03 03:24,77.54,54.86,45.51,240.00,6.00,0.00,30.00,M,10.00,M,CLR,M,M,M,M,M,M,M,M,M,M,M,M,M,M,77.54,KSBD 030324Z AUTO 24006KT 10SM CLR 25/13 A3000 RMK AO2 T02530127,M
SBD,2016-07-03 03:45,76.10,55.40,48.69,250.00,8.00,0.00,30.01,M,10.00,M,CLR,M,M,M,M,M,M,M,M,M,M,M,M,M,M,76.10,KSBD 030345Z AUTO 25008KT 10SM CLR 25/13 A3001 RMK AO2 T02450130,M
SBD,2016-07-03 03:46,75.20,55.40,50.17,230.00,8.00,0.00,39.91,M,7.00,M,CLR,M,M,M,M,M,M,M,M,M,M,M,M,M,M,75.20,KSBD 030346Z 23008KT 07SM SKC 24/13 A3991 RMK LAST,M
SBD,2016-07-03 04:04,74.48,55.40,51.39,250.00,5.00,0.00,30.01,M,10.00,M,CLR,M,M,M,M,M,M,M,M,M,M,M,M,M,M,74.48,KSBD 030404Z AUTO 25005KT 10SM CLR 24/13 A3001 RMK AO2 T02360130,M
SBD,2016-07-03 04:25,73.40,55.40,53.29,250.00,6.00,0.00,30.02,M,10.00,M,CLR,M,M,M,M,M,M,M,M,M,M,M,M,M,M,73.40,KSBD 030425Z AUTO 25006KT 10SM CLR 23/13 A3002 RMK AO2 T02300130,M
SBD,2016-07-03 04:44,72.32,55.40,55.27,250.00,7.00,0.00,30.03,M,10.00,M,CLR,M,M,M,M,M,M,M,M,M,M,M,M,M,M,72.32,KSBD 030444Z AUTO 25007KT 10SM CLR 22/13 A3003 RMK AO2 T02240130,M
SBD,2016-07-03 05:04,71.60,55.58,57.00,260.00,7.00,0.00,30.04,M,10.00,M,CLR,M,M,M,M,M,M,M,M,M,M,M,M,M,M,71.60,KSBD 030504Z AUTO 26007KT 10SM CLR 22/13 A3004 RMK AO2 T02200131,M
SBD,2016-07-03 05:25,70.70,55.76,59.16,250.00,5.00,0.00,30.04,M,10.00,M,CLR,M,M,M,M,M,M,M,M,M,M,M,M,M,M,70.70,KSBD 030525Z AUTO 25005KT 10SM CLR 22/13 A3004 RMK AO2 T02150132,M
SBD,2016-07-03 05:44,70.16,55.58,59.86,250.00,4.00,0.00,30.04,M,10.00,M,CLR,M,M,M,M,M,M,M,M,M,M,M,M,M,M,70.16,KSBD 030544Z AUTO 25004KT 10SM CLR 21/13 A3004 RMK AO2 T02120131 10340 20212 403500171,M
SBD,2016-07-03 06:05,69.44,55.58,61.35,250.00,5.00,0.00,30.04,M,10.00,M,CLR,M,M,M,M,M,M,M,M,M,M,M,M,M,M,69.44,KSBD 030605Z AUTO 25005KT 10SM CLR 21/13 A3004 RMK AO2 T02080131,M
SBD,2016-07-03 06:24,68.90,55.58,62.50,260.00,5.00,0.00,30.04,M,10.00,M,CLR,M,M,M,M,M,M,M,M,M,M,M,M,M,M,68.90,KSBD 030624Z AUTO 26005KT 10SM CLR 21/13 A3004 RMK AO2 T02050131,M
SBD,2016-07-03 06:45,68.18,55.58,64.06,250.00,5.00,0.00,30.04,M,10.00,M,CLR,M,M,M,M,M,M,M,M,M,M,M,M,M,M,68.18,KSBD 030645Z AUTO 25005KT 10SM CLR 20/13 A3004 RMK AO2 T02010131,M
SBD,2016-07-03 07:05,67.46,55.58,65.67,260.00,3.00,0.00,30.04,M,10.00,M,CLR,M,M,M,M,M,M,M,M,M,M,M,M,M,M,67.46,KSBD 030705Z AUTO 26003KT 10SM CLR 20/13 A3004 RMK AO2 T01970131,M
SBD,2016-07-03 07:25,67.10,55.76,66.93,260.00,3.00,0.00,30.05,M,10.00,M,CLR,M,M,M,M,M,M,M,M,M,M,M,M,M,M,67.10,KSBD 030725Z AUTO 26003KT 10SM CLR 20/13 A3005 RMK AO2 T01950132,M
SBD,2016-07-03 07:44,66.56,55.58,67.75,250.00,4.00,0.00,30.05,M,10.00,M,CLR,M,M,M,M,M,M,M,M,M,M,M,M,M,M,66.56,KSBD 030744Z AUTO 25004KT 10SM CLR 19/13 A3005 RMK AO2 T01920131,M
SBD,2016-07-03 08:05,66.38,55.58,68.17,260.00,4.00,0.00,30.04,M,10.00,M,CLR,M,M,M,M,M,M,M,M,M,M,M,M,M,M,66.38,KSBD 030805Z AUTO 26004KT 10SM CLR 19/13 A3004 RMK AO2 T01910131,M
SBD,2016-07-03 08:25,65.48,55.58,70.34,260.00,4.00,0.00,30.04,M,10.00,M,CLR,M,M,M,M,M,M,M,M,M,M,M,M,M,M,65.48,KSBD 030825Z AUTO 26004KT 10SM CLR 19/13 A3004 RMK AO2 T01860131,M
SBD,2016-07-03 08:44,65.12,55.58,71.22,260.00,5.00,0.00,30.04,M,10.00,M,CLR,M,M,M,M,M,M,M,M,M,M,M,M,M,M,65.12,KSBD 030844Z AUTO 26005KT 10SM CLR 18/13 A3004 RMK AO2 T01840131,M
SBD,2016-07-03 09:05,65.30,55.76,71.24,260.00,4.00,0.00,30.04,M,10.00,M,CLR,M,M,M,M,M,M,M,M,M,M,M,M,M,M,65.30,KSBD 030905Z AUTO 26004KT 10SM CLR 19/13 A3004 RMK AO2 T01850132,M
SBD,2016-07-03 09:25,64.40,55.40,72.56,260.00,4.00,0.00,30.03,M,10.00,M,CLR,M,M,M,M,M,M,M,M,M,M,M,M,M,M,64.40,KSBD 030925Z AUTO 26004KT 10SM CLR 18/13 A3003 RMK AO2 T01800130,M
SBD,2016-07-03 09:44,63.86,55.58,74.43,250.00,5.00,0.00,30.03,M,10.00,M,CLR,M,M,M,M,M,M,M,M,M,M,M,M,M,M,63.86,KSBD 030944Z AUTO 25005KT 10SM CLR 18/13 A3003 RMK AO2 T01770131,M
SBD,2016-07-03 10:05,63.68,55.76,75.39,260.00,3.00,0.00,30.02,M,10.00,M,CLR,M,M,M,M,M,M,M,M,M,M,M,M,M,M,63.68,KSBD 031005Z AUTO 26003KT 10SM CLR 18/13 A3002 RMK AO2 T01760132,M
SBD,2016-07-03 10:25,63.68,55.76,75.39,260.00,3.00,0.00,30.02,M,10.00,M,CLR,M,M,M,M,M,M,M,M,M,M,M,M,M,M,63.68,KSBD 031025Z AUTO 26003KT 10SM CLR 18/13 A3002 RMK AO2 T01760132,M
SBD,2016-07-03 10:44,63.86,55.76,74.92,270.00,3.00,0.00,30.02,M,10.00,M,CLR,M,M,M,M,M,M,M,M,M,M,M,M,M,M,63.86,KSBD 031044Z AUTO 27003KT 10SM CLR 18/13 A3002 RMK AO2 T01770132,M
SBD,2016-07-03 11:05,63.14,55.58,76.34,260.00,3.00,0.00,30.02,M,10.00,M,CLR,M,M,M,M,M,M,M,M,M,M,M,M,M,M,63.14,KSBD 031105Z AUTO 26003KT 10SM CLR 17/13 A3002 RMK AO2 T01730131,M
SBD,2016-07-03 11:25,62.78,55.58,77.31,270.00,3.00,0.00,30.02,M,10.00,M,CLR,M,M,M,M,M,M,M,M,M,M,M,M,M,M,62.78,KSBD 031125Z AUTO 27003KT 10SM CLR 17/13 A3002 RMK AO2 T01710131,M
SBD,2016-07-03 11:44,62.60,55.40,77.29,260.00,3.00,0.00,30.02,M,10.00,M,CLR,M,M,M,M,M,M,M,M,M,M,M,M,M,M,62.60,KSBD 031144Z AUTO 26003KT 10SM CLR 17/13 A3002 RMK AO2 T01700130 10210 20170,M
SBD,2016-07-03 12:05,62.24,55.58,78.79,260.00,3.00,0.00,30.02,M,10.00,M,CLR,M,M,M,M,M,M,M,M,M,M,M,M,M,M,62.24,KSBD 031205Z AUTO 26003KT 10SM CLR 17/13 A3002 RMK AO2 T01680131,M
SBD,2016-07-03 12:25,61.88,55.58,79.80,260.00,3.00,0.00,30.02,M,10.00,M,CLR,M,M,M,M,M,M,M,M,M,M,M,M,M,M,61.88,KSBD 031225Z AUTO 26003KT 10SM CLR 17/13 A3002 RMK AO2 T01660131,M
SBD,2016-07-03 12:44,61.52,55.22,79.77,250.00,3.00,0.00,30.03,M,10.00,M,CLR,M,M,M,M,M,M,M,M,M,M,M,M,M,M,61.52,KSBD 031244Z AUTO 25003KT 10SM CLR 16/13 A3003 RMK AO2 T01640129,M
SBD,2016-07-03 13:05,61.70,55.76,80.84,0.00,0.00,0.00,30.04,M,10.00,M,CLR,M,M,M,M,M,M,M,M,M,M,M,M,M,M,61.70,KSBD 031305Z AUTO 00000KT 10SM CLR 17/13 A3004 RMK AO2 T01650132,M
SBD,2016-07-03 13:25,61.88,55.94,80.85,260.00,3.00,0.00,30.04,M,10.00,M,CLR,M,M,M,M,M,M,M,M,M,M,M,M,M,M,61.88,KSBD 031325Z AUTO 26003KT 10SM CLR 17/13 A3004 RMK AO2 T01660133,M
SBD,2016-07-03 13:44,63.14,56.30,78.35,260.00,3.00,0.00,30.04,M,10.00,M,CLR,M,M,M,M,M,M,M,M,M,M,M,M,M,M,63.14,KSBD 031344Z AUTO 26003KT 10SM CLR 17/14 A3004 RMK AO2 T01730135,M
SBD,2016-07-03 13:47,62.60,55.40,77.29,250.00,3.00,0.00,30.04,M,5.00,M,CLR,M,M,M,M,M,M,M,HZ,M,M,M,M,M,M,62.60,KSBD 031347Z 25003KT 05SM HZ SKC 17/13 A3004,M
SBD,2016-07-03 14:05,64.04,56.30,75.92,0.00,0.00,0.00,30.04,M,10.00,M,CLR,M,M,M,M,M,M,M,M,M,M,M,M,M,M,64.04,KSBD 031405Z AUTO 00000KT 10SM CLR 18/14 A3004 RMK AO2 T01780135,M
SBD,2016-07-03 14:25,64.94,56.30,73.57,270.00,3.00,0.00,30.05,M,10.00,M,CLR,M,M,M,M,M,M,M,M,M,M,M,M,M,M,64.94,KSBD 031425Z AUTO 27003KT 10SM CLR 18/14 A3005 RMK AO2 T01830135,M
SBD,2016-07-03 14:44,66.38,56.30,69.98,0.00,0.00,0.00,30.05,M,10.00,M,CLR,M,M,M,M,M,M,M,M,M,M,M,M,M,M,66.38,KSBD 031444Z AUTO 00000KT 10SM CLR 19/14 A3005 RMK AO2 T01910135,M
SBD,2016-07-03 15:04,67.28,56.30,67.83,0.00,0.00,0.00,30.06,M,10.00,M,CLR,M,M,M,M,M,M,M,M,M,M,M,M,M,M,67.28,KSBD 031504Z AUTO 00000KT 10SM CLR 20/14 A3006 RMK AO2 T01960135,M
SBD,2016-07-03 15:25,68.36,56.30,65.35,300.00,3.00,0.00,30.06,M,10.00,M,CLR,M,M,M,M,M,M,M,M,M,M,M,M,M,M,68.36,KSBD 031525Z AUTO 30003KT 10SM CLR 20/14 A3006 RMK AO2 T02020135,M
SBD,2016-07-03 15:44,69.26,56.30,63.37,0.00,0.00,0.00,30.06,M,10.00,M,CLR,M,M,M,M,M,M,M,M,M,M,M,M,M,M,69.26,KSBD 031544Z AUTO 00000KT 10SM CLR 21/14 A3006 RMK AO2 T02070135,M
SBD,2016-07-03 15:49,69.80,55.40,60.21,230.00,3.00,0.00,30.06,M,5.00,M,CLR,M,M,M,M,M,M,M,HZ,M,M,M,M,M,M,69.80,KSBD 031549Z 23003KT 05SM HZ SKC 21/13 A3006,M
SBD,2016-07-03 16:04,71.06,56.30,59.59,0.00,0.00,0.00,30.06,M,10.00,M,CLR,M,M,M,M,M,M,M,M,M,M,M,M,M,M,71.06,KSBD 031604Z AUTO 00000KT 10SM CLR 22/14 A3006 RMK AO2 T02170135,M
SBD,2016-07-03 16:24,72.32,55.94,56.36,230.00,3.00,0.00,30.06,M,10.00,M,CLR,M,M,M,M,M,M,M,M,M,M,M,M,M,M,72.32,KSBD 031624Z AUTO 23003KT 10SM CLR 22/13 A3006 RMK AO2 T02240133,M
SBD,2016-07-03 16:45,73.40,56.12,54.70,270.00,4.00,0.00,30.06,M,10.00,M,CLR,M,M,M,M,M,M,M,M,M,M,M,M,M,M,73.40,KSBD 031645Z AUTO 27004KT 10SM CLR 23/13 A3006 RMK AO2 T02300134,M
SBD,2016-07-03 16:48,73.40,55.40,53.29,230.00,5.00,0.00,30.06,M,5.00,M,CLR,M,M,M,M,M,M,M,HZ,M,M,M,M,M,M,73.40,KSBD 031648Z 23005KT 05SM HZ SKC 23/13 A3006,M
SBD,2016-07-03 17:05,74.48,55.58,51.73,0.00,0.00,0.00,30.06,M,10.00,M,CLR,M,M,M,M,M,M,M,M,M,M,M,M,M,M,74.48,KSBD 031705Z AUTO 00000KT 10SM CLR 24/13 A3006 RMK AO2 T02360131,M
SBD,2016-07-03 17:25,76.10,55.40,48.69,0.00,0.00,0.00,30.06,M,10.00,M,CLR,M,M,M,M,M,M,M,M,M,M,M,M,M,M,76.10,KSBD 031725Z AUTO 00000KT 10SM CLR 25/13 A3006 RMK AO2 T02450130,M
SBD,2016-07-03 17:45,78.08,54.32,43.83,250.00,4.00,0.00,30.06,M,10.00,M,CLR,M,M,M,M,M,M,M,M,M,M,M,M,M,M,78.08,KSBD 031745Z AUTO 25004KT 10SM CLR 26/12 A3006 RMK AO2 T02560124 10256 20163,M
SBD,2016-07-03 17:52,77.00,55.40,47.25,260.00,5.00,0.00,30.06,M,5.00,M,CLR,M,M,M,M,M,M,M,HZ,M,M,M,M,M,M,77.00,KSBD 031752Z 26005KT 05SM HZ SKC 25/13 A3006,M
SBD,2016-07-03 18:04,79.70,55.22,42.94,260.00,5.00,0.00,30.06,M,7.00,M,CLR,M,M,M,M,M,M,M,M,M,M,M,M,M,M,79.70,KSBD 031804Z AUTO 26005KT 7SM CLR 27/13 A3006 RMK AO2 T02650129,M
SBD,2016-07-03 18:24,81.32,53.60,38.39,300.00,5.00,0.00,30.06,M,10.00,M,CLR,M,M,M,M,M,M,M,M,M,M,M,M,M,M,81.32,KSBD 031824Z AUTO 30005KT 10SM CLR 27/12 A3006 RMK AO2 T02740120,M
SBD,2016-07-03 18:44,81.68,52.52,36.47,0.00,0.00,0.00,30.06,M,10.00,M,CLR,M,M,M,M,M,M,M,M,M,M,M,M,M,M,81.68,KSBD 031844Z AUTO 00000KT 10SM CLR 28/11 A3006 RMK AO2 T02760114,M
SBD,2016-07-03 18:47,82.40,53.60,37.07,230.00,4.00,0.00,30.06,M,5.00,M,CLR,M,M,M,M,M,M,M,HZ,M,M,M,M,M,M,82.40,KSBD 031847Z 23004KT 05SM HZ SKC 28/12 A3006,M
SBD,2016-07-03 19:05,83.84,52.70,34.23,280.00,7.00,0.00,30.05,M,10.00,M,CLR,M,M,M,M,M,M,M,M,M,M,M,M,M,M,82.34,KSBD 031905Z AUTO 28007KT 10SM CLR 29/12 A3005 RMK AO2 T02880115,M
SBD,2016-07-03 19:25,84.56,51.62,32.14,290.00,4.00,0.00,30.05,M,10.00,M,CLR,M,M,M,M,M,M,M,M,M,M,M,M,M,M,82.72,KSBD 031925Z AUTO 29004KT 10SM CLR 29/11 A3005 RMK AO2 T02920109,M
SBD,2016-07-03 19:44,85.64,51.08,30.44,270.00,5.00,0.00,30.04,M,10.00,M,CLR,M,M,M,M,M,M,M,M,M,M,M,M,M,M,83.48,KSBD 031944Z AUTO 27005KT 10SM CLR 30/11 A3004 RMK AO2 T02980106,M
SBD,2016-07-03 19:50,86.00,50.00,28.90,270.00,6.00,0.00,30.04,M,5.00,M,CLR,M,M,M,M,M,M,M,HZ,M,M,M,M,M,M,83.62,KSBD 031950Z 27006KT 5SM HZ SKC 30/10 A3004,M
SBD,2016-07-03 20:05,86.90,50.36,28.47,230.00,5.00,0.00,30.04,M,10.00,M,CLR,M,M,M,M,M,M,M,M,M,M,M,M,M,M,84.40,KSBD 032005Z AUTO 23005KT 10SM CLR 31/10 A3004 RMK AO2 T03050102,M
SBD,2016-07-03 20:24,87.62,49.64,27.09,280.00,8.00,0.00,30.04,M,10.00,M,CLR,M,M,M,M,M,M,M,M,M,M,M,M,M,M,84.90,KSBD 032024Z AUTO 28008KT 10SM CLR 31/10 A3004 RMK AO2 T03090098,M
SBD,2016-07-03 20:45,88.52,49.28,25.97,280.00,10.00,0.00,30.03,M,10.00,M,CLR,M,M,M,M,M,M,M,M,M,M,M,M,M,M,85.63,KSBD 032045Z AUTO 28010KT 10SM CLR 31/10 A3003 RMK AO2 T03140096,M
SBD,2016-07-03 20:50,89.60,50.00,25.79,290.00,5.00,0.00,30.03,M,6.00,M,CLR,M,M,M,M,M,M,M,HZ,M,M,M,M,M,M,86.70,KSBD 032050Z 29005KT 6SM HZ SKC 32/10 A3003,M
SBD,2016-07-03 21:04,89.06,49.28,25.53,250.00,5.00,0.00,30.02,M,10.00,M,CLR,M,M,M,M,M,M,M,M,M,M,M,M,M,M,86.11,KSBD 032104Z AUTO 25005KT 10SM CLR 32/10 A3002 RMK AO2 T03170096,M
SBD,2016-07-03 21:25,91.40,49.46,23.88,240.00,8.00,0.00,30.02,M,10.00,M,CLR,M,M,M,M,M,M,M,M,M,M,M,M,M,M,88.28,KSBD 032125Z AUTO 24008KT 10SM CLR 33/10 A3002 RMK AO2 T03300097,M
SBD,2016-07-03 21:44,91.22,49.46,24.02,260.00,6.00,0.00,30.01,M,10.00,M,CLR,M,M,M,M,M,M,M,M,M,M,M,M,M,M,88.11,KSBD 032144Z AUTO 26006KT 10SM CLR 33/10 A3001 RMK AO2 T03290097,M
SBD,2016-07-03 21:49,91.40,48.20,22.78,220.00,7.00,0.00,30.01,M,6.00,M,CLR,M,M,M,M,M,M,M,HZ,M,M,M,M,M,M,88.09,KSBD 032149Z 22007KT 06SM HZ SKC 33/09 A3001,M
SBD,2016-07-03 22:05,91.76,49.10,23.30,250.00,7.00,0.00,30.01,M,10.00,M,CLR,M,M,M,M,M,M,M,M,M,M,M,M,M,M,88.56,KSBD 032205Z AUTO 25007KT 10SM CLR 33/10 A3001 RMK AO2 T03320095,M
SBD,2016-07-03 22:25,91.94,49.28,23.33,290.00,8.00,0.00,30.00,M,10.00,M,CLR,M,M,M,M,M,M,M,M,M,M,M,M,M,M,88.76,KSBD 032225Z AUTO 29008KT 10SM CLR 33/10 A3000 RMK AO2 T03330096,M
SBD,2016-07-03 22:44,91.22,49.82,24.34,250.00,11.00,0.00,29.99,M,10.00,M,CLR,M,M,M,M,M,M,M,M,M,M,M,M,M,M,88.17,KSBD 032244Z AUTO 25011KT 10SM CLR 33/10 A2999 RMK AO2 T03290099,M
SBD,2016-07-03 22:48,91.40,50.00,24.37,240.00,8.00,0.00,29.99,M,6.00,M,CLR,M,M,M,M,M,M,M,HZ,M,M,M,M,M,M,88.36,KSBD 032248Z 24008KT 06SM HZ SKC 33/10 A2999,M
SBD,2016-07-03 23:04,91.94,50.54,24.45,270.00,11.00,0.00,29.99,M,10.00,M,CLR,M,M,M,M,M,M,M,M,M,M,M,M,M,M,88.97,KSBD 032304Z AUTO 27011KT 10SM CLR 33/10 A2999 RMK AO2 T03330103,M
SBD,2016-07-03 23:25,90.50,51.80,26.79,250.00,8.00,0.00,29.99,M,10.00,16.00,CLR,M,M,M,M,M,M,M,M,M,M,M,M,M,M,87.83,KSBD 032325Z AUTO 25008G16KT 10SM CLR 33/11 A2999 RMK AO2 T03250110,M
SBD,2016-07-03 23:44,90.32,52.52,27.67,250.00,11.00,0.00,29.99,M,10.00,15.00,CLR,M,M,M,M,M,M,M,M,M,M,M,M,M,M,87.81,KSBD 032344Z AUTO 25011G15KT 10SM CLR 32/11 A2999 RMK AO2 T03240114 10335 20257,M
SBD,2016-07-03 23:50,89.60,53.60,29.45,240.00,10.00,0.00,29.99,M,6.00,M,CLR,M,M,M,M,M,M,M,HZ,M,M,M,M,M,M,87.36,KSBD 032350Z 24010KT 6SM HZ SKC 32/12 A2999,M
SBD,2016-07-04 00:04,88.88,52.88,29.34,250.00,11.00,0.00,29.99,M,10.00,M,CLR,M,M,M,M,M,M,M,M,M,M,M,M,M,M,86.54,KSBD 040004Z AUTO 25011KT 10SM CLR 32/12 A2999 RMK AO2 T03160116,M
SBD,2016-07-04 00:25,87.26,53.06,31.09,250.00,14.00,0.00,29.99,M,10.00,M,CLR,M,M,M,M,M,M,M,M,M,M,M,M,M,M,85.14,KSBD 040025Z AUTO 25014KT 10SM CLR 31/12 A2999 RMK AO2 T03070117,M
SBD,2016-07-04 00:44,86.18,53.42,32.61,260.00,11.00,0.00,29.98,M,10.00,17.00,CLR,M,M,M,M,M,M,M,M,M,M,M,M,M,M,84.30,KSBD 040044Z AUTO 26011G17KT 10SM CLR 30/12 A2998 RMK AO2 T03010119,M
SBD,2016-07-04 00:50,86.00,53.60,33.01,240.00,12.00,0.00,29.98,M,6.00,M,CLR,M,M,M,M,M,M,M,HZ,M,M,M,M,M,M,84.18,KSBD 040050Z 24012KT 6SM HZ SKC 30/12 A2998,M
SBD,2016-07-04 01:04,85.64,53.60,33.39,250.00,13.00,0.00,29.98,M,10.00,16.00,CLR,M,M,M,M,M,M,M,M,M,M,M,M,M,M,83.89,KSBD 040104Z AUTO 25013G16KT 10SM CLR 30/12 A2998 RMK AO2 T02980120,M
SBD,2016-07-04 01:25,84.92,53.78,34.40,260.00,10.00,0.00,29.98,M,10.00,14.00,CLR,M,M,M,M,M,M,M,M,M,M,M,M,M,M,83.34,KSBD 040125Z AUTO 26010G14KT 10SM CLR 29/12 A2998 RMK AO2 T02940121,M
SBD,2016-07-04 01:44,83.48,54.14,36.51,260.00,13.00,0.00,29.99,M,10.00,M,CLR,M,M,M,M,M,M,M,M,M,M,M,M,M,M,82.31,KSBD 040144Z AUTO 26013KT 10SM CLR 29/12 A2999 RMK AO2 T02860123,M
SBD,2016-07-04 01:50,82.40,53.60,37.07,240.00,11.00,0.00,29.99,M,7.00,M,CLR,M,M,M,M,M,M,M,M,M,M,M,M,M,M,82.40,KSBD 040150Z 24011KT 7SM SKC 28/12 A2999,M
SBD,2016-07-04 02:04,82.40,54.68,38.56,260.00,9.00,0.00,29.99,M,10.00,M,CLR,M,M,M,M,M,M,M,M,M,M,M,M,M,M,82.40,KSBD 040204Z AUTO 26009KT 10SM CLR 28/13 A2999 RMK AO2 T02800126,M
SBD,2016-07-04 02:25,80.78,55.22,41.45,260.00,10.00,0.00,29.99,M,10.00,M,CLR,M,M,M,M,M,M,M,M,M,M,M,M,M,M,80.62,KSBD 040225Z AUTO 26010KT 10SM CLR 27/13 A2999 RMK AO2 T02710129,M
SBD,2016-07-04 02:44,79.16,55.58,44.29,250.00,10.00,0.00,29.99,M,10.00,M,CLR,M,M,M,M,M,M,M,M,M,M,M,M,M,M,79.16,KSBD 040244Z AUTO 25010KT 10SM CLR 26/13 A2999 RMK AO2 T02620131,M
SBD,2016-07-04 02:50,77.00,55.40,47.25,240.00,8.00,0.00,30.00,M,7.00,M,CLR,M,M,M,M,M,M,M,M,M,M,M,M,M,M,77.00,KSBD 040250Z 24008KT 7SM SKC 25/13 A3000,M
SBD,2016-07-04 03:04,77.72,55.76,46.74,250.00,8.00,0.00,30.00,M,10.00,M,CLR,M,M,M,M,M,M,M,M,M,M,M,M,M,M,77.72,KSBD 040304Z AUTO 25008KT 10SM CLR 25/13 A3000 RMK AO2 T02540132,M
SBD,2016-07-04 03:25,76.28,56.30,50.00,250.00,8.00,0.00,30.00,M,10.00,M,CLR,M,M,M,M,M,M,M,M,M,M,M,M,M,M,76.28,KSBD 040325Z AUTO 25008KT 10SM CLR 25/14 A3000 RMK AO2 T02460135,M
SBD,2016-07-04 03:44,75.38,56.30,51.52,240.00,7.00,0.00,30.01,M,10.00,M,CLR,M,M,M,M,M,M,M,M,M,M,M,M,M,M,75.38,KSBD 040344Z AUTO 24007KT 10SM CLR 24/14 A3001 RMK AO2 T02410135,M
SBD,2016-07-04 03:50,75.20,55.40,50.17,230.00,5.00,0.00,30.01,M,7.00,M,CLR,M,M,M,M,M,M,M,M,M,M,M,M,M,M,75.20,KSBD 040350Z 23005KT 7SM SKC 24/13 A3001 RMK LAST,M
SBD,2016-07-04 03:59,74.66,56.30,52.78,250.00,7.00,0.00,30.01,M,10.00,M,CLR,M,M,M,M,M,M,M,M,M,M,M,M,M,M,74.66,KSBD 040359Z AUTO 25007KT 10SM CLR 24/14 A3001 RMK AO2 T02370135,M
SBD,2016-07-04 04:25,73.40,56.30,55.06,240.00,6.00,0.00,30.02,M,10.00,M,CLR,M,M,M,M,M,M,M,M,M,M,M,M,M,M,73.40,KSBD 040425Z AUTO 24006KT 10SM CLR 23/14 A3002 RMK AO2 T02300135,M
SBD,2016-07-04 04:44,72.68,56.30,56.41,240.00,6.00,0.00,30.03,M,10.00,M,CLR,M,M,M,M,M,M,M,M,M,M,M,M,M,M,72.68,KSBD 040444Z AUTO 24006KT 10SM CLR 23/14 A3003 RMK AO2 T02260135,M
SBD,2016-07-04 05:04,71.78,56.30,58.15,240.00,6.00,0.00,30.03,M,10.00,M,CLR,M,M,M,M,M,M,M,M,M,M,M,M,M,M,71.78,KSBD 040504Z AUTO 24006KT 10SM CLR 22/14 A3003 RMK AO2 T02210135,M
SBD,2016-07-04 05:25,70.70,56.30,60.33,250.00,8.00,0.00,30.04,M,10.00,M,CLR,M,M,M,M,M,M,M,M,M,M,M,M,M,M,70.70,KSBD 040525Z AUTO 25008KT 10SM CLR 22/14 A3004 RMK AO2 T02150135,M
SBD,2016-07-04 05:44,69.62,56.30,62.59,250.00,6.00,0.00,30.04,M,10.00,M,CLR,M,M,M,M,M,M,M,M,M,M,M,M,M,M,69.62,KSBD 040544Z AUTO 25006KT 10SM CLR 21/14 A3004 RMK AO2 6//// T02090135,M
SBD,2016-07-04 06:04,68.90,56.30,64.15,250.00,7.00,0.00,30.04,M,10.00,M,CLR,M,M,M,M,M,M,M,M,M,M,M,M,M,M,68.90,KSBD 040604Z AUTO 25007KT 10SM CLR 21/14 A3004 RMK AO2 T02050135,M
SBD,2016-07-04 06:25,67.82,56.30,66.58,250.00,6.00,0.00,30.05,M,10.00,M,CLR,M,M,M,M,M,M,M,M,M,M,M,M,M,M,67.82,KSBD 040625Z AUTO 25006KT 10SM CLR 20/14 A3005 RMK AO2 T01990135,M
SBD,2016-07-04 06:44,67.28,56.30,67.83,260.00,6.00,0.00,30.05,M,10.00,M,CLR,M,M,M,M,M,M,M,M,M,M,M,M,M,M,67.28,KSBD 040644Z AUTO 26006KT 10SM CLR 20/14 A3005 RMK AO2 T01960135,M
SBD,2016-07-04 07:04,66.56,56.30,69.54,260.00,4.00,0.00,30.05,M,10.00,M,CLR,M,M,M,M,M,M,M,M,M,M,M,M,M,M,66.56,KSBD 040704Z AUTO 26004KT 10SM CLR 19/14 A3005 RMK AO2 T01920135,M
SBD,2016-07-04 07:24,66.20,56.30,70.41,260.00,5.00,0.00,30.05,M,10.00,M,CLR,M,M,M,M,M,M,M,M,M,M,M,M,M,M,66.20,KSBD 040724Z AUTO 26005KT 10SM CLR 19/14 A3005 RMK AO2 T01900135,M
SBD,2016-07-04 07:45,65.48,56.30,72.20,260.00,5.00,0.00,30.05,M,10.00,M,CLR,M,M,M,M,M,M,M,M,M,M,M,M,M,M,65.48,KSBD 040745Z AUTO 26005KT 10SM CLR 19/14 A3005 RMK AO2 T01860135,M
SBD,2016-07-04 08:04,65.12,56.12,72.63,260.00,3.00,0.00,30.05,M,10.00,M,CLR,M,M,M,M,M,M,M,M,M,M,M,M,M,M,65.12,KSBD 040804Z AUTO 26003KT 10SM CLR 18/13 A3005 RMK AO2 T01840134,M
SBD,2016-07-04 08:25,64.76,56.30,74.03,240.00,3.00,0.00,30.05,M,10.00,M,CLR,M,M,M,M,M,M,M,M,M,M,M,M,M,M,64.76,KSBD 040825Z AUTO 24003KT 10SM CLR 18/14 A3005 RMK AO2 T01820135,M
SBD,2016-07-04 08:44,64.76,55.94,73.07,0.00,0.00,0.00,30.05,M,10.00,M,CLR,M,M,M,M,M,M,M,M,M,M,M,M,M,M,64.76,KSBD 040844Z AUTO 00000KT 10SM CLR 18/13 A3005 RMK AO2 T01820133,M
SBD,2016-07-04 09:05,64.04,55.94,74.94,250.00,4.00,0.00,30.05,M,10.00,M,CLR,M,M,M,M,M,M,M,M,M,M,M,M,M,M,64.04,KSBD 040905Z AUTO 25004KT 10SM CLR 18/13 A3005 RMK AO2 T01780133,M
SBD,2016-07-04 09:25,63.68,56.12,76.38,250.00,4.00,0.00,30.05,M,10.00,M,CLR,M,M,M,M,M,M,M,M,M,M,M,M,M,M,63.68,KSBD 040925Z AUTO 25004KT 10SM CLR 18/13 A3005 RMK AO2 T01760134,M
SBD,2016-07-04 09:44,63.50,55.94,76.37,260.00,4.00,0.00,30.04,M,10.00,M,CLR,M,M,M,M,M,M,M,M,M,M,M,M,M,M,63.50,KSBD 040944Z AUTO 26004KT 10SM CLR 18/13 A3004 RMK AO2 T01750133,M
SBD,2016-07-04 10:05,63.14,56.30,78.35,270.00,4.00,0.00,30.04,M,10.00,M,CLR,M,M,M,M,M,M,M,M,M,M,M,M,M,M,63.14,KSBD 041005Z AUTO 27004KT 10SM CLR 17/14 A3004 RMK AO2 T01730135,M
SBD,2016-07-04 10:25,62.96,55.94,77.83,260.00,3.00,0.00,30.04,M,10.00,M,CLR,M,M,M,M,M,M,M,M,M,M,M,M,M,M,62.96,KSBD 041025Z AUTO 26003KT 10SM CLR 17/13 A3004 RMK AO2 T01720133,M
SBD,2016-07-04 10:44,62.78,56.12,78.84,250.00,3.00,0.00,30.03,M,10.00,M,CLR,M,M,M,M,M,M,M,M,M,M,M,M,M,M,62.78,KSBD 041044Z AUTO 25003KT 10SM CLR 17/13 A3003 RMK AO2 T01710134,M
SBD,2016-07-04 11:05,62.60,55.94,78.82,230.00,3.00,0.00,30.03,M,10.00,M,CLR,M,M,M,M,M,M,M,M,M,M,M,M,M,M,62.60,KSBD 041105Z AUTO 23003KT 10SM CLR 17/13 A3003 RMK AO2 T01700133,M
SBD,2016-07-04 11:25,62.60,55.94,78.82,250.00,3.00,0.00,30.03,M,10.00,M,CLR,M,M,M,M,M,M,M,M,M,M,M,M,M,M,62.60,KSBD 041125Z AUTO 25003KT 10SM CLR 17/13 A3003 RMK AO2 T01700133,M
SBD,2016-07-04 11:44,61.88,55.76,80.32,260.00,4.00,0.00,30.03,M,10.00,M,CLR,M,M,M,M,M,M,M,M,M,M,M,M,M,M,61.88,KSBD 041144Z AUTO 26004KT 10SM CLR 17/13 A3003 RMK AO2 7//// T01660132 10206 20166,M
SBD,2016-07-04 12:05,61.88,55.94,80.85,260.00,3.00,0.00,30.04,M,10.00,M,CLR,M,M,M,M,M,M,M,M,M,M,M,M,M,M,61.88,KSBD 041205Z AUTO 26003KT 10SM CLR 17/13 A3004 RMK AO2 T01660133,M
SBD,2016-07-04 12:25,60.98,55.58,82.38,250.00,4.00,0.00,30.03,M,10.00,M,CLR,M,M,M,M,M,M,M,M,M,M,M,M,M,M,60.98,KSBD 041225Z AUTO 25004KT 10SM CLR 16/13 A3003 RMK AO2 T01610131,M
SBD,2016-07-04 12:44,60.80,55.58,82.91,260.00,4.00,0.00,30.04,M,10.00,M,CLR,M,M,M,M,M,M,M,M,M,M,M,M,M,M,60.80,KSBD 041244Z AUTO 26004KT 10SM CLR 16/13 A3004 RMK AO2 T01600131,M
SBD,2016-07-04 13:05,60.62,55.58,83.44,260.00,4.00,0.00,30.04,M,10.00,M,CLR,M,M,M,M,M,M,M,M,M,M,M,M,M,M,60.62,KSBD 041305Z AUTO 26004KT 10SM CLR 16/13 A3004 RMK AO2 T01590131,M
SBD,2016-07-04 13:25,61.16,56.30,84.02,260.00,4.00,0.00,30.05,M,7.00,M,CLR,M,M,M,M,M,M,M,M,M,M,M,M,M,M,61.16,KSBD 041325Z AUTO 26004KT 7SM CLR 16/14 A3005 RMK AO2 T01620135,M
SBD,2016-07-04 13:44,62.06,56.66,82.46,250.00,4.00,0.00,30.05,M,7.00,M,CLR,M,M,M,M,M,M,M,M,M,M,M,M,M,M,62.06,KSBD 041344Z AUTO 25004KT 7SM CLR 17/14 A3005 RMK AO2 T01670137,M
SBD,2016-07-04 13:48,62.60,57.20,82.50,240.00,5.00,0.00,30.05,M,4.00,M,CLR,M,M,M,M,M,M,M,HZ,M,M,M,M,M,M,62.60,KSBD 041348Z 24005KT 04SM HZ SKC 17/14 A3005,M
SBD,2016-07-04 14:05,62.96,56.66,79.88,240.00,3.00,0.00,30.06,M,7.00,M,CLR,M,M,M,M,M,M,M,M,M,M,M,M,M,M,62.96,KSBD 041405Z AUTO 24003KT 7SM CLR 17/14 A3006 RMK AO2 T01720137,M
SBD,2016-07-04 14:24,63.68,56.48,77.38,240.00,4.00,0.00,30.06,M,7.00,M,CLR,M,M,M,M,M,M,M,M,M,M,M,M,M,M,63.68,KSBD 041424Z AUTO 24004KT 7SM CLR 18/14 A3006 RMK AO2 T01760136,M
SBD,2016-07-04 14:45,64.58,56.66,75.47,230.00,3.00,0.00,30.06,M,7.00,M,CLR,M,M,M,M,M,M,M,M,M,M,M,M,M,M,64.58,KSBD 041445Z AUTO 23003KT 7SM CLR 18/14 A3006 RMK AO2 T01810137,M
SBD,2016-07-04 14:48,64.40,57.20,77.45,0.00,0.00,0.00,30.06,M,4.00,M,CLR,M,M,M,M,M,M,M,HZ,M,M,M,M,M,M,64.40,KSBD 041448Z 00000KT 04SM HZ SKC 18/14 A3006,M
SBD,2016-07-04 15:04,65.84,56.66,72.23,0.00,0.00,0.00,30.06,M,7.00,M,CLR,M,M,M,M,M,M,M,M,M,M,M,M,M,M,65.84,KSBD 041504Z AUTO 00000KT 7SM CLR 19/14 A3006 RMK AO2 T01880137,M
SBD,2016-07-04 15:25,67.82,56.66,67.45,0.00,0.00,0.00,30.07,M,7.00,M,CLR,M,M,M,M,M,M,M,M,M,M,M,M,M,M,67.82,KSBD 041525Z AUTO 00000KT 7SM CLR 20/14 A3007 RMK AO2 T01990137,M
SBD,2016-07-04 15:44,69.08,56.66,64.59,0.00,0.00,0.00,30.07,M,7.00,M,CLR,M,M,M,M,M,M,M,M,M,M,M,M,M,M,69.08,KSBD 041544Z AUTO 00000KT 7SM CLR 21/14 A3007 RMK AO2 T02060137,M
SBD,2016-07-04 15:47,69.80,57.20,64.26,0.00,0.00,0.00,30.07,M,4.00,M,CLR,M,M,M,M,M,M,M,HZ,M,M,M,M,M,M,69.80,KSBD 041547Z 00000KT 04SM HZ SKC 21/14 A3007,M
SBD,2016-07-04 16:04,69.26,56.30,63.37,0.00,0.00,0.00,30.06,M,7.00,M,CLR,M,M,M,M,M,M,M,M,M,M,M,M,M,M,69.26,KSBD 041604Z AUTO 00000KT 7SM CLR 21/14 A3006 RMK AO2 T02070135,M
SBD,2016-07-04 16:24,70.34,56.84,62.27,0.00,0.00,0.00,30.06,M,7.00,M,CLR,M,M,M,M,M,M,M,M,M,M,M,M,M,M,70.34,KSBD 041624Z AUTO 00000KT 7SM CLR 21/14 A3006 RMK AO2 T02130138,M
SBD,2016-07-04 16:44,72.68,56.48,56.78,0.00,0.00,0.00,30.05,M,10.00,M,CLR,M,M,M,M,M,M,M,M,M,M,M,M,M,M,72.68,KSBD 041644Z AUTO 00000KT 10SM CLR 23/14 A3005 RMK AO2 T02260136,M
SBD,2016-07-04 17:04,74.84,56.48,52.80,350.00,3.00,0.00,30.05,M,7.00,M,CLR,M,M,M,M,M,M,M,M,M,M,M,M,M,M,74.84,KSBD 041704Z AUTO 35003KT 7SM CLR 24/14 A3005 RMK AO2 T02380136,M
SBD,2016-07-04 17:25,76.82,55.94,48.47,0.00,0.00,0.00,30.05,M,10.00,M,CLR,M,M,M,M,M,M,M,M,M,M,M,M,M,M,76.82,KSBD 041725Z AUTO 00000KT 10SM CLR 25/13 A3005 RMK AO2 T02490133,M
SBD,2016-07-04 17:45,78.80,55.04,43.94,0.00,0.00,0.00,30.04,M,10.00,M,CLR,M,M,M,M,M,M,M,M,M,M,M,M,M,M,78.80,KSBD 041745Z AUTO 00000KT 10SM CLR 26/13 A3004 RMK AO2 T02600128 10260 20158,M
SBD,2016-07-04 18:04,80.96,53.96,39.36,310.00,3.00,0.00,30.04,M,10.00,M,CLR,M,M,M,M,M,M,M,M,M,M,M,M,M,M,80.96,KSBD 041804Z AUTO 31003KT 10SM CLR 27/12 A3004 RMK AO2 T02720122,M
SBD,2016-07-04 18:24,82.76,53.42,36.40,300.00,3.00,0.00,30.04,M,10.00,M,CLR,M,M,M,M,M,M,M,M,M,M,M,M,M,M,81.68,KSBD 041824Z AUTO 30003KT 10SM CLR 28/12 A3004 RMK AO2 T02820119,M
SBD,2016-07-04 18:45,83.48,51.98,33.73,250.00,4.00,0.00,30.04,M,10.00,M,CLR,M,M,M,M,M,M,M,M,M,M,M,M,M,M,81.98,KSBD 041845Z AUTO 25004KT 10SM CLR 29/11 A3004 RMK AO2 T02860111,M
SBD,2016-07-04 18:50,84.20,51.80,32.73,260.00,5.00,0.00,30.03,M,6.00,M,CLR,M,M,M,M,M,M,M,HZ,M,M,M,M,M,M,82.48,KSBD 041850Z 26005KT 6SM HZ SKC 29/11 A3003,M
SBD,2016-07-04 19:04,85.64,50.00,29.24,270.00,6.00,0.00,30.03,M,10.00,M,CLR,M,M,M,M,M,M,M,M,M,M,M,M,M,M,83.33,KSBD 041904Z AUTO 27006KT 10SM CLR 30/10 A3003 RMK AO2 T02980100,M
SBD,2016-07-04 19:24,87.44,48.56,26.16,250.00,5.00,0.00,30.02,M,10.00,M,CLR,M,M,M,M,M,M,M,M,M,M,M,M,M,M,84.61,KSBD 041924Z AUTO 25005KT 10SM CLR 31/09 A3002 RMK AO2 T03080092,M
SBD,2016-07-04 19:45,89.24,44.24,20.99,250.00,3.00,0.00,30.01,M,10.00,M,CLR,M,M,M,M,M,M,M,M,M,M,M,M,M,M,85.72,KSBD 041945Z AUTO 25003KT 10SM CLR 32/07 A3001 RMK AO2 T03180068,M
SBD,2016-07-04 19:50,89.60,44.60,21.04,240.00,4.00,0.00,30.01,M,6.00,M,CLR,M,M,M,M,M,M,M,HZ,M,M,M,M,M,M,86.07,KSBD 041950Z 24004KT 6SM HZ SKC 32/07 A3001,M
SBD,2016-07-04 20:04,89.96,46.04,21.97,290.00,5.00,0.00,30.01,M,10.00,M,CLR,M,M,M,M,M,M,M,M,M,M,M,M,M,M,86.52,KSBD 042004Z AUTO 29005KT 10SM CLR 32/08 A3001 RMK AO2 T03220078,M
SBD,2016-07-04 20:25,91.22,45.14,20.41,240.00,7.00,0.00,30.01,M,10.00,M,CLR,M,M,M,M,M,M,M,M,M,M,M,M,M,M,87.56,KSBD 042025Z AUTO 24007KT 10SM CLR 33/07 A3001 RMK AO2 T03290073,M
SBD,2016-07-04 20:44,91.58,46.04,20.89,250.00,8.00,0.00,30.00,M,10.00,M,CLR,M,M,M,M,M,M,M,M,M,M,M,M,M,M,87.99,KSBD 042044Z AUTO 25008KT 10SM CLR 33/08 A3000 RMK AO2 T03310078,M
SBD,2016-07-04 20:50,91.40,46.40,21.29,290.00,9.00,0.00,29.99,M,7.00,M,CLR,M,M,M,M,M,M,M,M,M,M,M,M,M,M,87.86,KSBD 042050Z 29009KT 7SM SKC 33/08 A2999,M
SBD,2016-07-04 21:04,92.66,45.68,19.92,250.00,7.00,0.00,29.99,M,10.00,M,CLR,M,M,M,M,M,M,M,M,M,M,M,M,M,M,88.96,KSBD 042104Z AUTO 25007KT 10SM CLR 34/08 A2999 RMK AO2 T03370076,M
SBD,2016-07-04 21:25,93.02,42.98,17.77,220.00,9.00,0.00,29.99,M,10.00,M,CLR,M,M,M,M,M,M,M,M,M,M,M,M,M,M,89.02,KSBD 042125Z AUTO 22009KT 190V250 10SM CLR 34/06 A2999 RMK AO2 T03390061,M
SBD,2016-07-04 21:44,93.74,45.32,19.00,270.00,11.00,0.00,29.98,M,10.00,15.00,CLR,M,M,M,M,M,M,M,M,M,M,M,M,M,M,89.94,KSBD 042144Z AUTO 27011G15KT 10SM CLR 34/07 A2998 RMK AO2 T03430074,M
SBD,2016-07-04 21:47,93.20,46.40,20.13,260.00,9.00,0.00,29.98,M,7.00,M,CLR,M,M,M,M,M,M,M,M,M,M,M,M,M,M,89.55,KSBD 042147Z 26009KT 07SM SKC 34/08 A2998,M
SBD,2016-07-04 22:04,94.10,46.58,19.71,250.00,7.00,0.00,29.98,M,10.00,M,CLR,M,M,M,M,M,M,M,M,M,M,M,M,M,M,90.44,KSBD 042204Z AUTO 25007KT 220V290 10SM CLR 35/08 A2998 RMK AO2 T03450081,M
SBD,2016-07-04 22:24,93.38,46.58,20.16,250.00,9.00,0.00,29.97,M,10.00,M,CLR,M,M,M,M,M,M,M,M,M,M,M,M,M,M,89.75,KSBD 042224Z AUTO 25009KT 200V260 10SM CLR 34/08 A2997 RMK AO2 T03410081,M
SBD,2016-07-04 22:45,93.92,46.40,19.69,270.00,8.00,0.00,29.96,M,10.00,M,CLR,M,M,M,M,M,M,M,M,M,M,M,M,M,M,90.24,KSBD 042245Z AUTO 27008KT 10SM CLR 34/08 A2996 RMK AO2 T03440080,M
SBD,2016-07-04 22:46,93.20,46.40,20.13,230.00,11.00,0.00,29.96,M,7.00,M,CLR,M,M,M,M,M,M,M,M,M,M,M,M,M,M,89.55,KSBD 042246Z 23011KT 07SM SKC 34/08 A2996,M
SBD,2016-07-04 23:04,94.46,46.76,19.63,250.00,9.00,0.00,29.96,M,10.00,14.00,CLR,M,M,M,M,M,M,M,M,M,M,M,M,M,M,90.81,KSBD 042304Z AUTO 25009G14KT 10SM CLR 35/08 A2996 RMK AO2 T03470082,M
SBD,2016-07-04 23:25,93.92,47.84,20.78,250.00,9.00,0.00,29.95,M,10.00,M,CLR,M,M,M,M,M,M,M,M,M,M,M,M,M,M,90.45,KSBD 042325Z AUTO 25009KT 210V270 10SM CLR 34/09 A2995 RMK AO2 T03440088,M
SBD,2016-07-04 23:44,92.84,50.54,23.77,270.00,11.00,0.00,29.95,M,10.00,15.00,CLR,M,M,M,M,M,M,M,M,M,M,M,M,M,M,89.85,KSBD 042344Z AUTO 27011G15KT 10SM CLR 34/10 A2995 RMK AO2 T03380103 10347 20264,M
SBD,2016-07-04 23:50,93.20,50.00,23.04,250.00,12.00,0.00,29.94,M,7.00,M,CLR,M,M,M,M,M,M,M,M,M,M,M,M,M,M,90.10,KSBD 042350Z 25012KT 7SM SKC 34/10 A2994,M
SBD,2016-07-05 00:05,92.30,51.08,24.66,240.00,12.00,0.00,29.94,M,10.00,15.00,CLR,M,M,M,M,M,M,M,M,M,M,M,M,M,M,89.42,KSBD 050005Z AUTO 24012G15KT 10SM CLR 34/11 A2994 RMK AO2 T03350106,M
SBD,2016-07-05 00:24,90.86,51.62,26.32,250.00,12.00,0.00,29.94,M,10.00,15.00,CLR,M,M,M,M,M,M,M,M,M,M,M,M,M,M,88.14,KSBD 050024Z AUTO 25012G15KT 10SM CLR 33/11 A2994 RMK AO2 T03270109,M
SBD,2016-07-05 00:44,89.42,52.70,28.65,260.00,13.00,0.00,29.94,M,10.00,18.00,CLR,M,M,M,M,M,M,M,M,M,M,M,M,M,M,87.00,KSBD 050044Z AUTO 26013G18KT 10SM CLR 32/12 A2994 RMK AO2 T03190115,M
SBD,2016-07-05 00:50,89.60,53.60,29.45,240.00,14.00,0.00,29.94,M,7.00,M,CLR,M,M,M,M,M,M,M,M,M,M,M,M,M,M,87.36,KSBD 050050Z 24014KT 7SM SKC 32/12 A2994,M
SBD,2016-07-05 01:05,87.80,52.52,29.96,260.00,14.00,0.00,29.94,M,10.00,18.00,CLR,M,M,M,M,M,M,M,M,M,M,M,M,M,M,85.51,KSBD 050105Z AUTO 26014G18KT 10SM CLR 31/11 A2994 RMK AO2 T03100114,M
SBD,2016-07-05 01:24,86.54,53.06,31.81,270.00,13.00,0.00,29.94,M,10.00,16.00,CLR,M,M,M,M,M,M,M,M,M,M,M,M,M,M,84.53,KSBD 050124Z AUTO 27013G16KT 10SM CLR 30/12 A2994 RMK AO2 T03030117,M
SBD,2016-07-05 01:44,85.46,53.24,33.15,260.00,13.00,0.00,29.95,M,10.00,M,CLR,M,M,M,M,M,M,M,M,M,M,M,M,M,M,83.68,KSBD 050144Z AUTO 26013KT 10SM CLR 30/12 A2995 RMK AO2 T02970118,M
SBD,2016-07-05 01:50,84.20,53.60,34.97,260.00,11.00,0.00,29.95,M,7.00,M,CLR,M,M,M,M,M,M,M,M,M,M,M,M,M,M,82.76,KSBD 050150Z 26011KT 7SM SKC 29/12 A2995,M
SBD,2016-07-05 02:05,83.84,53.42,35.15,260.00,11.00,0.00,29.96,M,10.00,M,CLR,M,M,M,M,M,M,M,M,M,M,M,M,M,M,82.46,KSBD 050205Z AUTO 26011KT 10SM CLR 29/12 A2996 RMK AO2 T02880119,M
SBD,2016-07-05 02:24,82.40,53.60,37.07,250.00,11.00,0.00,29.96,M,10.00,M,CLR,M,M,M,M,M,M,M,M,M,M,M,M,M,M,82.40,KSBD 050224Z AUTO 25011KT 10SM CLR 28/12 A2996 RMK AO2 T02800120,M
SBD,2016-07-05 02:44,80.06,54.50,41.34,240.00,7.00,0.00,29.97,M,10.00,M,CLR,M,M,M,M,M,M,M,M,M,M,M,M,M,M,80.08,KSBD 050244Z AUTO 24007KT 10SM CLR 27/13 A2997 RMK AO2 T02670125,M
SBD,2016-07-05 02:50,80.60,55.40,41.97,240.00,8.00,0.00,29.97,M,7.00,M,CLR,M,M,M,M,M,M,M,M,M,M,M,M,M,M,80.53,KSBD 050250Z 24008KT 7SM SKC 27/13 A2997,M
SBD,2016-07-05 03:05,78.44,54.86,44.18,240.00,6.00,0.00,29.97,M,10.00,M,CLR,M,M,M,M,M,M,M,M,M,M,M,M,M,M,78.44,KSBD 050305Z AUTO 24006KT 10SM CLR 26/13 A2997 RMK AO2 T02580127,M
SBD,2016-07-05 03:24,77.18,55.40,46.97,240.00,6.00,0.00,29.98,M,10.00,M,CLR,M,M,M,M,M,M,M,M,M,M,M,M,M,M,77.18,KSBD 050324Z AUTO 24006KT 10SM CLR 25/13 A2998 RMK AO2 T02510130,M
SBD,2016-07-05 03:44,76.10,55.58,49.00,240.00,6.00,0.00,29.98,M,10.00,M,CLR,M,M,M,M,M,M,M,M,M,M,M,M,M,M,76.10,KSBD 050344Z AUTO 24006KT 10SM CLR 25/13 A2998 RMK AO2 T02450131,M
SBD,2016-07-05 03:50,75.20,55.40,50.17,230.00,7.00,0.00,29.99,M,7.00,M,CLR,M,M,M,M,M,M,M,M,M,M,M,M,M,M,75.20,KSBD 050350Z 23007KT 7SM SKC 24/13 A2999 RMK LAST,M
SBD,2016-07-05 04:04,75.20,55.58,50.50,240.00,7.00,0.00,29.99,M,10.00,M,CLR,M,M,M,M,M,M,M,M,M,M,M,M,M,M,75.20,KSBD 050404Z AUTO 24007KT 10SM CLR 24/13 A2999 RMK AO2 T02400131,M
SBD,2016-07-05 04:25,74.30,55.76,52.38,240.00,7.00,0.00,30.00,M,10.00,M,CLR,M,M,M,M,M,M,M,M,M,M,M,M,M,M,74.30,KSBD 050425Z AUTO 24007KT 10SM CLR 24/13 A3000 RMK AO2 T02350132,M
SBD,2016-07-05 04:44,73.40,55.94,54.34,240.00,7.00,0.00,30.01,M,10.00,M,CLR,M,M,M,M,M,M,M,M,M,M,M,M,M,M,73.40,KSBD 050444Z AUTO 24007KT 10SM CLR 23/13 A3001 RMK AO2 T02300133,M
SBD,2016-07-05 05:04,72.50,56.12,56.38,250.00,5.00,0.00,30.01,M,10.00,M,CLR,M,M,M,M,M,M,M,M,M,M,M,M,M,M,72.50,KSBD 050504Z AUTO 25005KT 10SM CLR 23/13 A3001 RMK AO2 T02250134,M
SBD,2016-07-05 05:25,71.24,56.30,59.23,250.00,5.00,0.00,30.01,M,10.00,M,CLR,M,M,M,M,M,M,M,M,M,M,M,M,M,M,71.24,KSBD 050525Z AUTO 25005KT 10SM CLR 22/14 A3001 RMK AO2 T02180135,M
SBD,2016-07-05 05:44,70.34,56.30,61.07,260.00,6.00,0.00,30.02,M,10.00,M,CLR,M,M,M,M,M,M,M,M,M,M,M,M,M,M,70.34,KSBD 050544Z AUTO 26006KT 10SM CLR 21/14 A3002 RMK AO2 T02130135 10336 20213 403470158,M
SBD,2016-07-05 06:04,69.44,56.30,62.98,260.00,4.00,0.00,30.02,M,10.00,M,CLR,M,M,M,M,M,M,M,M,M,M,M,M,M,M,69.44,KSBD 050604Z AUTO 26004KT 10SM CLR 21/14 A3002 RMK AO2 T02080135,M
SBD,2016-07-05 06:25,68.90,56.48,64.57,260.00,5.00,0.00,30.02,M,10.00,M,CLR,M,M,M,M,M,M,M,M,M,M,M,M,M,M,68.90,KSBD 050625Z AUTO 26005KT 10SM CLR 21/14 A3002 RMK AO2 T02050136,M
SBD,2016-07-05 06:44,68.54,56.48,65.37,260.00,5.00,0.00,30.02,M,10.00,M,CLR,M,M,M,M,M,M,M,M,M,M,M,M,M,M,68.54,KSBD 050644Z AUTO 26005KT 10SM CLR 20/14 A3002 RMK AO2 T02030136,M
SBD,2016-07-05 07:04,67.64,56.48,67.43,260.00,5.00,0.00,30.02,M,10.00,M,CLR,M,M,M,M,M,M,M,M,M,M,M,M,M,M,67.64,KSBD 050704Z AUTO 26005KT 10SM CLR 20/14 A3002 RMK AO2 T01980136,M
SBD,2016-07-05 07:25,67.28,56.66,68.72,260.00,5.00,0.00,30.02,M,10.00,M,CLR,M,M,M,M,M,M,M,M,M,M,M,M,M,M,67.28,KSBD 050725Z AUTO 26005KT 10SM CLR 20/14 A3002 RMK AO2 T01960137,M
SBD,2016-07-05 07:44,66.38,56.48,70.43,270.00,4.00,0.00,30.02,M,10.00,M,CLR,M,M,M,M,M,M,M,M,M,M,M,M,M,M,66.38,KSBD 050744Z AUTO 27004KT 10SM CLR 19/14 A3002 RMK AO2 T01910136,M
SBD,2016-07-05 08:04,66.20,56.84,71.80,250.00,6.00,0.00,30.02,M,10.00,M,CLR,M,M,M,M,M,M,M,M,M,M,M,M,M,M,66.20,KSBD 050804Z AUTO 25006KT 10SM CLR 19/14 A3002 RMK AO2 T01900138,M
SBD,2016-07-05 08:25,65.48,56.66,73.14,250.00,4.00,0.00,30.02,M,10.00,M,CLR,M,M,M,M,M,M,M,M,M,M,M,M,M,M,65.48,KSBD 050825Z AUTO 25004KT 10SM CLR 19/14 A3002 RMK AO2 T01860137,M
SBD,2016-07-05 08:44,64.94,56.66,74.53,260.00,5.00,0.00,30.01,M,10.00,M,CLR,M,M,M,M,M,M,M,M,M,M,M,M,M,M,64.94,KSBD 050844Z AUTO 26005KT 10SM CLR 18/14 A3001 RMK AO2 T01830137,M
SBD,2016-07-05 09:04,64.76,56.84,75.49,260.00,6.00,0.00,30.02,M,7.00,M,CLR,M,M,M,M,M,M,M,M,M,M,M,M,M,M,64.76,KSBD 050904Z AUTO 26006KT 7SM CLR 18/14 A3002 RMK AO2 T01820138,M
SBD,2016-07-05 09:25,64.22,57.02,77.43,260.00,5.00,0.00,30.01,M,7.00,M,CLR,M,M,M,M,M,M,M,M,M,M,M,M,M,M,64.22,KSBD 050925Z AUTO 26005KT 7SM CLR 18/14 A3001 RMK AO2 T01790139,M
SBD,2016-07-05 09:44,63.86,57.20,78.92,250.00,5.00,0.00,30.01,M,7.00,M,CLR,M,M,M,M,M,M,M,M,M,M,M,M,M,M,63.86,KSBD 050944Z AUTO 25005KT 7SM CLR 18/14 A3001 RMK AO2 T01770140,M
SBD,2016-07-05 10:04,63.32,57.02,79.91,250.00,5.00,0.00,30.01,M,5.00,M,CLR,M,M,M,M,M,M,M,HZ,M,M,M,M,M,M,63.32,KSBD 051004Z AUTO 25005KT 5SM HZ CLR 17/14 A3001 RMK AO2 T01740139,M
SBD,2016-07-05 10:25,62.96,57.20,81.46,260.00,4.00,0.00,30.01,M,4.00,M,CLR,M,M,M,M,M,M,M,HZ,M,M,M,M,M,M,62.96,KSBD 051025Z AUTO 26004KT 4SM HZ CLR 17/14 A3001 RMK AO2 T01720140,M
SBD,2016-07-05 10:44,62.78,57.20,81.97,250.00,5.00,0.00,30.01,M,3.00,M,CLR,M,M,M,M,M,M,M,HZ,M,M,M,M,M,M,62.78,KSBD 051044Z AUTO 25005KT 3SM HZ CLR 17/14 A3001 RMK AO2 T01710140,M
SBD,2016-07-05 11:04,62.60,57.20,82.50,250.00,4.00,0.00,30.01,M,3.00,M,CLR,M,M,M,M,M,M,M,HZ,M,M,M,M,M,M,62.60,KSBD 051104Z AUTO 25004KT 3SM HZ CLR 17/14 A3001 RMK AO2 T01700140,M
SBD,2016-07-05 11:25,62.60,57.74,84.12,250.00,3.00,0.00,30.01,M,2.50,M,BKN,M,M,M,1600.00,M,M,M,HZ,M,M,M,M,M,M,62.60,KSBD 051125Z AUTO 25003KT 2 1/2SM HZ BKN016 17/14 A3001 RMK AO2 T01700143,M
SBD,2016-07-05 11:44,63.14,57.92,83.07,260.00,3.00,0.00,30.01,M,2.50,M,OVC,M,M,M,1600.00,M,M,M,HZ,M,M,M,M,M,M,63.14,KSBD 051144Z AUTO 26003KT 2 1/2SM HZ OVC016 17/14 A3001 RMK AO2 T01730144 10210 20169,M
SBD,2016-07-05 12:04,63.50,57.92,82.02,250.00,4.00,0.00,30.01,M,2.50,M,OVC,M,M,M,1200.00,M,M,M,HZ,M,M,M,M,M,M,63.50,KSBD 051204Z AUTO 25004KT 2 1/2SM HZ OVC012 18/14 A3001 RMK AO2 T01750144,M
SBD,2016-07-05 12:25,63.68,57.74,80.98,250.00,3.00,0.00,30.01,M,2.50,M,OVC,M,M,M,1200.00,M,M,M,HZ,M,M,M,M,M,M,63.68,KSBD 051225Z AUTO 25003KT 2 1/2SM HZ OVC012 18/14 A3001 RMK AO2 T01760143,M
SBD,2016-07-05 12:44,64.04,57.74,79.97,0.00,0.00,0.00,30.01,M,3.00,M,OVC,M,M,M,1200.00,M,M,M,HZ,M,M,M,M,M,M,64.04,KSBD 051244Z AUTO 00000KT 3SM HZ OVC012 18/14 A3001 RMK AO2 T01780143,M
SBD,2016-07-05 13:04,64.40,57.56,78.46,0.00,0.00,0.00,30.02,M,3.00,M,OVC,M,M,M,1200.00,M,M,M,HZ,M,M,M,M,M,M,64.40,KSBD 051304Z AUTO 00000KT 3SM HZ OVC012 18/14 A3002 RMK AO2 T01800142,M
SBD,2016-07-05 13:25,64.40,57.56,78.46,320.00,4.00,0.00,30.02,M,3.00,M,OVC,M,M,M,1200.00,M,M,M,HZ,M,M,M,M,M,M,64.40,KSBD 051325Z AUTO 32004KT 3SM HZ OVC012 18/14 A3002 RMK AO2 T01800142,M
SBD,2016-07-05 13:44,64.40,57.20,77.45,0.00,0.00,0.00,30.02,M,3.00,M,OVC,M,M,M,1200.00,M,M,M,HZ,M,M,M,M,M,M,64.40,KSBD 051344Z AUTO 00000KT 3SM HZ OVC012 18/14 A3002 RMK AO2 T01800140,M
SBD,2016-07-05 14:00,64.40,57.20,77.45,0.00,0.00,0.00,30.02,M,1.50,M,OVC,M,M,M,1200.00,M,M,M,BR,M,M,M,M,M,M,64.40,KSBD 051400Z 00000KT 1 1/2SM BR OVC012 18/14 A3002,M
SBD,2016-07-05 14:04,64.40,57.38,77.95,260.00,3.00,0.00,30.02,M,3.00,M,OVC,M,M,M,1200.00,M,M,M,HZ,M,M,M,M,M,M,64.40,KSBD 051404Z AUTO 26003KT 3SM HZ OVC012 18/14 A3002 RMK AO2 T01800141,M
SBD,2016-07-05 14:25,64.94,57.56,76.99,250.00,3.00,0.00,30.03,M,3.00,M,OVC,M,M,M,1200.00,M,M,M,HZ,M,M,M,M,M,M,64.94,KSBD 051425Z AUTO 25003KT 3SM HZ OVC012 18/14 A3003 RMK AO2 T01830142,M
SBD,2016-07-05 14:44,64.58,57.38,77.46,0.00,0.00,0.00,30.03,M,3.00,M,OVC,M,M,M,1200.00,M,M,M,HZ,M,M,M,M,M,M,64.58,KSBD 051444Z AUTO 00000KT 3SM HZ OVC012 18/14 A3003 RMK AO2 T01810141,M
SBD,2016-07-05 14:45,64.40,57.20,77.45,0.00,0.00,0.00,30.03,M,1.50,M,OVC,M,M,M,1200.00,M,M,M,BR,M,M,M,M,M,M,64.40,KSBD 051445Z 00000KT 1 1/2SM BR OVC012 18/14 A3003,M
SBD,2016-07-05 15:05,65.84,57.56,74.62,0.00,0.00,0.00,30.03,M,3.00,M,OVC,M,M,M,1400.00,M,M,M,HZ,M,M,M,M,M,M,65.84,KSBD 051505Z AUTO 00000KT 3SM HZ OVC014 19/14 A3003 RMK AO2 T01880142,M
SBD,2016-07-05 15:24,66.38,57.20,72.29,0.00,0.00,0.00,30.03,M,2.00,M,OVC,M,M,M,1600.00,M,M,M,HZ,M,M,M,M,M,M,66.38,KSBD 051524Z AUTO 00000KT 2SM HZ OVC016 19/14 A3003 RMK AO2 T01910140,M
SBD,2016-07-05 15:45,66.20,57.20,72.74,0.00,0.00,0.00,30.03,M,2.00,M,OVC,M,M,M,1600.00,M,M,M,HZ,M,M,M,M,M,M,66.20,KSBD 051545Z 00000KT 2SM HZ OVC016 19/14 A3003,M
SBD,2016-07-05 16:05,69.08,57.02,65.44,270.00,4.00,0.00,30.03,M,2.50,M,BKN,M,M,M,1600.00,M,M,M,HZ,M,M,M,M,M,M,69.08,KSBD 051605Z AUTO 27004KT 2 1/2SM HZ BKN016 21/14 A3003 RMK AO2 T02060139,M
SBD,2016-07-05 16:24,70.34,57.20,63.09,280.00,5.00,0.00,30.03,M,2.50,M,BKN,M,M,M,1800.00,M,M,M,HZ,M,M,M,M,M,M,70.34,KSBD 051624Z AUTO 28005KT 2 1/2SM HZ BKN018 21/14 A3003 RMK AO2 T02130140,M
SBD,2016-07-05 16:44,70.88,56.66,60.74,0.00,0.00,0.00,30.03,M,2.50,M,SCT,M,M,M,1800.00,M,M,M,HZ,M,M,M,M,M,M,70.88,KSBD 051644Z AUTO 00000KT 2 1/2SM HZ SCT018 22/14 A3003 RMK AO2 T02160137,M
SBD,2016-07-05 16:46,71.60,57.20,60.44,0.00,0.00,0.00,30.03,M,2.00,M,BKN,M,M,M,1600.00,M,M,M,HZ,M,M,M,M,M,M,71.60,KSBD 051646Z 00000KT 2SM HZ BKN016 22/14 A3003,M
SBD,2016-07-05 17:05,71.96,56.12,57.42,250.00,5.00,0.00,30.03,M,3.00,M,CLR,M,M,M,M,M,M,M,HZ,M,M,M,M,M,M,71.96,KSBD 051705Z AUTO 25005KT 3SM HZ CLR 22/13 A3003 RMK AO2 T02220134,M
SBD,2016-07-05 17:24,72.86,55.94,55.34,0.00,0.00,0.00,30.04,M,3.00,M,CLR,M,M,M,M,M,M,M,HZ,M,M,M,M,M,M,72.86,KSBD 051724Z AUTO 00000KT 3SM HZ CLR 23/13 A3004 RMK AO2 T02270133,M
SBD,2016-07-05 17:44,74.66,55.58,51.42,0.00,0.00,0.00,30.03,M,3.00,M,CLR,M,M,M,M,M,M,M,HZ,M,M,M,M,M,M,74.66,KSBD 051744Z AUTO 00000KT 3SM HZ CLR 24/13 A3003 RMK AO2 T02370131 10237 20174,M
SBD,2016-07-05 17:48,75.20,55.40,50.17,320.00,5.00,0.00,30.03,M,2.00,M,CLR,M,M,M,M,M,M,M,HZ,M,M,M,M,M,M,75.20,KSBD 051748Z 32005KT 02SM HZ SKC 24/13 A3003,M
SBD,2016-07-05 18:04,75.20,54.68,48.87,290.00,4.00,0.00,30.03,M,4.00,M,CLR,M,M,M,M,M,M,M,HZ,M,M,M,M,M,M,75.20,KSBD 051804Z AUTO 29004KT 4SM HZ CLR 24/13 A3003 RMK AO2 T02400126,M
SBD,2016-07-05 18:24,77.90,53.60,42.95,240.00,3.00,0.00,30.03,M,4.00,M,CLR,M,M,M,M,M,M,M,HZ,M,M,M,M,M,M,77.90,KSBD 051824Z AUTO 24003KT 4SM HZ CLR 26/12 A3003 RMK AO2 T02550120,M
SBD,2016-07-05 18:45,78.98,53.06,40.64,0.00,0.00,0.00,30.02,M,5.00,M,CLR,M,M,M,M,M,M,M,HZ,M,M,M,M,M,M,78.98,KSBD 051845Z AUTO 00000KT 5SM HZ CLR 26/12 A3002 RMK AO2 T02610117,M
SBD,2016-07-05 18:50,80.60,51.80,36.79,0.00,0.00,0.00,30.02,M,2.00,M,CLR,M,M,M,M,M,M,M,M,M,M,M,M,M,M,80.60,KSBD 051850Z 00000KT 02SM SKC 27/11 A3002,M
SBD,2016-07-05 19:04,80.60,51.26,36.06,320.00,3.00,0.00,30.02,M,5.00,M,CLR,M,M,M,M,M,M,M,HZ,M,M,M,M,M,M,80.60,KSBD 051904Z AUTO 32003KT 5SM HZ CLR 27/11 A3002 RMK AO2 T02700107,M
SBD,2016-07-05 19:24,82.40,50.00,32.46,300.00,3.00,0.00,30.01,M,5.00,M,CLR,M,M,M,M,M,M,M,HZ,M,M,M,M,M,M,80.99,KSBD 051924Z AUTO 30003KT 5SM HZ CLR 28/10 A3001 RMK AO2 T02800100,M
SBD,2016-07-05 19:44,83.12,48.92,30.46,0.00,0.00,0.00,30.00,M,5.00,M,CLR,M,M,M,M,M,M,M,HZ,M,M,M,M,M,M,81.35,KSBD 051944Z AUTO 00000KT 5SM HZ CLR 28/09 A3000 RMK AO2 T02840094,M
SBD,2016-07-05 19:51,84.20,48.20,28.63,0.00,0.00,0.00,29.99,M,3.00,M,CLR,M,M,M,M,M,M,M,HZ,M,M,M,M,M,M,82.04,KSBD 051951Z 00000KT 3SM HZ SKC 29/09 A2999,M
SBD,2016-07-05 20:04,84.56,47.66,27.73,0.00,0.00,0.00,29.99,M,7.00,M,CLR,M,M,M,M,M,M,M,M,M,M,M,M,M,M,82.24,KSBD 052004Z AUTO 00000KT 7SM CLR 29/09 A2999 RMK AO2 T02920087,M
SBD,2016-07-05 20:24,84.56,49.64,29.87,280.00,7.00,0.00,29.98,M,7.00,M,CLR,M,M,M,M,M,M,M,M,M,M,M,M,M,M,82.46,KSBD 052024Z AUTO 28007KT 7SM CLR 29/10 A2998 RMK AO2 T02920098,M
SBD,2016-07-05 20:44,86.54,49.28,27.66,240.00,8.00,0.00,29.97,M,7.00,M,CLR,M,M,M,M,M,M,M,M,M,M,M,M,M,M,83.96,KSBD 052044Z AUTO 24008KT 7SM CLR 30/10 A2997 RMK AO2 T03030096,M
SBD,2016-07-05 20:50,86.00,48.20,27.03,240.00,8.00,0.00,29.97,M,3.00,M,CLR,M,M,M,M,M,M,M,HZ,M,M,M,M,M,M,83.40,KSBD 052050Z 24008KT 3SM HZ SKC 30/09 A2997,M
SBD,2016-07-05 21:05,86.54,48.02,26.38,240.00,5.00,0.00,29.96,M,10.00,M,CLR,M,M,M,M,M,M,M,M,M,M,M,M,M,M,83.81,KSBD 052105Z AUTO 24005KT 10SM CLR 30/09 A2996 RMK AO2 T03030089,M
SBD,2016-07-05 21:24,88.52,41.00,18.96,310.00,7.00,0.00,29.96,M,10.00,M,CLR,M,M,M,M,M,M,M,M,M,M,M,M,M,M,84.90,KSBD 052124Z AUTO 31007KT 10SM CLR 31/05 A2996 RMK AO2 T03140050,M
SBD,2016-07-05 21:44,89.42,39.92,17.67,240.00,5.00,0.00,29.95,M,10.00,M,CLR,M,M,M,M,M,M,M,M,M,M,M,M,M,M,85.61,KSBD 052144Z AUTO 24005KT 10SM CLR 32/04 A2995 RMK AO2 T03190044,M
SBD,2016-07-05 21:50,89.60,39.20,17.09,240.00,5.00,0.00,29.95,M,4.00,M,CLR,M,M,M,M,M,M,M,HZ,M,M,M,M,M,M,85.73,KSBD 052150Z 24005KT 4SM HZ SKC 32/04 A2995,M
SBD,2016-07-05 22:05,90.32,40.64,17.67,290.00,4.00,0.00,29.94,M,10.00,M,CLR,M,M,M,M,M,M,M,M,M,M,M,M,M,M,86.42,KSBD 052205Z AUTO 29004KT 10SM CLR 32/05 A2994 RMK AO2 T03240048,M
SBD,2016-07-05 22:24,91.22,37.40,15.13,300.00,8.00,0.00,29.94,M,10.00,M,CLR,M,M,M,M,M,M,M,M,M,M,M,M,M,M,87.07,KSBD 052224Z AUTO 30008KT 250V310 10SM CLR 33/03 A2994 RMK AO2 T03290030,M
SBD,2016-07-05 22:44,92.12,37.58,14.82,280.00,6.00,0.00,29.93,M,10.00,M,CLR,M,M,M,M,M,M,M,M,M,M,M,M,M,M,87.87,KSBD 052244Z AUTO 28006KT 10SM CLR 33/03 A2993 RMK AO2 T03340031,M
SBD,2016-07-05 22:50,91.40,37.40,15.05,260.00,5.00,0.00,29.93,M,4.00,M,CLR,M,M,M,M,M,M,M,HZ,M,M,M,M,M,M,87.23,KSBD 052250Z 26005KT 4SM HZ SKC 33/03 A2993,M
SBD,2016-07-05 23:04,92.84,37.76,14.59,280.00,5.00,0.00,29.93,M,10.00,M,CLR,M,M,M,M,M,M,M,M,M,M,M,M,M,M,88.52,KSBD 052304Z AUTO 28005KT 10SM CLR 34/03 A2993 RMK AO2 T03380032,M
SBD,2016-07-05 23:24,92.48,40.64,16.51,240.00,10.00,0.00,29.92,M,10.00,M,CLR,M,M,M,M,M,M,M,M,M,M,M,M,M,M,88.35,KSBD 052324Z AUTO 24010KT 10SM CLR 34/05 A2992 RMK AO2 T03360048,M
SBD,2016-07-05 23:44,92.12,46.40,20.82,260.00,5.00,0.00,29.92,M,10.00,M,CLR,M,M,M,M,M,M,M,M,M,M,M,M,M,M,88.53,KSBD 052344Z AUTO 26005KT 10SM CLR 33/08 A2992 RMK AO2 T03340080 10338 20240,M
SBD,2016-07-06 00:04,90.68,49.28,24.26,260.00,9.00,0.00,29.91,M,10.00,17.00,CLR,M,M,M,M,M,M,M,M,M,M,M,M,M,M,87.58,KSBD 060004Z AUTO 26009G17KT 10SM CLR 33/10 A2991 RMK AO2 T03260096,M
SBD,2016-07-06 00:25,89.06,50.90,27.12,250.00,14.00,0.00,29.91,M,10.00,M,CLR,M,M,M,M,M,M,M,M,M,M,M,M,M,M,86.35,KSBD 060025Z AUTO 25014KT 10SM CLR 32/11 A2991 RMK AO2 T03170105,M
SBD,2016-07-06 00:44,87.80,51.98,29.37,250.00,16.00,0.00,29.91,M,10.00,20.00,CLR,M,M,M,M,M,M,M,M,M,M,M,M,M,M,85.42,KSBD 060044Z AUTO 25016G20KT 10SM CLR 31/11 A2991 RMK AO2 T03100111,M
SBD,2016-07-06 00:50,87.80,51.80,29.18,240.00,16.00,0.00,29.91,M,5.00,M,CLR,M,M,M,M,M,M,M,HZ,M,M,M,M,M,M,85.39,KSBD 060050Z 24016KT 5SM HZ SKC 31/11 A2991,M
SBD,2016-07-06 01:04,86.36,51.98,30.75,250.00,16.00,0.00,29.91,M,10.00,M,CLR,M,M,M,M,M,M,M,M,M,M,M,M,M,M,84.20,KSBD 060104Z AUTO 25016KT 10SM CLR 30/11 A2991 RMK AO2 T03020111,M
SBD,2016-07-06 01:25,84.38,52.16,32.98,260.00,15.00,0.00,29.92,M,10.00,M,CLR,M,M,M,M,M,M,M,M,M,M,M,M,M,M,82.66,KSBD 060125Z AUTO 26015KT 10SM CLR 29/11 A2992 RMK AO2 T02910112,M
SBD,2016-07-06 01:44,82.94,52.70,35.24,260.00,14.00,0.00,29.93,M,10.00,M,CLR,M,M,M,M,M,M,M,M,M,M,M,M,M,M,81.70,KSBD 060144Z AUTO 26014KT 10SM CLR 28/12 A2993 RMK AO2 T02830115,M
SBD,2016-07-06 01:50,82.40,53.60,37.07,260.00,12.00,0.00,29.93,M,5.00,M,CLR,M,M,M,M,M,M,M,HZ,M,M,M,M,M,M,82.40,KSBD 060150Z 26012KT 5SM HZ SKC 28/12 A2993,M
SBD,2016-07-06 02:04,80.96,52.88,37.83,260.00,13.00,0.00,29.93,M,10.00,M,CLR,M,M,M,M,M,M,M,M,M,M,M,M,M,M,80.96,KSBD 060204Z AUTO 26013KT 10SM CLR 27/12 A2993 RMK AO2 T02720116,M
SBD,2016-07-06 02:25,79.34,53.78,41.23,260.00,11.00,0.00,29.94,M,10.00,15.00,CLR,M,M,M,M,M,M,M,M,M,M,M,M,M,M,79.34,KSBD 060225Z AUTO 26011G15KT 10SM CLR 26/12 A2994 RMK AO2 T02630121,M
SBD,2016-07-06 02:44,77.90,54.14,43.81,250.00,9.00,0.00,29.94,M,10.00,M,CLR,M,M,M,M,M,M,M,M,M,M,M,M,M,M,77.90,KSBD 060244Z AUTO 25009KT 10SM CLR 26/12 A2994 RMK AO2 T02550123,M
SBD,2016-07-06 02:50,77.00,53.60,44.25,240.00,10.00,0.00,29.94,M,6.00,M,CLR,M,M,M,M,M,M,M,HZ,M,M,M,M,M,M,77.00,KSBD 060250Z 24010KT 6SM HZ SKC 25/12 A2994,M
SBD,2016-07-06 03:04,76.64,54.50,46.28,240.00,8.00,0.00,29.95,M,10.00,M,CLR,M,M,M,M,M,M,M,M,M,M,M,M,M,M,76.64,KSBD 060304Z AUTO 24008KT 10SM CLR 25/13 A2995 RMK AO2 T02480125,M
SBD,2016-07-06 03:25,75.20,55.22,49.84,240.00,6.00,0.00,29.95,M,10.00,M,CLR,M,M,M,M,M,M,M,M,M,M,M,M,M,M,75.20,KSBD 060325Z AUTO 24006KT 10SM CLR 24/13 A2995 RMK AO2 T02400129,M
SBD,2016-07-06 03:44,74.48,55.40,51.39,230.00,6.00,0.00,29.96,M,10.00,M,CLR,M,M,M,M,M,M,M,M,M,M,M,M,M,M,74.48,KSBD 060344Z AUTO 23006KT 10SM CLR 24/13 A2996 RMK AO2 T02360130,M
SBD,2016-07-06 03:50,73.40,55.40,53.29,240.00,6.00,0.00,29.96,M,6.00,M,CLR,M,M,M,M,M,M,M,HZ,M,M,M,M,M,M,73.40,KSBD 060350Z 24006KT 6SM HZ SKC 23/13 A2996 RMK LAST,M
SBD,2016-07-06 04:04,73.94,55.58,52.67,240.00,6.00,0.00,29.96,M,10.00,M,CLR,M,M,M,M,M,M,M,M,M,M,M,M,M,M,73.94,KSBD 060404Z AUTO 24006KT 10SM CLR 23/13 A2996 RMK AO2 T02330131,M
SBD,2016-07-06 04:25,73.22,55.58,53.96,240.00,5.00,0.00,29.97,M,10.00,M,CLR,M,M,M,M,M,M,M,M,M,M,M,M,M,M,73.22,KSBD 060425Z AUTO 24005KT 10SM CLR 23/13 A2997 RMK AO2 T02290131,M
SBD,2016-07-06 04:44,72.50,55.94,56.02,240.00,4.00,0.00,29.98,M,10.00,M,CLR,M,M,M,M,M,M,M,M,M,M,M,M,M,M,72.50,KSBD 060444Z AUTO 24004KT 10SM CLR 23/13 A2998 RMK AO2 T02250133,M
SBD,2016-07-06 05:04,71.78,56.30,58.15,240.00,6.00,0.00,29.99,M,10.00,M,CLR,M,M,M,M,M,M,M,M,M,M,M,M,M,M,71.78,KSBD 060504Z AUTO 24006KT 10SM CLR 22/14 A2999 RMK AO2 T02210135,M
SBD,2016-07-06 05:25,71.24,56.48,59.62,240.00,5.00,0.00,29.99,M,10.00,M,CLR,M,M,M,M,M,M,M,M,M,M,M,M,M,M,71.24,KSBD 060525Z AUTO 24005KT 10SM CLR 22/14 A2999 RMK AO2 T02180136,M
SBD,2016-07-06 05:44,70.70,56.66,61.12,240.00,3.00,0.00,29.99,M,10.00,M,CLR,M,M,M,M,M,M,M,M,M,M,M,M,M,M,70.70,KSBD 060544Z AUTO 24003KT 10SM CLR 22/14 A2999 RMK AO2 T02150137 10331 20215 403380169,M
SBD,2016-07-06 06:05,70.16,56.66,62.25,240.00,3.00,0.00,29.99,M,10.00,M,CLR,M,M,M,M,M,M,M,M,M,M,M,M,M,M,70.16,KSBD 060605Z AUTO 24003KT 10SM CLR 21/14 A2999 RMK AO2 T02120137,M
SBD,2016-07-06 06:25,69.26,56.84,64.61,250.00,4.00,0.00,29.99,M,10.00,M,CLR,M,M,M,M,M,M,M,M,M,M,M,M,M,M,69.26,KSBD 060625Z AUTO 25004KT 10SM CLR 21/14 A2999 RMK AO2 T02070138,M
SBD,2016-07-06 06:44,68.90,57.20,66.27,250.00,5.00,0.00,30.00,M,10.00,M,CLR,M,M,M,M,M,M,M,M,M,M,M,M,M,M,68.90,KSBD 060644Z AUTO 25005KT 10SM CLR 21/14 A3000 RMK AO2 T02050140,M
SBD,2016-07-06 07:05,68.72,57.20,66.68,250.00,5.00,0.00,29.99,M,10.00,M,CLR,M,M,M,M,M,M,M,M,M,M,M,M,M,M,68.72,KSBD 060705Z AUTO 25005KT 10SM CLR 20/14 A2999 RMK AO2 T02040140,M
SBD,2016-07-06 07:24,68.00,57.20,68.35,260.00,4.00,0.00,29.99,M,10.00,M,CLR,M,M,M,M,M,M,M,M,M,M,M,M,M,M,68.00,KSBD 060724Z AUTO 26004KT 10SM CLR 20/14 A2999 RMK AO2 T02000140,M
SBD,2016-07-06 07:44,67.28,57.20,70.07,250.00,4.00,0.00,29.99,M,10.00,M,CLR,M,M,M,M,M,M,M,M,M,M,M,M,M,M,67.28,KSBD 060744Z AUTO 25004KT 10SM CLR 20/14 A2999 RMK AO2 T01960140,M
SBD,2016-07-06 08:05,67.28,57.38,70.53,260.00,4.00,0.00,29.98,M,10.00,M,CLR,M,M,M,M,M,M,M,M,M,M,M,M,M,M,67.28,KSBD 060805Z AUTO 26004KT 10SM CLR 20/14 A2998 RMK AO2 T01960141,M
SBD,2016-07-06 08:24,66.92,57.56,71.87,250.00,3.00,0.00,29.98,M,10.00,M,CLR,M,M,M,M,M,M,M,M,M,M,M,M,M,M,66.92,KSBD 060824Z AUTO 25003KT 10SM CLR 19/14 A2998 RMK AO2 T01940142,M
SBD,2016-07-06 08:44,66.20,57.38,73.21,260.00,3.00,0.00,29.98,M,10.00,M,CLR,M,M,M,M,M,M,M,M,M,M,M,M,M,M,66.20,KSBD 060844Z AUTO 26003KT 10SM CLR 19/14 A2998 RMK AO2 T01900141,M
SBD,2016-07-06 09:05,66.20,57.38,73.21,250.00,4.00,0.00,29.98,M,10.00,M,CLR,M,M,M,M,M,M,M,M,M,M,M,M,M,M,66.20,KSBD 060905Z AUTO 25004KT 10SM CLR 19/14 A2998 RMK AO2 T01900141,M
SBD,2016-07-06 09:24,65.84,57.56,74.62,260.00,5.00,0.00,29.98,M,10.00,M,CLR,M,M,M,M,M,M,M,M,M,M,M,M,M,M,65.84,KSBD 060924Z AUTO 26005KT 10SM CLR 19/14 A2998 RMK AO2 T01880142,M
SBD,2016-07-06 09:44,65.84,58.10,76.08,250.00,5.00,0.00,29.99,M,10.00,M,CLR,M,M,M,M,M,M,M,M,M,M,M,M,M,M,65.84,KSBD 060944Z AUTO 25005KT 10SM CLR 19/15 A2999 RMK AO2 T01880145,M
SBD,2016-07-06 10:05,64.94,57.74,77.49,260.00,5.00,0.00,29.98,M,10.00,M,CLR,M,M,M,M,M,M,M,M,M,M,M,M,M,M,64.94,KSBD 061005Z AUTO 26005KT 10SM CLR 18/14 A2998 RMK AO2 T01830143,M
SBD,2016-07-06 10:24,65.12,58.10,78.01,240.00,3.00,0.00,29.98,M,10.00,M,CLR,M,M,M,M,M,M,M,M,M,M,M,M,M,M,65.12,KSBD 061024Z AUTO 24003KT 10SM CLR 18/15 A2998 RMK AO2 T01840145,M
SBD,2016-07-06 10:44,64.58,58.10,79.49,250.00,3.00,0.00,29.98,M,10.00,M,CLR,M,M,M,M,M,M,M,M,M,M,M,M,M,M,64.58,KSBD 061044Z AUTO 25003KT 10SM CLR 18/15 A2998 RMK AO2 T01810145,M
SBD,2016-07-06 11:05,63.68,57.74,80.98,260.00,4.00,0.00,29.98,M,7.00,M,CLR,M,M,M,M,M,M,M,M,M,M,M,M,M,M,63.68,KSBD 061105Z AUTO 26004KT 7SM CLR 18/14 A2998 RMK AO2 T01760143,M
SBD,2016-07-06 11:24,63.50,57.74,81.50,260.00,4.00,0.00,29.98,M,7.00,M,CLR,M,M,M,M,M,M,M,M,M,M,M,M,M,M,63.50,KSBD 061124Z AUTO 26004KT 7SM CLR 18/14 A2998 RMK AO2 T01750143,M
SBD,2016-07-06 11:44,63.14,57.92,83.07,250.00,4.00,0.00,29.99,M,7.00,M,CLR,M,M,M,M,M,M,M,M,M,M,M,M,M,M,63.14,KSBD 061144Z AUTO 25004KT 7SM CLR 17/14 A2999 RMK AO2 T01730144 10214 20172,M
SBD,2016-07-06 12:05,63.50,58.10,82.56,240.00,5.00,0.00,30.00,M,7.00,M,CLR,M,M,M,M,M,M,M,M,M,M,M,M,M,M,63.50,KSBD 061205Z AUTO 24005KT 7SM CLR 18/15 A3000 RMK AO2 T01750145,M
SBD,2016-07-06 12:24,63.50,58.10,82.56,270.00,3.00,0.00,30.00,M,7.00,M,BKN,M,M,M,1800.00,M,M,M,M,M,M,M,M,M,M,63.50,KSBD 061224Z AUTO 27003KT 7SM BKN018 18/15 A3000 RMK AO2 T01750145,M
SBD,2016-07-06 12:44,63.50,58.10,82.56,260.00,4.00,0.00,30.00,M,7.00,M,OVC,M,M,M,1600.00,M,M,M,M,M,M,M,M,M,M,63.50,KSBD 061244Z AUTO 26004KT 7SM OVC016 18/15 A3000 RMK AO2 T01750145,M
SBD,2016-07-06 13:05,63.86,58.10,81.52,270.00,5.00,0.00,30.02,M,7.00,M,OVC,M,M,M,1600.00,M,M,M,M,M,M,M,M,M,M,63.86,KSBD 061305Z AUTO 27005KT 7SM OVC016 18/15 A3002 RMK AO2 T01770145,M
SBD,2016-07-06 13:24,64.04,58.10,81.01,260.00,5.00,0.00,30.02,M,7.00,M,OVC,M,M,M,1400.00,M,M,M,M,M,M,M,M,M,M,64.04,KSBD 061324Z AUTO 26005KT 7SM OVC014 18/15 A3002 RMK AO2 T01780145,M
SBD,2016-07-06 13:44,64.04,58.10,81.01,270.00,5.00,0.00,30.03,M,7.00,M,OVC,M,M,M,1400.00,M,M,M,M,M,M,M,M,M,M,64.04,KSBD 061344Z AUTO 27005KT 7SM OVC014 18/15 A3003 RMK AO2 T01780145,M
SBD,2016-07-06 14:00,64.40,57.20,77.45,260.00,3.00,0.00,30.03,M,3.00,M,OVC,M,M,M,1300.00,M,M,M,BR,M,M,M,M,M,M,64.40,KSBD 061400Z 26003KT 3SM BR OVC013 18/14 A3003,M
SBD,2016-07-06 14:04,64.40,58.10,79.99,270.00,3.00,0.00,30.03,M,7.00,M,OVC,M,M,M,1200.00,M,M,M,M,M,M,M,M,M,M,64.40,KSBD 061404Z AUTO 27003KT 7SM OVC012 18/15 A3003 RMK AO2 T01800145,M
SBD,2016-07-06 14:24,64.76,58.10,79.00,0.00,0.00,0.00,30.03,M,7.00,M,OVC,M,M,M,1200.00,M,M,M,M,M,M,M,M,M,M,64.76,KSBD 061424Z AUTO 00000KT 7SM OVC012 18/15 A3003 RMK AO2 T01820145,M
SBD,2016-07-06 14:45,65.30,58.10,77.52,0.00,0.00,0.00,30.03,M,5.00,M,OVC,M,M,M,1200.00,M,M,M,HZ,M,M,M,M,M,M,65.30,KSBD 061445Z AUTO 00000KT 5SM HZ OVC012 19/15 A3003 RMK AO2 T01850145,M
SBD,2016-07-06 14:47,64.40,57.20,77.45,0.00,0.00,0.00,30.03,M,3.00,M,OVC,M,M,M,1200.00,M,M,M,HZ,M,M,M,M,M,M,64.40,KSBD 061447Z 00000KT 3SM HZ OVC012 18/14 A3003,M
SBD,2016-07-06 15:04,65.66,58.10,76.56,0.00,0.00,0.00,30.03,M,7.00,M,OVC,M,M,M,1200.00,M,M,M,M,M,M,M,M,M,M,65.66,KSBD 061504Z AUTO 00000KT 7SM OVC012 19/15 A3003 RMK AO2 T01870145,M
SBD,2016-07-06 15:24,66.02,58.10,75.61,310.00,3.00,0.00,30.03,M,5.00,M,OVC,M,M,M,1200.00,M,M,M,HZ,M,M,M,M,M,M,66.02,KSBD 061524Z AUTO 31003KT 5SM HZ OVC012 19/15 A3003 RMK AO2 T01890145,M
SBD,2016-07-06 15:45,66.74,58.10,73.74,0.00,0.00,0.00,30.03,M,5.00,M,OVC,M,M,M,1400.00,M,M,M,HZ,M,M,M,M,M,M,66.74,KSBD 061545Z AUTO 00000KT 5SM HZ OVC014 19/15 A3003 RMK AO2 T01930145,M
SBD,2016-07-06 16:04,67.82,58.10,71.04,250.00,4.00,0.00,30.03,M,5.00,M,OVC,M,M,M,1400.00,M,M,M,HZ,M,M,M,M,M,M,67.82,KSBD 061604Z AUTO 25004KT 5SM HZ OVC014 20/15 A3003 RMK AO2 T01990145,M
SBD,2016-07-06 16:24,68.54,58.10,69.30,0.00,0.00,0.00,30.02,M,4.00,M,OVC,M,M,M,1400.00,M,M,M,HZ,M,M,M,M,M,M,68.54,KSBD 061624Z AUTO 00000KT 4SM HZ OVC014 20/15 A3002 RMK AO2 T02030145,M
SBD,2016-07-06 16:45,69.98,57.56,64.70,0.00,0.00,0.00,30.02,M,5.00,M,OVC,M,M,M,1600.00,M,M,M,HZ,M,M,M,M,M,M,69.98,KSBD 061645Z AUTO 00000KT 5SM HZ OVC016 21/14 A3002 RMK AO2 T02110142,M
SBD,2016-07-06 16:50,69.80,57.20,64.26,0.00,0.00,0.00,30.01,M,3.00,M,BKN,M,M,M,1600.00,M,M,M,HZ,M,M,M,M,M,M,69.80,KSBD 061650Z 00000KT 3SM HZ BKN016 21/14 A3001,M
SBD,2016-07-06 17:04,71.60,57.56,61.23,0.00,0.00,0.00,30.01,M,5.00,M,BKN,M,M,M,1600.00,M,M,M,HZ,M,M,M,M,M,M,71.60,KSBD 061704Z AUTO 00000KT 5SM HZ BKN016 22/14 A3001 RMK AO2 T02200142,M
SBD,2016-07-06 17:24,73.40,57.02,56.51,0.00,0.00,0.00,30.01,M,5.00,M,SCT,M,M,M,1800.00,M,M,M,HZ,M,M,M,M,M,M,73.40,KSBD 061724Z AUTO 00000KT 5SM HZ SCT018 23/14 A3001 RMK AO2 T02300139,M
SBD,2016-07-06 17:44,74.66,57.02,54.17,0.00,0.00,0.00,30.00,M,5.00,M,CLR,M,M,M,M,M,M,M,HZ,M,M,M,M,M,M,74.66,KSBD 061744Z AUTO 00000KT 5SM HZ CLR 24/14 A3000 RMK AO2 T02370139 10237 20175,M
SBD,2016-07-06 18:05,75.92,56.66,51.27,260.00,3.00,0.00,29.99,M,5.00,M,CLR,M,M,M,M,M,M,M,HZ,M,M,M,M,M,M,75.92,KSBD 061805Z AUTO 26003KT 5SM HZ CLR 24/14 A2999 RMK AO2 T02440137,M
SBD,2016-07-06 18:24,76.82,56.12,48.79,230.00,3.00,0.00,29.99,M,7.00,M,CLR,M,M,M,M,M,M,M,M,M,M,M,M,M,M,76.82,KSBD 061824Z AUTO 23003KT 7SM CLR 25/13 A2999 RMK AO2 T02490134,M
SBD,2016-07-06 18:45,78.62,55.04,44.21,0.00,0.00,0.00,30.00,M,7.00,M,CLR,M,M,M,M,M,M,M,M,M,M,M,M,M,M,78.62,KSBD 061845Z AUTO 00000KT 7SM CLR 26/13 A3000 RMK AO2 T02590128,M
SBD,2016-07-06 18:50,80.60,53.60,39.30,310.00,4.00,0.00,29.99,M,4.00,M,CLR,M,M,M,M,M,M,M,HZ,M,M,M,M,M,M,80.60,KSBD 061850Z 31004KT 4SM HZ SKC 27/12 A2999,M
SBD,2016-07-06 19:04,80.42,53.42,39.28,250.00,4.00,0.00,29.99,M,10.00,M,CLR,M,M,M,M,M,M,M,M,M,M,M,M,M,M,80.42,KSBD 061904Z AUTO 25004KT 10SM CLR 27/12 A2999 RMK AO2 T02690119,M
SBD,2016-07-06 19:25,82.94,51.44,33.64,280.00,5.00,0.00,29.99,M,10.00,M,CLR,M,M,M,M,M,M,M,M,M,M,M,M,M,M,81.52,KSBD 061925Z AUTO 28005KT 10SM CLR 28/11 A2999 RMK AO2 T02830108,M
SBD,2016-07-06 19:44,83.12,50.72,32.57,250.00,4.00,0.00,29.98,M,10.00,M,CLR,M,M,M,M,M,M,M,M,M,M,M,M,M,M,81.56,KSBD 061944Z AUTO 25004KT 10SM CLR 28/10 A2998 RMK AO2 T02840104,M
SBD,2016-07-06 20:05,84.02,49.82,30.59,280.00,6.00,0.00,29.97,M,10.00,M,CLR,M,M,M,M,M,M,M,M,M,M,M,M,M,M,82.08,KSBD 062005Z AUTO 28006KT 10SM CLR 29/10 A2997 RMK AO2 T02890099,M
SBD,2016-07-06 20:24,86.00,46.94,25.78,260.00,6.00,0.00,29.97,M,10.00,M,CLR,M,M,M,M,M,M,M,M,M,M,M,M,M,M,83.27,KSBD 062024Z AUTO 26006KT 10SM CLR 30/08 A2997 RMK AO2 T03000083,M
SBD,2016-07-06 20:51,86.00,46.40,25.26,230.00,8.00,0.00,29.96,M,4.00,M,CLR,M,M,M,M,M,M,M,HZ,M,M,M,M,M,M,83.22,KSBD 062051Z 23008KT 4SM HZ SKC 30/08 A2996,M
SBD,2016-07-06 21:04,87.26,47.66,25.44,250.00,5.00,0.00,29.96,M,10.00,M,CLR,M,M,M,M,M,M,M,M,M,M,M,M,M,M,84.36,KSBD 062104Z AUTO 25005KT 10SM CLR 31/09 A2996 RMK AO2 T03070087,M
SBD,2016-07-06 21:24,88.16,47.48,24.56,290.00,5.00,0.00,29.95,M,10.00,M,CLR,M,M,M,M,M,M,M,M,M,M,M,M,M,M,85.10,KSBD 062124Z AUTO 29005KT 10SM CLR 31/09 A2995 RMK AO2 T03120086,M
SBD,2016-07-06 21:45,88.88,47.66,24.17,250.00,8.00,0.00,29.95,M,10.00,M,CLR,M,M,M,M,M,M,M,M,M,M,M,M,M,M,85.74,KSBD 062145Z AUTO 25008KT 10SM CLR 32/09 A2995 RMK AO2 T03160087,M
SBD,2016-07-06 21:47,87.80,48.20,25.52,240.00,7.00,0.00,29.95,M,5.00,M,CLR,M,M,M,M,M,M,M,HZ,M,M,M,M,M,M,84.87,KSBD 062147Z 24007KT 5SM HZ SKC 31/09 A2995,M
SBD,2016-07-06 22:04,90.50,46.94,22.35,270.00,3.00,0.00,29.94,M,10.00,M,CLR,M,M,M,M,M,M,M,M,M,M,M,M,M,M,87.10,KSBD 062204Z AUTO 27003KT 10SM CLR 33/08 A2994 RMK AO2 T03250083,M
SBD,2016-07-06 22:24,90.68,46.94,22.23,270.00,4.00,0.00,29.94,M,10.00,M,CLR,M,M,M,M,M,M,M,M,M,M,M,M,M,M,87.27,KSBD 062224Z AUTO 27004KT 10SM CLR 33/08 A2994 RMK AO2 T03260083,M
SBD,2016-07-06 22:45,91.04,50.18,24.81,250.00,7.00,0.00,29.93,M,10.00,M,CLR,M,M,M,M,M,M,M,M,M,M,M,M,M,M,88.05,KSBD 062245Z AUTO 25007KT 10SM CLR 33/10 A2993 RMK AO2 T03280101,M
SBD,2016-07-06 22:50,91.40,50.00,24.37,260.00,8.00,0.00,29.93,M,5.00,M,CLR,M,M,M,M,M,M,M,HZ,M,M,M,M,M,M,88.36,KSBD 062250Z 26008KT 5SM HZ SKC 33/10 A2993,M
SBD,2016-07-06 23:04,91.58,50.18,24.40,250.00,10.00,0.00,29.93,M,10.00,M,CLR,M,M,M,M,M,M,M,M,M,M,M,M,M,M,88.57,KSBD 062304Z AUTO 25010KT 10SM CLR 33/10 A2993 RMK AO2 T03310101,M
SBD,2016-07-06 23:24,91.04,48.56,23.36,260.00,8.00,0.00,29.93,M,10.00,M,CLR,M,M,M,M,M,M,M,M,M,M,M,M,M,M,87.81,KSBD 062324Z AUTO 26008KT 10SM CLR 33/09 A2993 RMK AO2 T03280092,M
SBD,2016-07-06 23:45,90.50,49.10,24.24,250.00,11.00,0.00,29.92,M,10.00,M,CLR,M,M,M,M,M,M,M,M,M,M,M,M,M,M,87.38,KSBD 062345Z AUTO 25011KT 10SM CLR 33/10 A2992 RMK AO2 T03250095 10332 20234,M
SBD,2016-07-06 23:50,89.60,50.00,25.79,240.00,12.00,0.00,29.92,M,7.00,M,CLR,M,M,M,M,M,M,M,M,M,M,M,M,M,M,86.70,KSBD 062350Z 24012KT 7SM SKC 32/10 A2992,M
SBD,2016-07-07 00:04,89.42,50.00,25.93,290.00,7.00,0.00,29.91,M,10.00,15.00,CLR,M,M,M,M,M,M,M,M,M,M,M,M,M,M,86.53,KSBD 070004Z AUTO 29007G15KT 10SM CLR 32/10 A2991 RMK AO2 T03190100,M
SBD,2016-07-07 00:24,88.52,50.72,27.40,260.00,13.00,0.00,29.91,M,10.00,M,CLR,M,M,M,M,M,M,M,M,M,M,M,M,M,M,85.84,KSBD 070024Z AUTO 26013KT 10SM CLR 31/10 A2991 RMK AO2 T03140104,M
SBD,2016-07-07 00:45,87.80,51.80,29.18,250.00,12.00,0.00,29.91,M,10.00,15.00,CLR,M,M,M,M,M,M,M,M,M,M,M,M,M,M,85.39,KSBD 070045Z AUTO 25012G15KT 10SM CLR 31/11 A2991 RMK AO2 T03100110,M
SBD,2016-07-07 01:04,87.08,51.80,29.85,270.00,9.00,0.00,29.91,M,10.00,17.00,CLR,M,M,M,M,M,M,M,M,M,M,M,M,M,M,84.77,KSBD 070104Z AUTO 27009G17KT 10SM CLR 31/11 A2991 RMK AO2 T03060110,M
SBD,2016-07-07 01:24,85.64,52.34,31.88,250.00,12.00,0.00,29.91,M,10.00,M,CLR,M,M,M,M,M,M,M,M,M,M,M,M,M,M,83.67,KSBD 070124Z AUTO 25012KT 10SM CLR 30/11 A2991 RMK AO2 T02980113,M
SBD,2016-07-07 01:45,84.20,53.06,34.29,240.00,10.00,0.00,29.91,M,10.00,M,CLR,M,M,M,M,M,M,M,M,M,M,M,M,M,M,82.67,KSBD 070145Z AUTO 24010KT 10SM CLR 29/12 A2991 RMK AO2 T02900117,M
SBD,2016-07-07 02:04,82.58,53.60,36.85,250.00,11.00,0.00,29.92,M,10.00,M,CLR,M,M,M,M,M,M,M,M,M,M,M,M,M,M,81.58,KSBD 070204Z AUTO 25011KT 10SM CLR 28/12 A2992 RMK AO2 T02810120,M
SBD,2016-07-07 02:24,80.96,54.50,40.14,240.00,11.00,0.00,29.92,M,10.00,M,CLR,M,M,M,M,M,M,M,M,M,M,M,M,M,M,80.64,KSBD 070224Z AUTO 24011KT 10SM CLR 27/13 A2992 RMK AO2 T02720125,M
SBD,2016-07-07 02:44,79.34,55.22,43.45,250.00,10.00,0.00,29.93,M,10.00,M,CLR,M,M,M,M,M,M,M,M,M,M,M,M,M,M,79.34,KSBD 070244Z AUTO 25010KT 10SM CLR 26/13 A2993 RMK AO2 T02630129,M
SBD,2016-07-07 02:50,78.80,55.40,44.52,240.00,9.00,0.00,29.93,M,7.00,M,CLR,M,M,M,M,M,M,M,M,M,M,M,M,M,M,78.80,KSBD 070250Z 24009KT 7SM SKC 26/13 A2993,M
SBD,2016-07-07 03:04,77.90,55.76,46.47,250.00,10.00,0.00,29.93,M,10.00,M,CLR,M,M,M,M,M,M,M,M,M,M,M,M,M,M,77.90,KSBD 070304Z AUTO 25010KT 10SM CLR 26/13 A2993 RMK AO2 T02550132,M
SBD,2016-07-07 03:25,76.46,56.30,49.70,260.00,10.00,0.00,29.94,M,10.00,M,CLR,M,M,M,M,M,M,M,M,M,M,M,M,M,M,76.46,KSBD 070325Z AUTO 26010KT 10SM CLR 25/14 A2994 RMK AO2 T02470135,M
SBD,2016-07-07 03:44,75.56,56.30,51.21,240.00,6.00,0.00,29.94,M,10.00,M,CLR,M,M,M,M,M,M,M,M,M,M,M,M,M,M,75.56,KSBD 070344Z AUTO 24006KT 10SM CLR 24/14 A2994 RMK AO2 T02420135,M
SBD,2016-07-07 04:04,74.66,56.30,52.78,240.00,6.00,0.00,29.95,M,10.00,M,CLR,M,M,M,M,M,M,M,M,M,M,M,M,M,M,74.66,KSBD 070404Z AUTO 24006KT 10SM CLR 24/14 A2995 RMK AO2 T02370135,M
SBD,2016-07-07 04:25,73.76,56.30,54.39,240.00,7.00,0.00,29.95,M,10.00,M,CLR,M,M,M,M,M,M,M,M,M,M,M,M,M,M,73.76,KSBD 070425Z AUTO 24007KT 10SM CLR 23/14 A2995 RMK AO2 T02320135,M
SBD,2016-07-07 04:44,72.86,56.48,56.43,250.00,7.00,0.00,29.97,M,10.00,M,CLR,M,M,M,M,M,M,M,M,M,M,M,M,M,M,72.86,KSBD 070444Z AUTO 25007KT 10SM CLR 23/14 A2997 RMK AO2 T02270136,M
SBD,2016-07-07 05:04,71.96,56.66,58.56,250.00,7.00,0.00,29.97,M,10.00,M,CLR,M,M,M,M,M,M,M,M,M,M,M,M,M,M,71.96,KSBD 070504Z AUTO 25007KT 10SM CLR 22/14 A2997 RMK AO2 T02220137,M
SBD,2016-07-07 05:25,70.88,57.02,61.54,260.00,5.00,0.00,29.97,M,10.00,M,CLR,M,M,M,M,M,M,M,M,M,M,M,M,M,M,70.88,KSBD 070525Z AUTO 26005KT 10SM CLR 22/14 A2997 RMK AO2 T02160139,M
SBD,2016-07-07 05:44,69.98,57.20,63.87,260.00,6.00,0.00,29.97,M,10.00,M,CLR,M,M,M,M,M,M,M,M,M,M,M,M,M,M,69.98,KSBD 070544Z AUTO 26006KT 10SM CLR 21/14 A2997 RMK AO2 T02110140 10322 20211 403320172,M
SBD,2016-07-07 06:04,69.80,57.38,64.68,250.00,5.00,0.00,29.97,M,10.00,M,CLR,M,M,M,M,M,M,M,M,M,M,M,M,M,M,69.80,KSBD 070604Z AUTO 25005KT 10SM CLR 21/14 A2997 RMK AO2 T02100141,M
SBD,2016-07-07 06:25,69.08,57.56,66.72,250.00,4.00,0.00,29.97,M,10.00,M,CLR,M,M,M,M,M,M,M,M,M,M,M,M,M,M,69.08,KSBD 070625Z AUTO 25004KT 10SM CLR 21/14 A2997 RMK AO2 T02060142,M
SBD,2016-07-07 06:44,68.36,57.56,68.39,260.00,5.00,0.00,29.97,M,10.00,M,CLR,M,M,M,M,M,M,M,M,M,M,M,M,M,M,68.36,KSBD 070644Z AUTO 26005KT 10SM CLR 20/14 A2997 RMK AO2 T02020142,M
SBD,2016-07-07 07:04,68.00,57.56,69.25,260.00,4.00,0.00,29.97,M,10.00,M,CLR,M,M,M,M,M,M,M,M,M,M,M,M,M,M,68.00,KSBD 070704Z AUTO 26004KT 10SM CLR 20/14 A2997 RMK AO2 T02000142,M
SBD,2016-07-07 07:25,67.10,57.56,71.43,260.00,4.00,0.00,29.97,M,10.00,M,CLR,M,M,M,M,M,M,M,M,M,M,M,M,M,M,67.10,KSBD 070725Z AUTO 26004KT 10SM CLR 20/14 A2997 RMK AO2 T01950142,M
SBD,2016-07-07 07:44,66.38,57.56,73.23,260.00,4.00,0.00,29.97,M,10.00,M,CLR,M,M,M,M,M,M,M,M,M,M,M,M,M,M,66.38,KSBD 070744Z AUTO 26004KT 10SM CLR 19/14 A2997 RMK AO2 T01910142,M
SBD,2016-07-07 08:04,66.20,57.74,74.17,260.00,4.00,0.00,29.97,M,10.00,M,CLR,M,M,M,M,M,M,M,M,M,M,M,M,M,M,66.20,KSBD 070804Z AUTO 26004KT 10SM CLR 19/14 A2997 RMK AO2 T01900143,M
SBD,2016-07-07 08:24,65.84,57.74,75.10,0.00,0.00,0.00,29.97,M,10.00,M,CLR,M,M,M,M,M,M,M,M,M,M,M,M,M,M,65.84,KSBD 070824Z AUTO 00000KT 10SM CLR 19/14 A2997 RMK AO2 T01880143,M
SBD,2016-07-07 08:45,65.84,57.92,75.59,260.00,3.00,0.00,29.96,M,10.00,M,CLR,M,M,M,M,M,M,M,M,M,M,M,M,M,M,65.84,KSBD 070845Z AUTO 26003KT 10SM CLR 19/14 A2996 RMK AO2 T01880144,M
SBD,2016-07-07 09:04,65.30,57.74,76.53,250.00,3.00,0.00,29.95,M,10.00,M,CLR,M,M,M,M,M,M,M,M,M,M,M,M,M,M,65.30,KSBD 070904Z AUTO 25003KT 10SM CLR 19/14 A2995 RMK AO2 T01850143,M
SBD,2016-07-07 09:24,65.12,57.56,76.51,260.00,3.00,0.00,29.95,M,10.00,M,CLR,M,M,M,M,M,M,M,M,M,M,M,M,M,M,65.12,KSBD 070924Z AUTO 26003KT 10SM CLR 18/14 A2995 RMK AO2 T01840142,M
SBD,2016-07-07 09:45,64.58,57.56,77.96,250.00,4.00,0.00,29.95,M,10.00,M,CLR,M,M,M,M,M,M,M,M,M,M,M,M,M,M,64.58,KSBD 070945Z AUTO 25004KT 10SM CLR 18/14 A2995 RMK AO2 T01810142,M
SBD,2016-07-07 10:04,64.40,57.56,78.46,260.00,4.00,0.00,29.95,M,10.00,M,CLR,M,M,M,M,M,M,M,M,M,M,M,M,M,M,64.40,KSBD 071004Z AUTO 26004KT 10SM CLR 18/14 A2995 RMK AO2 T01800142,M
SBD,2016-07-07 10:24,64.04,57.74,79.97,260.00,3.00,0.00,29.95,M,10.00,M,CLR,M,M,M,M,M,M,M,M,M,M,M,M,M,M,64.04,KSBD 071024Z AUTO 26003KT 10SM CLR 18/14 A2995 RMK AO2 T01780143,M
SBD,2016-07-07 10:45,63.68,57.74,80.98,260.00,4.00,0.00,29.95,M,10.00,M,CLR,M,M,M,M,M,M,M,M,M,M,M,M,M,M,63.68,KSBD 071045Z AUTO 26004KT 10SM CLR 18/14 A2995 RMK AO2 T01760143,M
SBD,2016-07-07 11:04,63.50,57.74,81.50,250.00,4.00,0.00,29.95,M,10.00,M,CLR,M,M,M,M,M,M,M,M,M,M,M,M,M,M,63.50,KSBD 071104Z AUTO 25004KT 10SM CLR 18/14 A2995 RMK AO2 T01750143,M
SBD,2016-07-07 11:24,62.96,57.56,82.52,260.00,4.00,0.00,29.95,M,7.00,M,CLR,M,M,M,M,M,M,M,M,M,M,M,M,M,M,62.96,KSBD 071124Z AUTO 26004KT 7SM CLR 17/14 A2995 RMK AO2 T01720142,M
SBD,2016-07-07 11:45,62.78,57.56,83.04,260.00,4.00,0.00,29.96,M,7.00,M,CLR,M,M,M,M,M,M,M,M,M,M,M,M,M,M,62.78,KSBD 071145Z AUTO 26004KT 7SM CLR 17/14 A2996 RMK AO2 T01710142 10211 20171,M
SBD,2016-07-07 12:04,62.60,57.74,84.12,240.00,4.00,0.00,29.95,M,7.00,M,CLR,M,M,M,M,M,M,M,M,M,M,M,M,M,M,62.60,KSBD 071204Z AUTO 24004KT 7SM CLR 17/14 A2995 RMK AO2 T01700143,M
SBD,2016-07-07 12:24,62.60,57.74,84.12,270.00,3.00,0.00,29.96,M,7.00,M,CLR,M,M,M,M,M,M,M,M,M,M,M,M,M,M,62.60,KSBD 071224Z AUTO 27003KT 7SM CLR 17/14 A2996 RMK AO2 T01700143,M
SBD,2016-07-07 12:45,62.78,57.92,84.13,260.00,3.00,0.00,29.96,M,7.00,M,CLR,M,M,M,M,M,M,M,M,M,M,M,M,M,M,62.78,KSBD 071245Z AUTO 26003KT 7SM CLR 17/14 A2996 RMK AO2 T01710144,M
SBD,2016-07-07 13:04,62.60,58.10,85.21,0.00,0.00,0.00,29.96,M,7.00,M,CLR,M,M,M,M,M,M,M,M,M,M,M,M,M,M,62.60,KSBD 071304Z AUTO 00000KT 7SM CLR 17/15 A2996 RMK AO2 T01700145,M
SBD,2016-07-07 13:24,62.60,58.10,85.21,260.00,3.00,0.00,29.97,M,7.00,M,BKN,M,M,M,1300.00,M,M,M,M,M,M,M,M,M,M,62.60,KSBD 071324Z AUTO 26003KT 7SM BKN013 17/15 A2997 RMK AO2 T01700145,M
SBD,2016-07-07 13:45,63.50,58.64,84.17,230.00,3.00,0.00,29.97,M,7.00,M,BKN,M,M,M,1300.00,M,M,M,M,M,M,M,M,M,M,63.50,KSBD 071345Z AUTO 23003KT 7SM BKN013 18/15 A2997 RMK AO2 T01750148,M
SBD,2016-07-07 14:04,64.40,58.64,81.56,270.00,3.00,0.00,29.98,M,7.00,M,BKN,M,M,M,1300.00,M,M,M,M,M,M,M,M,M,M,64.40,KSBD 071404Z AUTO 27003KT 7SM BKN013 18/15 A2998 RMK AO2 T01800148,M
SBD,2016-07-07 14:24,64.58,58.46,80.53,290.00,3.00,0.00,29.98,M,7.00,M,OVC,M,M,M,1300.00,M,M,M,M,M,M,M,M,M,M,64.58,KSBD 071424Z AUTO 29003KT 7SM OVC013 18/15 A2998 RMK AO2 T01810147,M
SBD,2016-07-07 14:45,65.66,58.64,78.05,0.00,0.00,0.00,29.99,M,5.00,M,OVC,M,M,M,1300.00,M,M,M,HZ,M,M,M,M,M,M,65.66,KSBD 071445Z AUTO 00000KT 5SM HZ OVC013 19/15 A2999 RMK AO2 T01870148,M
SBD,2016-07-07 14:46,66.20,59.00,77.60,0.00,0.00,0.00,29.99,M,3.00,M,BKN,M,M,M,1100.00,M,M,M,HZ,M,M,M,M,M,M,66.20,KSBD 071446Z 00000KT 3SM HZ BKN011 19/15 A2999,M
SBD,2016-07-07 15:04,66.74,58.64,75.18,250.00,3.00,0.00,29.99,M,5.00,M,BKN,M,M,M,1100.00,M,M,M,HZ,M,M,M,M,M,M,66.74,KSBD 071504Z AUTO 25003KT 5SM HZ BKN011 19/15 A2999 RMK AO2 T01930148,M
SBD,2016-07-07 15:24,67.82,58.82,72.90,270.00,4.00,0.00,30.00,M,5.00,M,BKN,M,M,M,1100.00,M,M,M,HZ,M,M,M,M,M,M,67.82,KSBD 071524Z AUTO 27004KT 5SM HZ BKN011 20/15 A3000 RMK AO2 T01990149,M
SBD,2016-07-07 15:45,69.62,58.46,67.65,0.00,0.00,0.00,30.01,M,5.00,M,BKN,M,M,M,1300.00,M,M,M,HZ,M,M,M,M,M,M,69.62,KSBD 071545Z AUTO 00000KT 5SM HZ BKN013 21/15 A3001 RMK AO2 T02090147,M
SBD,2016-07-07 16:04,69.80,58.64,67.67,0.00,0.00,0.00,30.01,M,5.00,M,SCT,M,M,M,1300.00,M,M,M,HZ,M,M,M,M,M,M,69.80,KSBD 071604Z AUTO 00000KT 5SM HZ SCT013 21/15 A3001 RMK AO2 T02100148,M
SBD,2016-07-07 16:24,71.60,58.28,62.84,0.00,0.00,0.00,30.00,M,5.00,M,CLR,M,M,M,M,M,M,M,HZ,M,M,M,M,M,M,71.60,KSBD 071624Z AUTO 00000KT 5SM HZ CLR 22/15 A3000 RMK AO2 T02200146,M
SBD,2016-07-07 16:45,72.32,58.10,60.93,280.00,3.00,0.00,30.00,M,5.00,M,CLR,M,M,M,M,M,M,M,HZ,M,M,M,M,M,M,72.32,KSBD 071645Z AUTO 28003KT 5SM HZ CLR 22/15 A3000 RMK AO2 T02240145,M
SBD,2016-07-07 17:04,74.48,57.74,55.93,230.00,3.00,0.00,29.99,M,5.00,M,CLR,M,M,M,M,M,M,M,HZ,M,M,M,M,M,M,74.48,KSBD 071704Z AUTO 23003KT 5SM HZ CLR 24/14 A2999 RMK AO2 T02360143,M
SBD,2016-07-07 17:24,75.56,57.38,53.25,240.00,3.00,0.00,29.99,M,7.00,M,CLR,M,M,M,M,M,M,M,M,M,M,M,M,M,M,75.56,KSBD 071724Z AUTO 24003KT 7SM CLR 24/14 A2999 RMK AO2 T02420141,M
SBD,2016-07-07 17:47,75.20,57.20,53.55,230.00,6.00,0.00,29.99,M,3.00,M,CLR,M,M,M,M,M,M,M,HZ,M,M,M,M,M,M,75.20,KSBD 071747Z 23006KT 3SM HZ SKC 24/14 A2999,M
SBD,2016-07-07 18:04,78.62,56.12,45.97,220.00,3.00,0.00,29.99,M,7.00,M,CLR,M,M,M,M,M,M,M,M,M,M,M,M,M,M,78.62,KSBD 071804Z AUTO 22003KT 7SM CLR 26/13 A2999 RMK AO2 T02590134,M
SBD,2016-07-07 18:24,80.60,55.40,41.97,280.00,5.00,0.00,29.99,M,7.00,M,CLR,M,M,M,M,M,M,M,M,M,M,M,M,M,M,80.53,KSBD 071824Z AUTO 28005KT 7SM CLR 27/13 A2999 RMK AO2 T02700130,M
SBD,2016-07-07 18:45,81.50,54.86,39.96,0.00,0.00,0.00,29.98,M,7.00,M,CLR,M,M,M,M,M,M,M,M,M,M,M,M,M,M,81.50,KSBD 071845Z AUTO 00000KT 7SM CLR 28/13 A2998 RMK AO2 T02750127,M
SBD,2016-07-07 18:47,82.40,55.40,39.58,240.00,5.00,0.00,29.98,M,4.00,M,CLR,M,M,M,M,M,M,M,HZ,M,M,M,M,M,M,82.40,KSBD 071847Z 24005KT 4SM HZ SKC 28/13 A2998,M
SBD,2016-07-07 19:04,83.30,53.96,36.48,0.00,0.00,0.00,29.98,M,10.00,M,CLR,M,M,M,M,M,M,M,M,M,M,M,M,M,M,82.15,KSBD 071904Z AUTO 00000KT 10SM CLR 29/12 A2998 RMK AO2 T02850122,M
SBD,2016-07-07 19:24,84.20,51.62,32.52,0.00,0.00,0.00,29.97,M,10.00,M,CLR,M,M,M,M,M,M,M,M,M,M,M,M,M,M,82.45,KSBD 071924Z AUTO 00000KT 10SM CLR 29/11 A2997 RMK AO2 T02900109,M
SBD,2016-07-07 19:47,86.00,50.00,28.90,270.00,7.00,0.00,29.96,M,5.00,M,CLR,M,M,M,M,M,M,M,HZ,M,M,M,M,M,M,83.62,KSBD 071947Z 27007KT 5SM HZ SKC 30/10 A2996,M
SBD,2016-07-07 20:49,89.60,46.40,22.53,220.00,8.00,0.00,29.94,M,6.00,M,CLR,M,M,M,M,M,M,M,HZ,M,M,M,M,M,M,86.24,KSBD 072049Z 22008KT 6SM HZ SKC 32/08 A2994,M
SBD,2016-07-07 21:47,93.20,53.60,26.31,310.00,5.00,0.00,29.93,M,7.00,M,CLR,M,M,M,M,M,M,M,M,M,M,M,M,M,M,90.86,KSBD 072147Z 31005KT 7SM SKC 34/12 A2993,M
SBD,2016-07-07 22:52,95.00,41.00,15.49,250.00,5.00,0.00,29.90,M,7.00,M,CLR,M,M,M,M,M,M,M,M,M,M,M,M,M,M,90.70,KSBD 072252Z 25005KT 7SM SKC 35/05 A2990,M
SBD,2016-07-07 23:47,95.00,42.80,16.60,230.00,7.00,0.00,29.89,M,7.00,M,CLR,M,M,M,M,M,M,M,M,M,M,M,M,M,M,90.86,KSBD 072347Z 23007KT 7SM SKC 35/06 A2989,M
SBD,2016-07-08 00:48,91.40,53.60,27.83,240.00,12.00,0.00,29.89,M,7.00,M,CLR,M,M,M,M,M,M,M,M,M,M,M,M,M,M,89.08,KSBD 080048Z 24012KT 7SM SKC 33/12 A2989,M
SBD,2016-07-08 01:47,86.00,53.60,33.01,230.00,11.00,0.00,29.90,M,7.00,M,CLR,M,M,M,M,M,M,M,M,M,M,M,M,M,M,84.18,KSBD 080147Z 23011KT 7SM SKC 30/12 A2990,M
SBD,2016-07-08 02:48,82.40,55.40,39.58,230.00,8.00,0.00,29.92,M,7.00,M,CLR,M,M,M,M,M,M,M,M,M,M,M,M,M,M,82.40,KSBD 080248Z 23008KT 7SM SKC 28/13 A2992,M
SBD,2016-07-08 03:48,82.40,57.20,42.25,230.00,7.00,0.00,29.93,M,7.00,M,CLR,M,M,M,M,M,M,M,M,M,M,M,M,M,M,82.08,KSBD 080348Z 23007KT 7SM SKC 28/14 A2993,M
SBD,2016-07-08 04:14,77.00,57.20,50.43,240.00,5.00,0.00,29.94,M,10.00,M,CLR,M,M,M,M,M,M,M,M,M,M,M,M,M,M,77.00,KSBD 080414Z AUTO 24005KT 10SM CLR 25/14 A2994 RMK AO2 T02500140,M
SBD,2016-07-08 04:34,76.10,57.56,52.64,240.00,4.00,0.00,29.96,M,10.00,M,CLR,M,M,M,M,M,M,M,M,M,M,M,M,M,M,76.10,KSBD 080434Z AUTO 24004KT 10SM CLR 25/14 A2996 RMK AO2 T02450142,M
SBD,2016-07-08 04:55,75.02,57.74,54.93,270.00,5.00,0.00,29.96,M,10.00,M,CLR,M,M,M,M,M,M,M,M,M,M,M,M,M,M,75.02,KSBD 080455Z AUTO 27005KT 10SM CLR 24/14 A2996 RMK AO2 T02390143,M
SBD,2016-07-08 05:14,74.30,58.10,57.00,250.00,6.00,0.00,29.96,M,10.00,M,CLR,M,M,M,M,M,M,M,M,M,M,M,M,M,M,74.30,KSBD 080514Z AUTO 25006KT 10SM CLR 24/15 A2996 RMK AO2 T02350145,M
SBD,2016-07-08 05:34,73.58,58.10,58.39,250.00,6.00,0.00,29.97,M,10.00,M,CLR,M,M,M,M,M,M,M,M,M,M,M,M,M,M,73.58,KSBD 080534Z AUTO 25006KT 10SM CLR 23/15 A2997 RMK AO2 T02310145,M
SBD,2016-07-08 05:55,73.22,58.10,59.11,250.00,5.00,0.00,29.97,M,10.00,M,CLR,M,M,M,M,M,M,M,M,M,M,M,M,M,M,73.22,KSBD 080555Z AUTO 25005KT 10SM CLR 23/15 A2997 RMK AO2 T02290145,M
SBD,2016-07-08 06:14,72.68,58.10,60.19,250.00,4.00,0.00,29.97,M,10.00,M,CLR,M,M,M,M,M,M,M,M,M,M,M,M,M,M,72.68,KSBD 080614Z AUTO 25004KT 10SM CLR 23/15 A2997 RMK AO2 T02260145,M
SBD,2016-07-08 06:34,71.60,58.10,62.43,260.00,5.00,0.00,29.97,M,10.00,M,CLR,M,M,M,M,M,M,M,M,M,M,M,M,M,M,71.60,KSBD 080634Z AUTO 26005KT 10SM CLR 22/15 A2997 RMK AO2 T02200145,M
SBD,2016-07-08 06:55,70.88,58.10,63.98,260.00,4.00,0.00,29.97,M,10.00,M,CLR,M,M,M,M,M,M,M,M,M,M,M,M,M,M,70.88,KSBD 080655Z AUTO 26004KT 10SM CLR 22/15 A2997 RMK AO2 T02160145,M
SBD,2016-07-08 07:14,70.34,58.28,65.59,250.00,3.00,0.00,29.97,M,10.00,M,CLR,M,M,M,M,M,M,M,M,M,M,M,M,M,M,70.34,KSBD 080714Z AUTO 25003KT 10SM CLR 21/15 A2997 RMK AO2 T02130146,M
SBD,2016-07-08 07:34,69.80,58.28,66.81,250.00,5.00,0.00,29.97,M,10.00,M,CLR,M,M,M,M,M,M,M,M,M,M,M,M,M,M,69.80,KSBD 080734Z AUTO 25005KT 10SM CLR 21/15 A2997 RMK AO2 T02100146,M
SBD,2016-07-08 07:55,69.44,58.28,67.63,250.00,3.00,0.00,29.97,M,10.00,M,CLR,M,M,M,M,M,M,M,M,M,M,M,M,M,M,69.44,KSBD 080755Z AUTO 25003KT 10SM CLR 21/15 A2997 RMK AO2 T02080146,M
SBD,2016-07-08 08:14,68.72,58.10,68.88,260.00,4.00,0.00,29.97,M,10.00,M,CLR,M,M,M,M,M,M,M,M,M,M,M,M,M,M,68.72,KSBD 080814Z AUTO 26004KT 10SM CLR 20/15 A2997 RMK AO2 T02040145,M
SBD,2016-07-08 08:34,68.18,58.28,70.62,270.00,3.00,0.00,29.97,M,10.00,M,CLR,M,M,M,M,M,M,M,M,M,M,M,M,M,M,68.18,KSBD 080834Z AUTO 27003KT 10SM CLR 20/15 A2997 RMK AO2 T02010146,M
SBD,2016-07-08 08:55,68.00,58.28,71.06,250.00,4.00,0.00,29.97,M,10.00,M,CLR,M,M,M,M,M,M,M,M,M,M,M,M,M,M,68.00,KSBD 080855Z AUTO 25004KT 10SM CLR 20/15 A2997 RMK AO2 T02000146,M
SBD,2016-07-08 09:14,67.64,58.28,71.95,260.00,5.00,0.00,29.97,M,10.00,M,CLR,M,M,M,M,M,M,M,M,M,M,M,M,M,M,67.64,KSBD 080914Z AUTO 26005KT 10SM CLR 20/15 A2997 RMK AO2 T01980146,M
SBD,2016-07-08 09:34,67.28,58.46,73.32,260.00,4.00,0.00,29.97,M,10.00,M,CLR,M,M,M,M,M,M,M,M,M,M,M,M,M,M,67.28,KSBD 080934Z AUTO 26004KT 10SM CLR 20/15 A2997 RMK AO2 T01960147,M
SBD,2016-07-08 09:55,67.10,58.64,74.25,250.00,4.00,0.00,29.97,M,10.00,M,CLR,M,M,M,M,M,M,M,M,M,M,M,M,M,M,67.10,KSBD 080955Z AUTO 25004KT 10SM CLR 20/15 A2997 RMK AO2 T01950148,M
SBD,2016-07-08 10:14,66.56,58.46,75.17,250.00,3.00,0.00,29.97,M,10.00,M,CLR,M,M,M,M,M,M,M,M,M,M,M,M,M,M,66.56,KSBD 081014Z AUTO 25003KT 10SM CLR 19/15 A2997 RMK AO2 T01920147,M
SBD,2016-07-08 10:34,66.38,58.64,76.13,250.00,3.00,0.00,29.97,M,10.00,M,CLR,M,M,M,M,M,M,M,M,M,M,M,M,M,M,66.38,KSBD 081034Z AUTO 25003KT 10SM CLR 19/15 A2997 RMK AO2 T01910148,M
SBD,2016-07-08 10:55,65.48,58.28,77.54,250.00,4.00,0.00,29.97,M,10.00,M,CLR,M,M,M,M,M,M,M,M,M,M,M,M,M,M,65.48,KSBD 081055Z AUTO 25004KT 10SM CLR 19/15 A2997 RMK AO2 T01860146,M
SBD,2016-07-08 11:14,65.12,58.46,79.02,260.00,4.00,0.00,29.97,M,10.00,M,CLR,M,M,M,M,M,M,M,M,M,M,M,M,M,M,65.12,KSBD 081114Z AUTO 26004KT 10SM CLR 18/15 A2997 RMK AO2 T01840147,M
SBD,2016-07-08 11:35,64.58,58.46,80.53,270.00,4.00,0.00,29.98,M,7.00,M,CLR,M,M,M,M,M,M,M,M,M,M,M,M,M,M,64.58,KSBD 081135Z AUTO 27004KT 7SM CLR 18/15 A2998 RMK AO2 T01810147,M
SBD,2016-07-08 11:54,64.58,58.46,80.53,270.00,3.00,0.00,29.98,M,7.00,M,CLR,M,M,M,M,M,M,M,M,M,M,M,M,M,M,64.58,KSBD 081154Z AUTO 27003KT 7SM CLR 18/15 A2998 RMK AO2 T01810147,M
SBD,2016-07-08 12:14,63.86,58.10,81.52,260.00,3.00,0.00,29.98,M,7.00,M,CLR,M,M,M,M,M,M,M,M,M,M,M,M,M,M,63.86,KSBD 081214Z AUTO 26003KT 7SM CLR 18/15 A2998 RMK AO2 T01770145,M
SBD,2016-07-08 12:34,64.40,59.00,82.62,0.00,0.00,0.00,29.99,M,7.00,M,CLR,M,M,M,M,M,M,M,M,M,M,M,M,M,M,64.40,KSBD 081234Z AUTO 00000KT 7SM CLR 18/15 A2999 RMK AO2 T01800150,M
SBD,2016-07-08 12:54,63.86,58.46,82.58,260.00,4.00,0.00,29.99,M,7.00,M,CLR,M,M,M,M,M,M,M,M,M,M,M,M,M,M,63.86,KSBD 081254Z AUTO 26004KT 7SM CLR 18/15 A2999 RMK AO2 T01770147,M
SBD,2016-07-08 13:14,64.04,58.82,83.13,0.00,0.00,0.00,29.99,M,7.00,M,CLR,M,M,M,M,M,M,M,M,M,M,M,M,M,M,64.04,KSBD 081314Z AUTO 00000KT 7SM CLR 18/15 A2999 RMK AO2 T01780149,M
SBD,2016-07-08 13:35,64.58,59.00,82.10,250.00,3.00,0.00,30.00,M,7.00,M,CLR,M,M,M,M,M,M,M,M,M,M,M,M,M,M,64.58,KSBD 081335Z AUTO 25003KT 7SM CLR 18/15 A3000 RMK AO2 T01810150,M
SBD,2016-07-08 14:00,64.40,59.00,82.62,0.00,0.00,0.00,30.00,M,4.00,M,CLR,M,M,M,M,M,M,M,HZ,M,M,M,M,M,M,64.40,KSBD 081400Z 00000KT 4SM HZ SKC 18/15 A3000,M
SBD,2016-07-08 15:45,68.00,59.00,72.92,0.00,0.00,0.00,30.01,M,4.00,M,CLR,M,M,M,M,M,M,M,HZ,M,M,M,M,M,M,68.00,KSBD 081545Z 00000KT 4SM HZ SKC 20/15 A3001,M
SBD,2016-07-08 16:46,75.20,57.20,53.55,0.00,0.00,0.00,30.01,M,4.00,M,CLR,M,M,M,M,M,M,M,HZ,M,M,M,M,M,M,75.20,KSBD 081646Z 00000KT 4SM HZ SKC 24/14 A3001,M
SBD,2016-07-08 17:47,82.40,55.40,39.58,0.00,0.00,0.00,30.00,M,4.00,M,CLR,M,M,M,M,M,M,M,HZ,M,M,M,M,M,M,82.40,KSBD 081747Z 00000KT 4SM HZ SKC 28/13 A3000,M
SBD,2016-07-08 18:48,87.80,50.00,27.29,260.00,5.00,0.00,29.99,M,5.00,M,CLR,M,M,M,M,M,M,M,HZ,M,M,M,M,M,M,85.11,KSBD 081848Z 26005KT 5SM HZ SKC 31/10 A2999,M
SBD,2016-07-08 19:47,89.60,50.00,25.79,260.00,7.00,0.00,29.98,M,7.00,M,CLR,M,M,M,M,M,M,M,M,M,M,M,M,M,M,86.70,KSBD 081947Z 26007KT 7SM SKC 32/10 A2998,M
SBD,2016-07-08 20:47,93.20,48.20,21.54,240.00,7.00,0.00,29.96,M,7.00,M,CLR,M,M,M,M,M,M,M,M,M,M,M,M,M,M,89.80,KSBD 082047Z 24007KT 7SM SKC 34/09 A2996,M
SBD,2016-07-08 21:49,95.00,41.00,15.49,250.00,9.00,0.00,29.94,M,7.00,M,CLR,M,M,M,M,M,M,M,M,M,M,M,M,M,M,90.70,KSBD 082149Z 25009KT 07SM SKC 35/05 A2994,M
SBD,2016-07-08 22:50,95.00,48.20,20.38,220.00,10.00,0.00,29.92,M,7.00,M,CLR,M,M,M,M,M,M,M,M,M,M,M,M,M,M,91.56,KSBD 082250Z 22010KT 7SM SKC 35/09 A2992,M
SBD,2016-07-08 23:50,95.00,46.40,19.04,290.00,8.00,0.00,29.91,M,7.00,M,CLR,M,M,M,M,M,M,M,M,M,M,M,M,M,M,91.29,KSBD 082350Z 29008KT 7SM SKC 35/08 A2991,M
SBD,2016-07-09 01:47,89.60,42.80,19.64,260.00,13.00,0.00,29.92,M,7.00,M,CLR,M,M,M,M,M,M,M,M,M,M,M,M,M,M,85.93,KSBD 090147Z 26013KT 07SM SKC 32/06 A2992,M
SBD,2016-07-09 02:47,84.20,51.80,32.73,230.00,8.00,0.00,29.94,M,7.00,M,CLR,M,M,M,M,M,M,M,M,M,M,M,M,M,M,82.48,KSBD 090247Z 23008KT 07SM SKC 29/11 A2994,M
SBD,2016-07-09 03:47,80.60,55.40,41.97,230.00,7.00,0.00,29.96,M,7.00,M,CLR,M,M,M,M,M,M,M,M,M,M,M,M,M,M,80.53,KSBD 090347Z 23007KT 07SM SKC 27/13 A2996 RMK LAST,M
SBD,2016-07-09 04:14,78.26,57.20,48.37,230.00,6.00,0.00,29.97,M,10.00,M,CLR,M,M,M,M,M,M,M,M,M,M,M,M,M,M,78.26,KSBD 090414Z AUTO 23006KT 10SM CLR 26/14 A2997 RMK AO2 T02570140,M
SBD,2016-07-09 04:34,77.36,57.56,50.48,240.00,7.00,0.00,29.98,M,10.00,M,CLR,M,M,M,M,M,M,M,M,M,M,M,M,M,M,77.36,KSBD 090434Z AUTO 24007KT 10SM CLR 25/14 A2998 RMK AO2 T02520142,M
SBD,2016-07-09 04:54,76.10,58.10,53.67,250.00,4.00,0.00,29.99,M,10.00,M,CLR,M,M,M,M,M,M,M,M,M,M,M,M,M,M,76.10,KSBD 090454Z AUTO 25004KT 10SM CLR 25/15 A2999 RMK AO2 T02450145,M
SBD,2016-07-09 05:15,75.20,58.28,55.67,260.00,6.00,0.00,29.99,M,10.00,M,CLR,M,M,M,M,M,M,M,M,M,M,M,M,M,M,75.20,KSBD 090515Z AUTO 26006KT 10SM CLR 24/15 A2999 RMK AO2 T02400146,M
SBD,2016-07-09 05:34,74.12,58.82,58.84,260.00,7.00,0.00,30.00,M,10.00,M,CLR,M,M,M,M,M,M,M,M,M,M,M,M,M,M,74.12,KSBD 090534Z AUTO 26007KT 10SM CLR 23/15 A3000 RMK AO2 T02340149,M
SBD,2016-07-09 05:54,73.40,59.00,60.67,250.00,5.00,0.00,30.00,M,10.00,M,CLR,M,M,M,M,M,M,M,M,M,M,M,M,M,M,73.40,KSBD 090554Z AUTO 25005KT 10SM CLR 23/15 A3000 RMK AO2 T02300150,M
SBD,2016-07-09 06:15,73.40,59.00,60.67,250.00,5.00,0.00,30.01,M,10.00,M,CLR,M,M,M,M,M,M,M,M,M,M,M,M,M,M,73.40,KSBD 090615Z AUTO 25005KT 10SM CLR 23/15 A3001 RMK AO2 T02300150,M
SBD,2016-07-09 06:34,72.50,59.00,62.54,250.00,4.00,0.00,30.01,M,10.00,M,CLR,M,M,M,M,M,M,M,M,M,M,M,M,M,M,72.50,KSBD 090634Z AUTO 25004KT 10SM CLR 23/15 A3001 RMK AO2 T02250150,M
SBD,2016-07-09 06:54,71.96,59.00,63.70,260.00,3.00,0.00,30.01,M,10.00,M,CLR,M,M,M,M,M,M,M,M,M,M,M,M,M,M,71.96,KSBD 090654Z AUTO 26003KT 10SM CLR 22/15 A3001 RMK AO2 T02220150,M
SBD,2016-07-09 07:15,71.78,59.18,64.50,0.00,0.00,0.00,30.01,M,10.00,M,CLR,M,M,M,M,M,M,M,M,M,M,M,M,M,M,71.78,KSBD 090715Z AUTO 00000KT 10SM CLR 22/15 A3001 RMK AO2 T02210151,M
SBD,2016-07-09 07:34,71.96,59.18,64.11,0.00,0.00,0.00,30.01,M,10.00,M,CLR,M,M,M,M,M,M,M,M,M,M,M,M,M,M,71.96,KSBD 090734Z AUTO 00000KT 10SM CLR 22/15 A3001 RMK AO2 T02220151,M
SBD,2016-07-09 07:54,71.78,59.54,65.33,0.00,0.00,0.00,30.00,M,10.00,M,CLR,M,M,M,M,M,M,M,M,M,M,M,M,M,M,71.78,KSBD 090754Z AUTO 00000KT 10SM CLR 22/15 A3000 RMK AO2 T02210153,M
SBD,2016-07-09 08:14,71.78,59.54,65.33,0.00,0.00,0.00,30.00,M,10.00,M,CLR,M,M,M,M,M,M,M,M,M,M,M,M,M,M,71.78,KSBD 090814Z AUTO 00000KT 10SM CLR 22/15 A3000 RMK AO2 T02210153,M
SBD,2016-07-09 08:34,71.06,59.54,66.95,0.00,0.00,0.00,30.00,M,10.00,M,CLR,M,M,M,M,M,M,M,M,M,M,M,M,M,M,71.06,KSBD 090834Z AUTO 00000KT 10SM CLR 22/15 A3000 RMK AO2 T02170153,M
SBD,2016-07-09 08:54,70.70,59.72,68.21,260.00,3.00,0.00,30.00,M,10.00,M,CLR,M,M,M,M,M,M,M,M,M,M,M,M,M,M,70.70,KSBD 090854Z AUTO 26003KT 10SM CLR 22/15 A3000 RMK AO2 T02150154,M
SBD,2016-07-09 09:14,69.98,59.18,68.57,260.00,3.00,0.00,30.00,M,10.00,M,CLR,M,M,M,M,M,M,M,M,M,M,M,M,M,M,69.98,KSBD 090914Z AUTO 26003KT 10SM CLR 21/15 A3000 RMK AO2 T02110151,M
SBD,2016-07-09 09:34,68.90,59.18,71.15,260.00,4.00,0.00,30.01,M,10.00,M,CLR,M,M,M,M,M,M,M,M,M,M,M,M,M,M,68.90,KSBD 090934Z AUTO 26004KT 10SM CLR 21/15 A3001 RMK AO2 T02050151,M
SBD,2016-07-09 09:54,68.00,59.18,73.39,260.00,3.00,0.00,30.01,M,10.00,M,CLR,M,M,M,M,M,M,M,M,M,M,M,M,M,M,68.00,KSBD 090954Z AUTO 26003KT 10SM CLR 20/15 A3001 RMK AO2 T02000151,M
SBD,2016-07-09 10:14,68.36,59.18,72.49,240.00,3.00,0.00,30.01,M,10.00,M,CLR,M,M,M,M,M,M,M,M,M,M,M,M,M,M,68.36,KSBD 091014Z AUTO 24003KT 10SM CLR 20/15 A3001 RMK AO2 T02020151,M
SBD,2016-07-09 10:34,68.00,59.36,73.86,240.00,3.00,0.00,30.01,M,10.00,M,CLR,M,M,M,M,M,M,M,M,M,M,M,M,M,M,68.00,KSBD 091034Z AUTO 24003KT 10SM CLR 20/15 A3001 RMK AO2 T02000152,M
SBD,2016-07-09 10:54,68.54,59.54,72.97,0.00,0.00,0.00,30.01,M,10.00,M,CLR,M,M,M,M,M,M,M,M,M,M,M,M,M,M,68.54,KSBD 091054Z AUTO 00000KT 10SM CLR 20/15 A3001 RMK AO2 T02030153,M
SBD,2016-07-09 11:14,68.18,59.72,74.36,0.00,0.00,0.00,30.00,M,10.00,M,CLR,M,M,M,M,M,M,M,M,M,M,M,M,M,M,68.18,KSBD 091114Z AUTO 00000KT 10SM CLR 20/15 A3000 RMK AO2 T02010154,M
SBD,2016-07-09 11:34,67.82,58.64,72.43,0.00,0.00,0.00,30.00,M,10.00,M,CLR,M,M,M,M,M,M,M,M,M,M,M,M,M,M,67.82,KSBD 091134Z AUTO 00000KT 10SM CLR 20/15 A3000 RMK AO2 T01990148,M
SBD,2016-07-09 11:54,67.10,57.92,72.36,0.00,0.00,0.00,30.00,M,10.00,M,CLR,M,M,M,M,M,M,M,M,M,M,M,M,M,M,67.10,KSBD 091154Z AUTO 00000KT 10SM CLR 20/14 A3000 RMK AO2 T01950144,M
SBD,2016-07-09 12:14,64.04,54.68,71.58,70.00,3.00,0.00,30.01,M,10.00,M,CLR,M,M,M,M,M,M,M,M,M,M,M,M,M,M,64.04,KSBD 091214Z AUTO 07003KT 10SM CLR 18/13 A3001 RMK AO2 T01780126,M
SBD,2016-07-09 12:34,66.02,54.68,66.81,90.00,4.00,0.00,30.01,M,10.00,M,CLR,M,M,M,M,M,M,M,M,M,M,M,M,M,M,66.02,KSBD 091234Z AUTO 09004KT 10SM CLR 19/13 A3001 RMK AO2 T01890126,M
SBD,2016-07-09 12:54,66.38,55.40,67.73,0.00,0.00,0.00,30.01,M,10.00,M,CLR,M,M,M,M,M,M,M,M,M,M,M,M,M,M,66.38,KSBD 091254Z AUTO 00000KT 10SM CLR 19/13 A3001 RMK AO2 T01910130,M
SBD,2016-07-09 13:14,64.58,54.68,70.24,0.00,0.00,0.00,30.02,M,10.00,M,CLR,M,M,M,M,M,M,M,M,M,M,M,M,M,M,64.58,KSBD 091314Z AUTO 00000KT 10SM CLR 18/13 A3002 RMK AO2 T01810126,M
SBD,2016-07-09 13:34,66.02,55.40,68.58,0.00,0.00,0.00,30.02,M,10.00,M,CLR,M,M,M,M,M,M,M,M,M,M,M,M,M,M,66.02,KSBD 091334Z AUTO 00000KT 10SM CLR 19/13 A3002 RMK AO2 T01890130,M
SBD,2016-07-09 13:50,66.20,55.40,68.15,0.00,0.00,0.00,30.03,M,4.00,M,CLR,M,M,M,M,M,M,M,M,M,M,M,M,M,M,66.20,KSBD 091350Z 00000KT 4SM SKC 19/13 A3003,M
SBD,2016-07-09 13:54,67.64,55.76,65.69,0.00,0.00,0.00,30.03,M,10.00,M,CLR,M,M,M,M,M,M,M,M,M,M,M,M,M,M,67.64,KSBD 091354Z AUTO 00000KT 10SM CLR 20/13 A3003 RMK AO2 T01980132,M
SBD,2016-07-09 14:50,71.60,57.20,60.44,0.00,0.00,0.00,30.04,M,4.00,M,CLR,M,M,M,M,M,M,M,HZ,M,M,M,M,M,M,71.60,KSBD 091450Z 00000KT 4SM HZ SKC 22/14 A3004,M
SBD,2016-07-09 15:50,75.20,57.20,53.55,0.00,0.00,0.00,30.05,M,4.00,M,CLR,M,M,M,M,M,M,M,HZ,M,M,M,M,M,M,75.20,KSBD 091550Z 00000KT 4SM HZ SKC 24/14 A3005,M
SBD,2016-07-09 16:50,80.60,55.40,41.97,0.00,0.00,0.00,30.04,M,5.00,M,FEW,M,M,M,25000.00,M,M,M,HZ,M,M,M,M,M,M,80.53,KSBD 091650Z 00000KT 5SM HZ FEW250 27/13 A3004,M
SBD,2016-07-09 17:50,84.20,53.60,34.97,250.00,7.00,0.00,30.04,M,7.00,M,FEW,M,M,M,25000.00,M,M,M,M,M,M,M,M,M,M,82.76,KSBD 091750Z 25007KT 7SM FEW250 29/12 A3004,M
SBD,2016-07-09 18:46,87.80,51.80,29.18,0.00,0.00,0.00,30.03,M,7.00,M,FEW,M,M,M,25000.00,M,M,M,M,M,M,M,M,M,M,85.39,KSBD 091846Z 00000KT 07SM FEW250 31/11 A3003,M
SBD,2016-07-09 19:54,93.20,48.20,21.54,220.00,5.00,0.00,30.02,M,7.00,M,FEW,M,M,M,25000.00,M,M,M,M,M,M,M,M,M,M,89.80,KSBD 091954Z 22005KT 07SM FEW250 34/09 A3002,M
SBD,2016-07-09 20:47,95.00,48.20,20.38,260.00,7.00,0.00,30.00,M,7.00,M,FEW,M,M,M,25000.00,M,M,M,M,M,M,M,M,M,M,91.56,KSBD 092047Z 26007KT 07SM FEW250 35/09 A3000,M
SBD,2016-07-09 21:50,95.00,48.20,20.38,240.00,8.00,0.00,29.99,M,7.00,M,SCT,M,M,M,25000.00,M,M,M,M,M,M,M,M,M,M,91.56,KSBD 092150Z 24008KT 7SM SCT250 35/09 A2999,M
SBD,2016-07-09 22:48,96.80,50.00,20.62,260.00,7.00,0.00,29.97,M,7.00,M,SCT,M,M,M,25000.00,M,M,M,M,M,M,M,M,M,M,93.71,KSBD 092248Z 26007KT 7SM SCT250 36/10 A2997,M
SBD,2016-07-09 23:50,96.80,48.20,19.28,280.00,10.00,0.00,29.95,M,7.00,M,SCT,M,M,M,25000.00,M,M,M,M,M,M,M,M,M,M,93.36,KSBD 092350Z 28010KT 07SM SCT250 36/09 A2995,M
SBD,2016-07-10 00:49,93.20,46.40,20.13,240.00,12.00,0.00,29.95,M,7.00,M,FEW,M,M,M,25000.00,M,M,M,M,M,M,M,M,M,M,89.55,KSBD 100049Z 24012KT 07SM FEW250 34/08 A2995,M
SBD,2016-07-10 01:50,91.40,44.60,19.89,240.00,9.00,0.00,29.96,M,7.00,M,FEW,M,M,M,25000.00,M,M,M,M,M,M,M,M,M,M,87.68,KSBD 100150Z 24009KT 07SM FEW250 33/07 A2996,M
SBD,2016-07-10 02:50,86.00,41.00,20.54,240.00,10.00,0.00,29.96,M,7.00,M,FEW,M,M,M,25000.00,M,M,M,M,M,M,M,M,M,M,82.86,KSBD 100250Z 24010KT 07SM FEW250 30/05 A2996,M
SBD,2016-07-10 03:48,82.40,53.60,37.07,250.00,8.00,0.00,29.97,M,7.00,M,FEW,M,M,M,25000.00,M,M,M,M,M,M,M,M,M,M,82.40,KSBD 100348Z 25008KT 07SM FEW250 28/12 A2997 RMK LAST,M
SBD,2016-07-10 04:15,80.78,53.96,39.59,240.00,6.00,0.00,29.98,M,10.00,M,CLR,M,M,M,M,M,M,M,M,M,M,M,M,M,M,80.78,KSBD 100415Z AUTO 24006KT 10SM CLR 27/12 A2998 RMK AO2 T02710122,M
SBD,2016-07-10 04:34,79.88,53.78,40.51,250.00,6.00,0.00,29.99,M,10.00,M,CLR,M,M,M,M,M,M,M,M,M,M,M,M,M,M,79.88,KSBD 100434Z AUTO 25006KT 10SM CLR 27/12 A2999 RMK AO2 T02660121,M
SBD,2016-07-10 04:54,78.98,54.68,43.12,240.00,5.00,0.00,29.99,M,10.00,M,CLR,M,M,M,M,M,M,M,M,M,M,M,M,M,M,78.98,KSBD 100454Z AUTO 24005KT 10SM CLR 26/13 A2999 RMK AO2 T02610126,M
SBD,2016-07-10 05:15,78.26,56.30,46.83,240.00,5.00,0.00,29.99,M,10.00,M,CLR,M,M,M,M,M,M,M,M,M,M,M,M,M,M,78.26,KSBD 100515Z AUTO 24005KT 10SM CLR 26/14 A2999 RMK AO2 T02570135,M
SBD,2016-07-10 05:34,77.36,57.74,50.81,260.00,4.00,0.00,30.00,M,10.00,M,CLR,M,M,M,M,M,M,M,M,M,M,M,M,M,M,77.36,KSBD 100534Z AUTO 26004KT 10SM CLR 25/14 A3000 RMK AO2 T02520143,M
SBD,2016-07-10 05:54,76.46,58.10,53.03,260.00,5.00,0.00,30.00,M,10.00,M,CLR,M,M,M,M,M,M,M,M,M,M,M,M,M,M,76.46,KSBD 100554Z AUTO 26005KT 10SM CLR 25/15 A3000 RMK AO2 T02470145,M
SBD,2016-07-10 06:15,75.74,57.74,53.62,260.00,4.00,0.00,30.01,M,10.00,M,CLR,M,M,M,M,M,M,M,M,M,M,M,M,M,M,75.74,KSBD 100615Z AUTO 26004KT 10SM CLR 24/14 A3001 RMK AO2 T02430143,M
SBD,2016-07-10 06:34,75.20,57.92,54.95,260.00,4.00,0.00,30.01,M,10.00,M,CLR,M,M,M,M,M,M,M,M,M,M,M,M,M,M,75.20,KSBD 100634Z AUTO 26004KT 10SM CLR 24/14 A3001 RMK AO2 T02400144,M
SBD,2016-07-10 06:54,74.84,58.10,55.98,230.00,5.00,0.00,30.01,M,10.00,M,CLR,M,M,M,M,M,M,M,M,M,M,M,M,M,M,74.84,KSBD 100654Z AUTO 23005KT 10SM CLR 24/15 A3001 RMK AO2 T02380145,M
SBD,2016-07-10 07:15,74.48,58.28,57.02,230.00,3.00,0.00,30.00,M,10.00,M,CLR,M,M,M,M,M,M,M,M,M,M,M,M,M,M,74.48,KSBD 100715Z AUTO 23003KT 10SM CLR 24/15 A3000 RMK AO2 T02360146,M
SBD,2016-07-10 07:34,74.48,58.28,57.02,240.00,3.00,0.00,30.00,M,10.00,M,CLR,M,M,M,M,M,M,M,M,M,M,M,M,M,M,74.48,KSBD 100734Z AUTO 24003KT 10SM CLR 24/15 A3000 RMK AO2 T02360146,M
SBD,2016-07-10 07:54,72.50,57.92,60.17,240.00,4.00,0.00,30.00,M,10.00,M,CLR,M,M,M,M,M,M,M,M,M,M,M,M,M,M,72.50,KSBD 100754Z AUTO 24004KT 10SM CLR 23/14 A3000 RMK AO2 T02250144,M
SBD,2016-07-10 08:14,72.68,58.28,60.58,270.00,4.00,0.00,30.00,M,10.00,M,CLR,M,M,M,M,M,M,M,M,M,M,M,M,M,M,72.68,KSBD 100814Z AUTO 27004KT 10SM CLR 23/15 A3000 RMK AO2 T02260146,M
SBD,2016-07-10 08:34,71.60,58.82,64.06,250.00,4.00,0.00,29.99,M,10.00,M,CLR,M,M,M,M,M,M,M,M,M,M,M,M,M,M,71.60,KSBD 100834Z AUTO 25004KT 10SM CLR 22/15 A2999 RMK AO2 T02200149,M
SBD,2016-07-10 08:55,70.70,58.82,66.05,260.00,3.00,0.00,29.99,M,10.00,M,CLR,M,M,M,M,M,M,M,M,M,M,M,M,M,M,70.70,KSBD 100855Z AUTO 26003KT 10SM CLR 22/15 A2999 RMK AO2 T02150149,M
SBD,2016-07-10 09:14,71.06,59.18,66.10,0.00,0.00,0.00,29.99,M,10.00,M,CLR,M,M,M,M,M,M,M,M,M,M,M,M,M,M,71.06,KSBD 100914Z AUTO 00000KT 10SM CLR 22/15 A2999 RMK AO2 T02170151,M
SBD,2016-07-10 09:34,71.24,59.36,66.12,0.00,0.00,0.00,29.99,M,10.00,M,CLR,M,M,M,M,M,M,M,M,M,M,M,M,M,M,71.24,KSBD 100934Z AUTO 00000KT 10SM CLR 22/15 A2999 RMK AO2 T02180152,M
SBD,2016-07-10 09:55,70.52,59.18,67.32,0.00,0.00,0.00,29.99,M,10.00,M,CLR,M,M,M,M,M,M,M,M,M,M,M,M,M,M,70.52,KSBD 100955Z AUTO 00000KT 10SM CLR 21/15 A2999 RMK AO2 T02140151,M
SBD,2016-07-10 10:14,70.70,59.18,66.91,0.00,0.00,0.00,29.99,M,10.00,M,CLR,M,M,M,M,M,M,M,M,M,M,M,M,M,M,70.70,KSBD 101014Z AUTO 00000KT 10SM CLR 22/15 A2999 RMK AO2 T02150151,M
SBD,2016-07-10 10:34,69.98,58.64,67.26,0.00,0.00,0.00,29.99,M,10.00,M,CLR,M,M,M,M,M,M,M,M,M,M,M,M,M,M,69.98,KSBD 101034Z AUTO 00000KT 10SM CLR 21/15 A2999 RMK AO2 T02110148,M
SBD,2016-07-10 10:54,69.62,59.00,68.98,0.00,0.00,0.00,29.99,M,10.00,M,CLR,M,M,M,M,M,M,M,M,M,M,M,M,M,M,69.62,KSBD 101054Z AUTO 00000KT 10SM CLR 21/15 A2999 RMK AO2 T02090150,M
SBD,2016-07-10 11:15,69.26,58.28,68.05,0.00,0.00,0.00,29.99,M,10.00,M,CLR,M,M,M,M,M,M,M,M,M,M,M,M,M,M,69.26,KSBD 101115Z AUTO 00000KT 10SM CLR 21/15 A2999 RMK AO2 T02070146,M
SBD,2016-07-10 11:34,68.90,54.50,60.09,0.00,0.00,0.00,30.00,M,10.00,M,CLR,M,M,M,M,M,M,M,M,M,M,M,M,M,M,68.90,KSBD 101134Z AUTO 00000KT 10SM CLR 21/13 A3000 RMK AO2 T02050125,M
SBD,2016-07-10 11:54,68.90,53.60,58.15,0.00,0.00,0.00,30.00,M,10.00,M,CLR,M,M,M,M,M,M,M,M,M,M,M,M,M,M,68.90,KSBD 101154Z AUTO 00000KT 10SM CLR 21/12 A3000 RMK AO2 T02050120,M
SBD,2016-07-10 12:14,68.72,54.14,59.67,0.00,0.00,0.00,30.00,M,10.00,M,CLR,M,M,M,M,M,M,M,M,M,M,M,M,M,M,68.72,KSBD 101214Z AUTO 00000KT 10SM CLR 20/12 A3000 RMK AO2 T02040123,M
SBD,2016-07-10 12:35,68.00,53.60,59.97,0.00,0.00,0.00,30.00,M,10.00,M,CLR,M,M,M,M,M,M,M,M,M,M,M,M,M,M,68.00,KSBD 101235Z AUTO 00000KT 10SM CLR 20/12 A3000 RMK AO2 T02000120,M
SBD,2016-07-10 12:54,67.82,53.78,60.74,0.00,0.00,0.00,30.00,M,10.00,M,CLR,M,M,M,M,M,M,M,M,M,M,M,M,M,M,67.82,KSBD 101254Z AUTO 00000KT 10SM CLR 20/12 A3000 RMK AO2 T01990121,M
SBD,2016-07-10 13:14,67.46,53.42,60.70,0.00,0.00,0.00,30.00,M,10.00,M,CLR,M,M,M,M,M,M,M,M,M,M,M,M,M,M,67.46,KSBD 101314Z AUTO 00000KT 10SM CLR 20/12 A3000 RMK AO2 T01970119,M
SBD,2016-07-10 13:34,67.46,54.86,63.98,0.00,0.00,0.00,29.99,M,10.00,M,CLR,M,M,M,M,M,M,M,M,M,M,M,M,M,M,67.46,KSBD 101334Z AUTO 00000KT 10SM CLR 20/13 A2999 RMK AO2 T01970127,M
SBD,2016-07-10 13:50,68.00,53.60,59.97,0.00,0.00,0.00,30.00,M,7.00,M,CLR,M,M,M,M,M,M,M,M,M,M,M,M,M,M,68.00,KSBD 101350Z 00000KT 7SM SKC 20/12 A3000,M
SBD,2016-07-10 13:54,68.72,53.06,57.36,0.00,0.00,0.00,30.00,M,10.00,M,CLR,M,M,M,M,M,M,M,M,M,M,M,M,M,M,68.72,KSBD 101354Z AUTO 00000KT 10SM CLR 20/12 A3000 RMK AO2 T02040117,M
SBD,2016-07-10 14:48,71.60,57.20,60.44,0.00,0.00,0.00,30.00,M,7.00,M,CLR,M,M,M,M,M,M,M,M,M,M,M,M,M,M,71.60,KSBD 101448Z 00000KT 7SM SKC 22/14 A3000,M
SBD,2016-07-10 15:48,75.20,57.20,53.55,0.00,0.00,0.00,30.00,M,7.00,M,CLR,M,M,M,M,M,M,M,M,M,M,M,M,M,M,75.20,KSBD 101548Z 00000KT 7SM SKC 24/14 A3000,M
SBD,2016-07-10 16:47,80.60,55.40,41.97,300.00,3.00,0.00,29.99,M,7.00,M,CLR,M,M,M,M,M,M,M,M,M,M,M,M,M,M,80.53,KSBD 101647Z 30003LT 7SM SKC 27/13 A2999,M
SBD,2016-07-10 17:50,84.20,53.60,34.97,310.00,5.00,0.00,29.97,M,7.00,M,CLR,M,M,M,M,M,M,M,M,M,M,M,M,M,M,82.76,KSBD 101750Z 31005KT 07SM SKC 29/12 A2997,M
SBD,2016-07-10 18:46,87.80,50.00,27.29,330.00,3.00,0.00,29.95,M,7.00,M,CLR,M,M,M,M,M,M,M,M,M,M,M,M,M,M,85.11,KSBD 101846Z 33003KT 07SM SKC 31/10 A2995,M
SBD,2016-07-10 19:46,91.40,48.20,22.78,210.00,6.00,0.00,29.94,M,7.00,M,CLR,M,M,M,M,M,M,M,M,M,M,M,M,M,M,88.09,KSBD 101946Z 21006KT 07SM SKC 33/09 A2994,M
SBD,2016-07-10 20:50,93.20,48.20,21.54,300.00,6.00,0.00,29.90,M,7.00,M,CLR,M,M,M,M,M,M,M,M,M,M,M,M,M,M,89.80,KSBD 102050Z 30006KT 7SM SKC 34/09 A2990,M
SBD,2016-07-10 21:50,95.00,50.00,21.79,240.00,9.00,0.00,29.88,M,7.00,M,CLR,M,M,M,M,M,M,M,M,M,M,M,M,M,M,91.89,KSBD 102150Z 24009KT 7SM SKC 35/10 A2988,M
SBD,2016-07-10 22:50,93.20,46.40,20.13,230.00,6.00,0.00,29.85,M,7.00,M,CLR,M,M,M,M,M,M,M,M,M,M,M,M,M,M,89.55,KSBD 102250Z 23006KT 7SM SKC 34/08 A2985,M
SBD,2016-07-11 00:50,91.40,44.60,19.89,270.00,10.00,0.00,29.84,M,7.00,M,CLR,M,M,M,M,M,M,M,M,M,M,M,M,M,M,87.68,KSBD 110050Z 27010KT 7SM SKC 33/07 A2984,M
SBD,2016-07-11 01:50,86.00,50.00,28.90,240.00,10.00,0.00,29.85,M,7.00,M,CLR,M,M,M,M,M,M,M,M,M,M,M,M,M,M,83.62,KSBD 110150Z 24010KT 7SM SKC 30/10 A2985,M
SBD,2016-07-11 02:50,82.40,53.60,37.07,250.00,10.00,0.00,29.86,M,7.00,M,CLR,M,M,M,M,M,M,M,M,M,M,M,M,M,M,82.40,KSBD 110250Z 25010KT 7SM SKC 28/12 A2986,M
SBD,2016-07-11 03:50,78.80,55.40,44.52,260.00,6.00,0.00,29.87,M,7.00,M,CLR,M,M,M,M,M,M,M,M,M,M,M,M,M,M,78.80,KSBD 110350Z 26006KT 7SM SKC 26/13 A2987 RMK LAST,M
SBD,2016-07-11 04:15,77.90,56.12,47.08,270.00,6.00,0.00,29.88,M,10.00,M,CLR,M,M,M,M,M,M,M,M,M,M,M,M,M,M,77.90,KSBD 110415Z AUTO 27006KT 10SM CLR 26/13 A2988 RMK AO2 T02550134,M
SBD,2016-07-11 04:34,77.18,54.14,44.86,220.00,4.00,0.00,29.89,M,10.00,M,CLR,M,M,M,M,M,M,M,M,M,M,M,M,M,M,77.18,KSBD 110434Z AUTO 22004KT 10SM CLR 25/12 A2989 RMK AO2 T02510123,M
SBD,2016-07-11 04:54,76.46,53.42,44.75,230.00,5.00,0.00,29.89,M,10.00,M,CLR,M,M,M,M,M,M,M,M,M,M,M,M,M,M,76.46,KSBD 110454Z AUTO 23005KT 10SM CLR 25/12 A2989 RMK AO2 T02470119,M
SBD,2016-07-11 05:15,75.92,53.96,46.47,240.00,5.00,0.00,29.90,M,10.00,M,CLR,M,M,M,M,M,M,M,M,M,M,M,M,M,M,75.92,KSBD 110515Z AUTO 24005KT 10SM CLR 24/12 A2990 RMK AO2 T02440122,M
SBD,2016-07-11 05:34,74.84,54.68,49.46,240.00,6.00,0.00,29.89,M,10.00,M,CLR,M,M,M,M,M,M,M,M,M,M,M,M,M,M,74.84,KSBD 110534Z AUTO 24006KT 10SM CLR 24/13 A2989 RMK AO2 T02380126,M
SBD,2016-07-11 05:54,74.30,55.40,51.70,230.00,6.00,0.00,29.90,M,10.00,M,CLR,M,M,M,M,M,M,M,M,M,M,M,M,M,M,74.30,KSBD 110554Z AUTO 23006KT 10SM CLR 24/13 A2990 RMK AO2 T02350130,M
SBD,2016-07-11 06:14,73.58,56.12,54.37,230.00,4.00,0.00,29.90,M,10.00,M,CLR,M,M,M,M,M,M,M,M,M,M,M,M,M,M,73.58,KSBD 110614Z AUTO 23004KT 10SM CLR 23/13 A2990 RMK AO2 T02310134,M
SBD,2016-07-11 06:34,72.68,55.94,55.68,240.00,3.00,0.00,29.89,M,10.00,M,CLR,M,M,M,M,M,M,M,M,M,M,M,M,M,M,72.68,KSBD 110634Z AUTO 24003KT 10SM CLR 23/13 A2989 RMK AO2 T02260133,M
SBD,2016-07-11 06:54,71.60,55.22,56.26,260.00,3.00,0.00,29.89,M,10.00,M,CLR,M,M,M,M,M,M,M,M,M,M,M,M,M,M,71.60,KSBD 110654Z AUTO 26003KT 10SM CLR 22/13 A2989 RMK AO2 T02200129,M
SBD,2016-07-11 07:15,71.24,54.68,55.84,260.00,3.00,0.00,29.89,M,10.00,M,CLR,M,M,M,M,M,M,M,M,M,M,M,M,M,M,71.24,KSBD 110715Z AUTO 26003KT 10SM CLR 22/13 A2989 RMK AO2 T02180126,M
SBD,2016-07-11 07:34,71.24,54.50,55.48,0.00,0.00,0.00,29.88,M,10.00,M,CLR,M,M,M,M,M,M,M,M,M,M,M,M,M,M,71.24,KSBD 110734Z AUTO 00000KT 10SM CLR 22/13 A2988 RMK AO2 T02180125,M
SBD,2016-07-11 07:54,70.34,54.68,57.58,240.00,3.00,0.00,29.89,M,10.00,M,CLR,M,M,M,M,M,M,M,M,M,M,M,M,M,M,70.34,KSBD 110754Z AUTO 24003KT 10SM CLR 21/13 A2989 RMK AO2 T02130126,M
SBD,2016-07-11 08:15,69.98,55.40,59.84,250.00,3.00,0.00,29.88,M,10.00,M,CLR,M,M,M,M,M,M,M,M,M,M,M,M,M,M,69.98,KSBD 110815Z AUTO 25003KT 10SM CLR 21/13 A2988 RMK AO2 T02110130,M
SBD,2016-07-11 08:34,69.62,55.58,60.98,0.00,0.00,0.00,29.89,M,10.00,M,CLR,M,M,M,M,M,M,M,M,M,M,M,M,M,M,69.62,KSBD 110834Z AUTO 00000KT 10SM CLR 21/13 A2989 RMK AO2 T02090131,M
SBD,2016-07-11 08:54,69.98,54.68,58.29,0.00,0.00,0.00,29.88,M,10.00,M,CLR,M,M,M,M,M,M,M,M,M,M,M,M,M,M,69.98,KSBD 110854Z AUTO 00000KT 10SM CLR 21/13 A2988 RMK AO2 T02110126,M
SBD,2016-07-11 09:14,68.72,53.60,58.51,80.00,3.00,0.00,29.88,M,10.00,M,CLR,M,M,M,M,M,M,M,M,M,M,M,M,M,M,68.72,KSBD 110914Z AUTO 08003KT 10SM CLR 20/12 A2988 RMK AO2 T02040120,M
SBD,2016-07-11 09:35,68.90,51.98,54.79,0.00,0.00,0.00,29.88,M,10.00,M,CLR,M,M,M,M,M,M,M,M,M,M,M,M,M,M,68.90,KSBD 110935Z AUTO 00000KT 10SM CLR 21/11 A2988 RMK AO2 T02050111,M
SBD,2016-07-11 09:54,68.90,53.96,58.92,0.00,0.00,0.00,29.88,M,10.00,M,CLR,M,M,M,M,M,M,M,M,M,M,M,M,M,M,68.90,KSBD 110954Z AUTO 00000KT 10SM CLR 21/12 A2988 RMK AO2 T02050122,M
SBD,2016-07-11 10:14,69.08,54.86,60.51,0.00,0.00,0.00,29.87,M,10.00,M,CLR,M,M,M,M,M,M,M,M,M,M,M,M,M,M,69.08,KSBD 111014Z AUTO 00000KT 10SM CLR 21/13 A2987 RMK AO2 T02060127,M
SBD,2016-07-11 10:34,68.18,52.88,58.05,0.00,0.00,0.00,29.88,M,10.00,M,CLR,M,M,M,M,M,M,M,M,M,M,M,M,M,M,68.18,KSBD 111034Z AUTO 00000KT 10SM CLR 20/12 A2988 RMK AO2 T02010116,M
SBD,2016-07-11 10:54,68.00,52.70,58.03,0.00,0.00,0.00,29.87,M,10.00,M,CLR,M,M,M,M,M,M,M,M,M,M,M,M,M,M,68.00,KSBD 111054Z AUTO 00000KT 10SM CLR 20/12 A2987 RMK AO2 T02000115,M
SBD,2016-07-11 11:14,67.64,52.34,57.98,0.00,0.00,0.00,29.88,M,10.00,M,CLR,M,M,M,M,M,M,M,M,M,M,M,M,M,M,67.64,KSBD 111114Z AUTO 00000KT 10SM CLR 20/11 A2988 RMK AO2 T01980113,M
SBD,2016-07-11 11:34,66.20,52.16,60.53,0.00,0.00,0.00,29.88,M,10.00,M,CLR,M,M,M,M,M,M,M,M,M,M,M,M,M,M,66.20,KSBD 111134Z AUTO 00000KT 10SM CLR 19/11 A2988 RMK AO2 T01900112,M
SBD,2016-07-11 11:54,66.02,52.16,60.91,0.00,0.00,0.00,29.89,M,10.00,M,CLR,M,M,M,M,M,M,M,M,M,M,M,M,M,M,66.02,KSBD 111154Z AUTO 00000KT 10SM CLR 19/11 A2989 RMK AO2 T01890112,M
SBD,2016-07-11 12:14,65.66,51.80,60.87,0.00,0.00,0.00,29.89,M,10.00,M,CLR,M,M,M,M,M,M,M,M,M,M,M,M,M,M,65.66,KSBD 111214Z AUTO 00000KT 10SM CLR 19/11 A2989 RMK AO2 T01870110,M
SBD,2016-07-11 12:34,66.20,50.54,57.01,0.00,0.00,0.00,29.89,M,10.00,M,CLR,M,M,M,M,M,M,M,M,M,M,M,M,M,M,66.20,KSBD 111234Z AUTO 00000KT 10SM CLR 19/10 A2989 RMK AO2 T01900103,M
SBD,2016-07-11 12:54,66.20,51.80,59.74,170.00,3.00,0.00,29.89,M,10.00,M,CLR,M,M,M,M,M,M,M,M,M,M,M,M,M,M,66.20,KSBD 111254Z AUTO 17003KT 10SM CLR 19/11 A2989 RMK AO2 T01900110,M
SBD,2016-07-11 13:14,66.20,51.98,60.13,0.00,0.00,0.00,29.90,M,10.00,M,CLR,M,M,M,M,M,M,M,M,M,M,M,M,M,M,66.20,KSBD 111314Z AUTO 00000KT 10SM CLR 19/11 A2990 RMK AO2 T01900111,M
SBD,2016-07-11 13:34,66.38,52.34,60.56,0.00,0.00,0.00,29.91,M,10.00,M,CLR,M,M,M,M,M,M,M,M,M,M,M,M,M,M,66.38,KSBD 111334Z AUTO 00000KT 10SM CLR 19/11 A2991 RMK AO2 T01910113,M
SBD,2016-07-11 13:54,67.28,52.70,59.48,0.00,0.00,0.00,29.91,M,10.00,M,CLR,M,M,M,M,M,M,M,M,M,M,M,M,M,M,67.28,KSBD 111354Z AUTO 00000KT 10SM CLR 20/12 A2991 RMK AO2 T01960115,M
SBD,2016-07-11 14:00,64.40,57.20,77.45,0.00,0.00,0.00,29.91,M,10.00,M,CLR,M,M,M,M,M,M,M,M,M,M,M,M,M,M,64.40,KSBD 111400Z 00000KT 10SM SKC 18/14 A2991,M
SBD,2016-07-11 14:45,68.00,57.20,68.35,240.00,3.00,0.00,29.92,M,10.00,M,CLR,M,M,M,M,M,M,M,M,M,M,M,M,M,M,68.00,KSBD 111445Z 24003KT 10SM SKC 20/14 A2992,M
SBD,2016-07-11 15:49,71.60,57.20,60.44,250.00,3.00,0.00,29.92,M,10.00,M,CLR,M,M,M,M,M,M,M,M,M,M,M,M,M,M,71.60,KSBD 111549Z 25003KT 10SM SKC 22/14 A2992,M
SBD,2016-07-11 16:46,75.20,55.40,50.17,0.00,0.00,0.00,29.92,M,10.00,M,CLR,M,M,M,M,M,M,M,M,M,M,M,M,M,M,75.20,KSBD 111646Z 00000KT 10SM SKC 24/13 A2992,M
SBD,2016-07-11 17:46,80.60,53.60,39.30,0.00,0.00,0.00,29.91,M,10.00,M,CLR,M,M,M,M,M,M,M,M,M,M,M,M,M,M,80.60,KSBD 111746Z 00000KT 10SM SKC 27/12 A2991,M
SBD,2016-07-11 18:50,86.00,50.00,28.90,320.00,4.00,0.00,29.89,M,10.00,M,CLR,M,M,M,M,M,M,M,M,M,M,M,M,M,M,83.62,KSBD 111850Z 32004KT 10SM SKC 30/10 A2989,M
SBD,2016-07-11 19:50,87.80,44.60,22.27,240.00,5.00,0.00,29.87,M,10.00,M,CLR,M,M,M,M,M,M,M,M,M,M,M,M,M,M,84.53,KSBD 111950Z 24005KT 10SM SKC 31/07 A2987,M
SBD,2016-07-11 20:55,91.40,41.00,17.32,0.00,0.00,0.00,29.85,M,10.00,M,CLR,M,M,M,M,M,M,M,M,M,M,M,M,M,M,87.40,KSBD 112055Z 00000KT 10SM SKC 33/05 A2985,M
SBD,2016-07-11 21:55,91.40,41.00,17.32,270.00,5.00,0.00,29.84,M,10.00,M,CLR,M,M,M,M,M,M,M,M,M,M,M,M,M,M,87.40,KSBD 112155Z 27005KT 10SM SKC 33/05 A2984,M
SBD,2016-07-11 22:50,93.20,44.60,18.80,300.00,5.00,0.00,29.82,M,10.00,M,CLR,M,M,M,M,M,M,M,M,M,M,M,M,M,M,89.34,KSBD 112250Z 30005KT 10SM SKC 34/07 A2982,M
SBD,2016-07-11 23:50,93.20,48.20,21.54,260.00,10.00,0.00,29.81,M,10.00,M,CLR,M,M,M,M,M,M,M,M,M,M,M,M,M,M,89.80,KSBD 112350Z 26010KT 10SM SKC 34/09 A2981,M
SBD,2016-07-12 00:50,91.40,50.00,24.37,240.00,13.00,0.00,29.81,M,7.00,M,CLR,M,M,M,M,M,M,M,M,M,M,M,M,M,M,88.36,KSBD 120050Z 24013KT 7SM SKC 33/10 A2981,M
SBD,2016-07-12 03:50,77.00,53.60,44.25,230.00,9.00,0.00,29.87,M,6.00,M,CLR,M,M,M,M,M,M,M,HZ,M,M,M,M,M,M,77.00,KSBD 120350Z 23009KT 6SM HZ SKC 25/12 A2987 RMK LAST,M
SBD,2016-07-12 08:55,68.00,57.38,68.80,250.00,6.00,0.00,29.92,M,10.00,M,CLR,M,M,M,M,M,M,M,M,M,M,M,M,M,M,68.00,KSBD 120855Z AUTO 25006KT 10SM CLR 20/14 A2992 RMK AO2 T02000141,M
SBD,2016-07-12 09:14,67.28,57.56,70.99,260.00,4.00,0.00,29.92,M,10.00,M,CLR,M,M,M,M,M,M,M,M,M,M,M,M,M,M,67.28,KSBD 120914Z AUTO 26004KT 10SM CLR 20/14 A2992 RMK AO2 T01960142,M
SBD,2016-07-12 09:34,66.56,57.74,73.25,260.00,5.00,0.00,29.92,M,10.00,M,CLR,M,M,M,M,M,M,M,M,M,M,M,M,M,M,66.56,KSBD 120934Z AUTO 26005KT 10SM CLR 19/14 A2992 RMK AO2 T01920143,M
SBD,2016-07-12 09:54,66.38,58.28,75.15,260.00,6.00,0.00,29.92,M,10.00,M,CLR,M,M,M,M,M,M,M,M,M,M,M,M,M,M,66.38,KSBD 120954Z AUTO 26006KT 10SM CLR 19/15 A2992 RMK AO2 T01910146,M
SBD,2016-07-12 10:14,66.02,58.28,76.10,250.00,5.00,0.00,29.92,M,10.00,M,CLR,M,M,M,M,M,M,M,M,M,M,M,M,M,M,66.02,KSBD 121014Z AUTO 25005KT 10SM CLR 19/15 A2992 RMK AO2 T01890146,M
SBD,2016-07-12 10:34,65.30,58.46,78.53,260.00,5.00,0.00,29.92,M,10.00,M,CLR,M,M,M,M,M,M,M,M,M,M,M,M,M,M,65.30,KSBD 121034Z AUTO 26005KT 10SM CLR 19/15 A2992 RMK AO2 T01850147,M
SBD,2016-07-12 10:54,65.30,58.82,79.55,250.00,4.00,0.00,29.92,M,10.00,M,CLR,M,M,M,M,M,M,M,M,M,M,M,M,M,M,65.30,KSBD 121054Z AUTO 25004KT 10SM CLR 19/15 A2992 RMK AO2 T01850149,M
SBD,2016-07-12 11:14,64.76,58.64,80.54,250.00,4.00,0.00,29.92,M,7.00,M,CLR,M,M,M,M,M,M,M,M,M,M,M,M,M,M,64.76,KSBD 121114Z AUTO 25004KT 7SM CLR 18/15 A2992 RMK AO2 T01820148,M
SBD,2016-07-12 11:34,64.76,59.00,81.58,250.00,3.00,0.00,29.92,M,7.00,M,CLR,M,M,M,M,M,M,M,M,M,M,M,M,M,M,64.76,KSBD 121134Z AUTO 25003KT 7SM CLR 18/15 A2992 RMK AO2 T01820150,M
SBD,2016-07-12 11:54,64.40,58.64,81.56,250.00,3.00,0.00,29.92,M,7.00,M,SCT,SCT,M,M,2300.00,2800.00,M,M,M,M,M,M,M,M,M,64.40,KSBD 121154Z AUTO 25003KT 7SM SCT023 SCT028 18/15 A2992 RMK AO2 T01800148,M
SBD,2016-07-12 12:14,63.68,58.82,84.18,260.00,4.00,0.00,29.92,M,7.00,M,BKN,BKN,BKN,M,1500.00,2300.00,2800.00,M,M,M,M,M,M,M,M,63.68,KSBD 121214Z AUTO 26004KT 7SM BKN015 BKN023 BKN028 18/15 A2992 RMK AO2 T01760149,M
SBD,2016-07-12 12:34,63.86,59.00,84.19,260.00,4.00,0.00,29.92,M,7.00,M,OVC,M,M,M,1500.00,M,M,M,M,M,M,M,M,M,M,63.86,KSBD 121234Z AUTO 26004KT 7SM OVC015 18/15 A2992 RMK AO2 T01770150,M
SBD,2016-07-12 12:54,64.40,59.54,84.23,260.00,3.00,0.00,29.93,M,7.00,M,OVC,M,M,M,1500.00,M,M,M,M,M,M,M,M,M,M,64.40,KSBD 121254Z AUTO 26003KT 7SM OVC015 18/15 A2993 RMK AO2 T01800153,M
SBD,2016-07-12 13:14,64.76,59.90,84.25,250.00,5.00,0.00,29.94,M,7.00,M,OVC,M,M,M,1300.00,M,M,M,M,M,M,M,M,M,M,64.76,KSBD 121314Z AUTO 25005KT 7SM OVC013 18/16 A2994 RMK AO2 T01820155,M
SBD,2016-07-12 13:34,65.30,59.90,82.68,260.00,5.00,0.00,29.94,M,7.00,M,OVC,M,M,M,900.00,M,M,M,M,M,M,M,M,M,M,65.30,KSBD 121334Z AUTO 26005KT 7SM OVC009 19/16 A2994 RMK AO2 T01850155,M
SBD,2016-07-12 13:54,65.48,59.90,82.16,250.00,5.00,0.00,29.95,M,7.00,M,OVC,M,M,M,900.00,M,M,M,M,M,M,M,M,M,M,65.48,KSBD 121354Z AUTO 25005KT 7SM OVC009 19/16 A2995 RMK AO2 T01860155,M
SBD,2016-07-12 14:00,59.00,51.80,76.98,0.00,0.00,0.00,29.95,M,3.00,M,OVC,M,M,M,900.00,M,M,M,BR,M,M,M,M,M,M,59.00,KSBD 121400Z 00000KT 3SM BR OVC009 15/11 A2995,M
SBD,2016-07-12 14:45,66.20,59.00,77.60,0.00,0.00,0.00,29.96,M,3.00,M,OVC,M,M,M,1100.00,M,M,M,BR,M,M,M,M,M,M,66.20,KSBD 121445Z 00000KT 3SM BR OVC011 19/15 A2996,M
SBD,2016-07-12 15:49,68.00,59.00,72.92,0.00,0.00,0.00,29.97,M,3.00,M,OVC,M,M,M,1300.00,M,M,M,BR,M,M,M,M,M,M,68.00,KSBD 121549Z 00000KT 3SM BR OVC013 20/15 A2997,M
SBD,2016-07-12 16:46,71.60,59.00,64.48,220.00,3.00,0.00,29.96,M,3.00,M,BKN,M,M,M,1500.00,M,M,M,HZ,M,M,M,M,M,M,71.60,KSBD 121646Z 22003KT 3SM HZ BKN015 22/15 A2996,M
SBD,2016-07-12 17:50,75.20,57.20,53.55,290.00,5.00,0.00,29.96,M,3.00,M,CLR,M,M,M,M,M,M,M,HZ,M,M,M,M,M,M,75.20,KSBD 121750Z 29005KT 03SM HZ SKC 24/14 A2996,M
SBD,2016-07-12 18:46,80.60,55.40,41.97,0.00,0.00,0.00,29.94,M,3.00,M,CLR,M,M,M,M,M,M,M,HZ,M,M,M,M,M,M,80.53,KSBD 121846Z 00000KT 03SM HZ SKC 27/13 A2994,M
SBD,2016-07-12 19:50,84.20,50.00,30.62,270.00,5.00,0.00,29.94,M,4.00,M,CLR,M,M,M,M,M,M,M,HZ,M,M,M,M,M,M,82.24,KSBD 121950Z 27005KT 04SM HZ SKC 29/10 A2994,M
SBD,2016-07-12 20:47,86.00,48.20,27.03,260.00,5.00,0.00,29.91,M,4.00,M,CLR,M,M,M,M,M,M,M,HZ,M,M,M,M,M,M,83.40,KSBD 122047Z 26005KT 4SM HZ SKC 30/09 A2991,M
SBD,2016-07-12 21:50,91.40,44.60,19.89,230.00,8.00,0.00,29.90,M,6.00,M,CLR,M,M,M,M,M,M,M,HZ,M,M,M,M,M,M,87.68,KSBD 122150Z 23008KT 6SM HZ SKC 33/07 A2990,M
SBD,2016-07-12 22:50,91.40,46.40,21.29,230.00,6.00,0.00,29.87,M,6.00,M,CLR,M,M,M,M,M,M,M,HZ,M,M,M,M,M,M,87.86,KSBD 122250Z 23006KT 06SM HZ SKC 33/08 A2987,M
SBD,2016-07-12 23:53,93.20,46.40,20.13,240.00,7.00,0.00,29.86,M,6.00,M,CLR,M,M,M,M,M,M,M,HZ,M,M,M,M,M,M,89.55,KSBD 122353Z 24007KT 06SM HZ SKC 34/08 A2986,M
SBD,2016-07-13 00:50,91.40,48.20,22.78,230.00,9.00,0.00,29.85,M,6.00,M,CLR,M,M,M,M,M,M,M,HZ,M,M,M,M,M,M,88.09,KSBD 130050Z 23009KT 6SM HZ SKC 33/09 A2985,M
SBD,2016-07-13 01:50,86.00,55.40,35.25,240.00,14.00,0.00,29.87,M,6.00,M,CLR,M,M,M,M,M,M,M,HZ,M,M,M,M,M,M,84.54,KSBD 130150Z 24014KT 6SM HZ SKC 30/13 A2987,M
SBD,2016-07-13 02:50,82.40,55.40,39.58,240.00,9.00,0.00,29.88,M,6.00,M,CLR,M,M,M,M,M,M,M,HZ,M,M,M,M,M,M,82.40,KSBD 130250Z 24009KT 6SM HZ SKC 28/13 A2988,M
SBD,2016-07-13 03:50,77.00,57.20,50.43,240.00,6.00,0.00,29.91,M,6.00,M,CLR,M,M,M,M,M,M,M,HZ,M,M,M,M,M,M,77.00,KSBD 130350Z 24006KT 6SM HZ SKC 25/14 A2991 RMK LAST,M
SBD,2016-07-13 04:14,77.00,57.56,51.09,240.00,7.00,0.00,29.92,M,10.00,M,CLR,M,M,M,M,M,M,M,M,M,M,M,M,M,M,77.00,KSBD 130414Z AUTO 24007KT 10SM CLR 25/14 A2992 RMK AO2 T02500142,M
SBD,2016-07-13 04:34,76.10,57.92,53.33,240.00,5.00,0.00,29.92,M,10.00,M,CLR,M,M,M,M,M,M,M,M,M,M,M,M,M,M,76.10,KSBD 130434Z AUTO 24005KT 10SM CLR 25/14 A2992 RMK AO2 T02450144,M
SBD,2016-07-13 04:54,75.20,58.10,55.31,260.00,5.00,0.00,29.93,M,10.00,M,CLR,M,M,M,M,M,M,M,M,M,M,M,M,M,M,75.20,KSBD 130454Z AUTO 26005KT 10SM CLR 24/15 A2993 RMK AO2 T02400145,M
SBD,2016-07-13 05:14,74.30,58.28,57.37,260.00,4.00,0.00,29.94,M,10.00,M,CLR,M,M,M,M,M,M,M,M,M,M,M,M,M,M,74.30,KSBD 130514Z AUTO 26004KT 10SM CLR 24/15 A2994 RMK AO2 T02350146,M
SBD,2016-07-13 05:34,73.58,58.46,59.15,250.00,5.00,0.00,29.94,M,10.00,M,CLR,M,M,M,M,M,M,M,M,M,M,M,M,M,M,73.58,KSBD 130534Z AUTO 25005KT 10SM CLR 23/15 A2994 RMK AO2 T02310147,M
SBD,2016-07-13 07:07,70.70,59.00,66.48,260.00,3.00,0.00,29.94,M,10.00,M,CLR,M,M,M,M,M,M,M,M,M,M,M,M,M,M,70.70,KSBD 130707Z AUTO 26003KT 10SM CLR 22/15 A2994 RMK AO2 T02150150,M
SBD,2016-07-13 07:15,70.34,59.00,67.30,260.00,4.00,0.00,29.94,M,10.00,M,CLR,M,M,M,M,M,M,M,M,M,M,M,M,M,M,70.34,KSBD 130715Z AUTO 26004KT 10SM CLR 21/15 A2994 RMK AO2 T02130150,M
SBD,2016-07-13 07:34,69.80,59.18,68.99,250.00,4.00,0.00,29.94,M,10.00,M,CLR,M,M,M,M,M,M,M,M,M,M,M,M,M,M,69.80,KSBD 130734Z AUTO 25004KT 10SM CLR 21/15 A2994 RMK AO2 T02100151,M
SBD,2016-07-13 07:54,69.44,59.18,69.85,250.00,3.00,0.00,29.94,M,10.00,M,CLR,M,M,M,M,M,M,M,M,M,M,M,M,M,M,69.44,KSBD 130754Z AUTO 25003KT 10SM CLR 21/15 A2994 RMK AO2 T02080151,M
SBD,2016-07-13 08:15,68.90,59.18,71.15,260.00,3.00,0.00,29.94,M,10.00,M,CLR,M,M,M,M,M,M,M,M,M,M,M,M,M,M,68.90,KSBD 130815Z AUTO 26003KT 10SM CLR 21/15 A2994 RMK AO2 T02050151,M
SBD,2016-07-13 08:34,68.72,59.36,72.06,260.00,3.00,0.00,29.94,M,10.00,M,CLR,M,M,M,M,M,M,M,M,M,M,M,M,M,M,68.72,KSBD 130834Z AUTO 26003KT 10SM CLR 20/15 A2994 RMK AO2 T02040152,M
SBD,2016-07-13 08:54,69.08,59.54,71.63,0.00,0.00,0.00,29.94,M,10.00,M,CLR,M,M,M,M,M,M,M,M,M,M,M,M,M,M,69.08,KSBD 130854Z AUTO 00000KT 10SM CLR 21/15 A2994 RMK AO2 T02060153,M
SBD,2016-07-13 09:15,68.00,59.36,73.86,0.00,0.00,0.00,29.94,M,10.00,M,CLR,M,M,M,M,M,M,M,M,M,M,M,M,M,M,68.00,KSBD 130915Z AUTO 00000KT 10SM CLR 20/15 A2994 RMK AO2 T02000152,M
SBD,2016-07-13 09:34,67.82,59.36,74.32,0.00,0.00,0.00,29.94,M,10.00,M,CLR,M,M,M,M,M,M,M,M,M,M,M,M,M,M,67.82,KSBD 130934Z AUTO 00000KT 10SM CLR 20/15 A2994 RMK AO2 T01990152,M
SBD,2016-07-13 09:54,68.18,59.72,74.36,0.00,0.00,0.00,29.94,M,10.00,M,CLR,M,M,M,M,M,M,M,M,M,M,M,M,M,M,68.18,KSBD 130954Z AUTO 00000KT 10SM CLR 20/15 A2994 RMK AO2 T02010154,M
SBD,2016-07-13 10:15,68.36,59.90,74.37,0.00,0.00,0.00,29.95,M,10.00,M,CLR,M,M,M,M,M,M,M,M,M,M,M,M,M,M,68.36,KSBD 131015Z AUTO 00000KT 10SM CLR 20/16 A2995 RMK AO2 T02020155,M
SBD,2016-07-13 10:34,68.00,59.00,72.92,0.00,0.00,0.00,29.95,M,10.00,M,CLR,M,M,M,M,M,M,M,M,M,M,M,M,M,M,68.00,KSBD 131034Z AUTO 00000KT 10SM CLR 20/15 A2995 RMK AO2 T02000150,M
SBD,2016-07-13 10:54,67.64,57.38,69.66,0.00,0.00,0.00,29.94,M,10.00,M,CLR,M,M,M,M,M,M,M,M,M,M,M,M,M,M,67.64,KSBD 131054Z AUTO 00000KT 10SM CLR 20/14 A2994 RMK AO2 T01980141,M
SBD,2016-07-13 11:14,66.92,56.84,70.03,0.00,0.00,0.00,29.94,M,10.00,M,CLR,M,M,M,M,M,M,M,M,M,M,M,M,M,M,66.92,KSBD 131114Z AUTO 00000KT 10SM CLR 19/14 A2994 RMK AO2 T01940138,M
SBD,2016-07-13 11:34,66.38,56.84,71.36,0.00,0.00,0.00,29.94,M,10.00,M,CLR,M,M,M,M,M,M,M,M,M,M,M,M,M,M,66.38,KSBD 131134Z AUTO 00000KT 10SM CLR 19/14 A2994 RMK AO2 T01910138,M
SBD,2016-07-13 11:54,65.48,56.12,71.73,0.00,0.00,0.00,29.95,M,10.00,M,CLR,M,M,M,M,M,M,M,M,M,M,M,M,M,M,65.48,KSBD 131154Z AUTO 00000KT 10SM CLR 19/13 A2995 RMK AO2 T01860134,M
SBD,2016-07-13 12:14,65.84,55.94,70.38,0.00,0.00,0.00,29.95,M,10.00,M,CLR,M,M,M,M,M,M,M,M,M,M,M,M,M,M,65.84,KSBD 131214Z AUTO 00000KT 10SM CLR 19/13 A2995 RMK AO2 T01880133,M
SBD,2016-07-13 12:34,65.84,55.94,70.38,0.00,0.00,0.00,29.96,M,10.00,M,CLR,M,M,M,M,M,M,M,M,M,M,M,M,M,M,65.84,KSBD 131234Z AUTO 00000KT 10SM CLR 19/13 A2996 RMK AO2 T01880133,M
SBD,2016-07-13 12:55,65.84,55.94,70.38,0.00,0.00,0.00,29.97,M,10.00,M,CLR,M,M,M,M,M,M,M,M,M,M,M,M,M,M,65.84,KSBD 131255Z AUTO 00000KT 10SM CLR 19/13 A2997 RMK AO2 T01880133,M
SBD,2016-07-13 13:14,65.30,55.58,70.78,0.00,0.00,0.00,29.98,M,10.00,M,CLR,M,M,M,M,M,M,M,M,M,M,M,M,M,M,65.30,KSBD 131314Z AUTO 00000KT 10SM CLR 19/13 A2998 RMK AO2 T01850131,M
SBD,2016-07-13 13:34,65.48,56.12,71.73,0.00,0.00,0.00,29.98,M,10.00,M,CLR,M,M,M,M,M,M,M,M,M,M,M,M,M,M,65.48,KSBD 131334Z AUTO 00000KT 10SM CLR 19/13 A2998 RMK AO2 T01860134,M
SBD,2016-07-13 13:55,66.56,56.66,70.45,0.00,0.00,0.00,29.99,M,10.00,M,CLR,M,M,M,M,M,M,M,M,M,M,M,M,M,M,66.56,KSBD 131355Z AUTO 00000KT 10SM CLR 19/14 A2999 RMK AO2 T01920137,M
SBD,2016-07-13 14:00,66.20,59.00,77.60,0.00,0.00,0.00,29.99,M,5.00,M,CLR,M,M,M,M,M,M,M,HZ,M,M,M,M,M,M,66.20,KSBD 131400Z 00000KT 5SM HZ SKC 19/15 A2999,M
SBD,2016-07-13 14:45,68.00,59.00,72.92,0.00,0.00,0.00,30.00,M,4.00,M,CLR,M,M,M,M,M,M,M,HZ,M,M,M,M,M,M,68.00,KSBD 131445Z 00000KT 4SM HZ SKC 20/15 A3000,M
SBD,2016-07-13 15:45,68.00,59.00,72.92,0.00,0.00,0.00,30.00,M,4.00,M,CLR,M,M,M,M,M,M,M,HZ,M,M,M,M,M,M,68.00,KSBD 131545Z 00000KT 4SM HZ SKC 20/15 A3000,M
SBD,2016-07-13 16:50,77.00,59.00,53.80,0.00,0.00,0.00,30.00,M,4.00,M,CLR,M,M,M,M,M,M,M,HZ,M,M,M,M,M,M,77.00,KSBD 131650Z 00000KT 4SM HZ SKC 25/15 A3000,M
SBD,2016-07-13 17:50,80.60,55.40,41.97,310.00,3.00,0.00,29.99,M,5.00,M,CLR,M,M,M,M,M,M,M,HZ,M,M,M,M,M,M,80.53,KSBD 131750Z 31003KT 5SM HZ SKC 27/13 A2999,M
SBD,2016-07-13 18:50,89.60,53.60,29.45,300.00,3.00,0.00,29.99,M,6.00,M,CLR,M,M,M,M,M,M,M,HZ,M,M,M,M,M,M,87.36,KSBD 131850Z 30003KT 6SM HZ SKC 32/12 A2999,M
SBD,2016-07-13 20:51,95.00,48.20,20.38,240.00,5.00,0.00,29.94,M,7.00,M,CLR,M,M,M,M,M,M,M,M,M,M,M,M,M,M,91.56,KSBD 132051Z 24005KT 7SM SKC 35/09 A2994,M
SBD,2016-07-13 21:48,98.60,44.60,15.93,240.00,5.00,0.00,29.93,M,7.00,M,CLR,M,M,M,M,M,M,M,M,M,M,M,M,M,M,94.55,KSBD 132148Z 24005KT 7SM SKC 37/07 A2993,M
SBD,2016-07-13 22:50,100.40,44.60,15.08,280.00,10.00,0.00,29.91,M,7.00,M,CLR,M,M,M,M,M,M,M,M,M,M,M,M,M,M,96.31,KSBD 132250Z 28010KT 7SM SKC 38/07 A2991,M
SBD,2016-07-13 23:52,82.40,48.20,30.35,240.00,14.00,0.00,29.91,M,7.00,M,CLR,M,M,M,M,M,M,M,M,M,M,M,M,M,M,80.80,KSBD 132352Z 24014KT 7SM SKC 28/09 A2991,M
SBD,2016-07-14 01:50,89.60,53.60,29.45,240.00,12.00,0.00,29.92,M,7.00,M,CLR,M,M,M,M,M,M,M,M,M,M,M,M,M,M,87.36,KSBD 140150Z 24012KT 7SM SKC 32/12 A2992,M
SBD,2016-07-14 02:49,86.00,53.60,33.01,250.00,8.00,0.00,29.94,M,7.00,M,CLR,M,M,M,M,M,M,M,M,M,M,M,M,M,M,84.18,KSBD 140249Z 25008KT 7SM SKC 30/12 A2994,M
SBD,2016-07-14 03:50,82.40,55.40,39.58,230.00,6.00,0.00,29.96,M,7.00,M,CLR,M,M,M,M,M,M,M,M,M,M,M,M,M,M,82.40,KSBD 140350Z 23006KT 7SM SKC 28/13 A2996,M
SBD,2016-07-14 04:15,81.14,57.20,44.01,250.00,4.00,0.00,29.97,M,10.00,M,CLR,M,M,M,M,M,M,M,M,M,M,M,M,M,M,81.18,KSBD 140415Z AUTO 25004KT 10SM CLR 27/14 A2997 RMK AO2 T02730140,M
SBD,2016-07-14 04:34,80.42,57.38,45.35,240.00,4.00,0.00,29.98,M,10.00,M,CLR,M,M,M,M,M,M,M,M,M,M,M,M,M,M,80.71,KSBD 140434Z AUTO 24004KT 10SM CLR 27/14 A2998 RMK AO2 T02690141,M
SBD,2016-07-14 04:54,79.70,58.10,47.65,240.00,5.00,0.00,29.98,M,10.00,M,CLR,M,M,M,M,M,M,M,M,M,M,M,M,M,M,79.70,KSBD 140454Z AUTO 24005KT 10SM CLR 27/15 A2998 RMK AO2 T02650145,M
SBD,2016-07-14 05:14,78.80,58.46,49.72,240.00,5.00,0.00,29.99,M,10.00,M,CLR,M,M,M,M,M,M,M,M,M,M,M,M,M,M,78.80,KSBD 140514Z AUTO 24005KT 10SM CLR 26/15 A2999 RMK AO2 T02600147,M
SBD,2016-07-14 05:34,78.08,58.64,51.25,250.00,5.00,0.00,29.99,M,10.00,M,CLR,M,M,M,M,M,M,M,M,M,M,M,M,M,M,78.08,KSBD 140534Z AUTO 25005KT 10SM CLR 26/15 A2999 RMK AO2 T02560148,M
SBD,2016-07-14 05:54,77.00,58.82,53.45,250.00,5.00,0.00,29.99,M,10.00,M,CLR,M,M,M,M,M,M,M,M,M,M,M,M,M,M,77.00,KSBD 140554Z AUTO 25005KT 10SM CLR 25/15 A2999 RMK AO2 T02500149,M
SBD,2016-07-14 06:14,76.10,59.00,55.43,260.00,4.00,0.00,29.99,M,10.00,M,CLR,M,M,M,M,M,M,M,M,M,M,M,M,M,M,76.10,KSBD 140614Z AUTO 26004KT 10SM CLR 25/15 A2999 RMK AO2 T02450150,M
SBD,2016-07-14 06:34,75.20,59.00,57.12,250.00,4.00,0.00,29.99,M,10.00,M,CLR,M,M,M,M,M,M,M,M,M,M,M,M,M,M,75.20,KSBD 140634Z AUTO 25004KT 10SM CLR 24/15 A2999 RMK AO2 T02400150,M
SBD,2016-07-14 06:54,74.66,59.18,58.54,260.00,3.00,0.00,29.99,M,10.00,M,CLR,M,M,M,M,M,M,M,M,M,M,M,M,M,M,74.66,KSBD 140654Z AUTO 26003KT 10SM CLR 24/15 A2999 RMK AO2 T02370151,M
SBD,2016-07-14 07:14,74.48,59.18,58.89,260.00,3.00,0.00,29.99,M,10.00,M,CLR,M,M,M,M,M,M,M,M,M,M,M,M,M,M,74.48,KSBD 140714Z AUTO 26003KT 10SM CLR 24/15 A2999 RMK AO2 T02360151,M
SBD,2016-07-14 07:34,74.30,59.36,59.63,260.00,3.00,0.00,29.99,M,10.00,M,CLR,M,M,M,M,M,M,M,M,M,M,M,M,M,M,74.30,KSBD 140734Z AUTO 26003KT 10SM CLR 24/15 A2999 RMK AO2 T02350152,M
SBD,2016-07-14 07:54,73.76,59.36,60.72,0.00,0.00,0.00,29.97,M,10.00,M,CLR,M,M,M,M,M,M,M,M,M,M,M,M,M,M,73.76,KSBD 140754Z AUTO 00000KT 10SM CLR 23/15 A2997 RMK AO2 T02320152,M
SBD,2016-07-14 08:14,73.76,59.72,61.51,0.00,0.00,0.00,29.97,M,10.00,M,CLR,M,M,M,M,M,M,M,M,M,M,M,M,M,M,73.76,KSBD 140814Z AUTO 00000KT 10SM CLR 23/15 A2997 RMK AO2 T02320154,M
SBD,2016-07-14 08:34,73.40,59.36,61.46,0.00,0.00,0.00,29.97,M,10.00,M,CLR,M,M,M,M,M,M,M,M,M,M,M,M,M,M,73.40,KSBD 140834Z AUTO 00000KT 10SM CLR 23/15 A2997 RMK AO2 T02300152,M
SBD,2016-07-14 08:54,73.04,57.20,57.57,0.00,0.00,0.00,29.97,M,10.00,M,CLR,M,M,M,M,M,M,M,M,M,M,M,M,M,M,73.04,KSBD 140854Z AUTO 00000KT 10SM CLR 23/14 A2997 RMK AO2 T02280140,M
SBD,2016-07-14 09:14,71.96,56.66,58.56,0.00,0.00,0.00,29.97,M,10.00,M,CLR,M,M,M,M,M,M,M,M,M,M,M,M,M,M,71.96,KSBD 140914Z AUTO 00000KT 10SM CLR 22/14 A2997 RMK AO2 T02220137,M
SBD,2016-07-14 09:34,71.06,55.58,58.06,0.00,0.00,0.00,29.97,M,10.00,M,CLR,M,M,M,M,M,M,M,M,M,M,M,M,M,M,71.06,KSBD 140934Z AUTO 00000KT 10SM CLR 22/13 A2997 RMK AO2 T02170131,M
SBD,2016-07-14 09:54,70.88,55.58,58.41,0.00,0.00,0.00,29.97,M,10.00,M,CLR,M,M,M,M,M,M,M,M,M,M,M,M,M,M,70.88,KSBD 140954Z AUTO 00000KT 10SM CLR 22/13 A2997 RMK AO2 T02160131,M
SBD,2016-07-14 10:14,69.08,55.58,62.12,0.00,0.00,0.00,29.97,M,10.00,M,CLR,M,M,M,M,M,M,M,M,M,M,M,M,M,M,69.08,KSBD 141014Z AUTO 00000KT 10SM CLR 21/13 A2997 RMK AO2 T02060131,M
SBD,2016-07-14 10:34,69.08,55.76,62.52,0.00,0.00,0.00,29.99,M,10.00,M,CLR,M,M,M,M,M,M,M,M,M,M,M,M,M,M,69.08,KSBD 141034Z AUTO 00000KT 10SM CLR 21/13 A2999 RMK AO2 T02060132,M
SBD,2016-07-14 10:54,69.26,55.76,62.14,0.00,0.00,0.00,29.99,M,10.00,M,CLR,M,M,M,M,M,M,M,M,M,M,M,M,M,M,69.26,KSBD 141054Z AUTO 00000KT 10SM CLR 21/13 A2999 RMK AO2 T02070132,M
SBD,2016-07-14 11:14,69.98,56.48,62.23,0.00,0.00,0.00,30.00,M,10.00,M,CLR,M,M,M,M,M,M,M,M,M,M,M,M,M,M,69.98,KSBD 141114Z AUTO 00000KT 10SM CLR 21/14 A3000 RMK AO2 T02110136,M
SBD,2016-07-14 11:34,69.26,55.94,62.54,0.00,0.00,0.00,30.00,M,10.00,M,CLR,M,M,M,M,M,M,M,M,M,M,M,M,M,M,69.26,KSBD 141134Z AUTO 00000KT 10SM CLR 21/13 A3000 RMK AO2 T02070133,M
SBD,2016-07-14 11:54,69.08,55.94,62.93,0.00,0.00,0.00,30.01,M,10.00,M,CLR,M,M,M,M,M,M,M,M,M,M,M,M,M,M,69.08,KSBD 141154Z AUTO 00000KT 10SM CLR 21/13 A3001 RMK AO2 T02060133,M
SBD,2016-07-14 12:14,68.36,55.76,64.09,0.00,0.00,0.00,30.01,M,10.00,M,CLR,M,M,M,M,M,M,M,M,M,M,M,M,M,M,68.36,KSBD 141214Z AUTO 00000KT 10SM CLR 20/13 A3001 RMK AO2 T02020132,M
SBD,2016-07-14 12:34,68.00,56.66,67.03,0.00,0.00,0.00,30.01,M,10.00,M,CLR,M,M,M,M,M,M,M,M,M,M,M,M,M,M,68.00,KSBD 141234Z AUTO 00000KT 10SM CLR 20/14 A3001 RMK AO2 T02000137,M
SBD,2016-07-14 12:54,67.82,59.18,73.84,260.00,3.00,0.00,30.02,M,10.00,M,CLR,M,M,M,M,M,M,M,M,M,M,M,M,M,M,67.82,KSBD 141254Z AUTO 26003KT 10SM CLR 20/15 A3002 RMK AO2 T01990151,M
SBD,2016-07-14 13:14,66.38,59.54,78.62,260.00,4.00,0.00,30.03,M,7.00,M,CLR,M,M,M,M,M,M,M,M,M,M,M,M,M,M,66.38,KSBD 141314Z AUTO 26004KT 7SM CLR 19/15 A3003 RMK AO2 T01910153,M
SBD,2016-07-14 13:34,66.74,60.26,79.66,260.00,5.00,0.00,30.04,M,7.00,M,CLR,M,M,M,M,M,M,M,M,M,M,M,M,M,M,66.74,KSBD 141334Z AUTO 26005KT 7SM CLR 19/16 A3004 RMK AO2 T01930157,M
SBD,2016-07-14 13:50,67.64,60.80,78.72,0.00,0.00,0.00,30.04,M,7.00,M,CLR,M,M,M,M,M,M,M,M,M,M,M,M,M,M,67.64,KSBD 141350Z AUTO 00000KT 7SM CLR 20/16 A3004 RMK AO2 T01980160,M
SBD,2016-07-14 14:50,71.60,60.80,68.75,0.00,0.00,0.00,30.04,M,3.00,M,CLR,M,M,M,M,M,M,M,HZ,M,M,M,M,M,M,71.60,KSBD 141450Z 00000KT 3SM HZ SKC 22/16 A3004,M
SBD,2016-07-14 15:50,75.20,60.80,60.90,0.00,0.00,0.00,30.03,M,3.00,M,CLR,M,M,M,M,M,M,M,HZ,M,M,M,M,M,M,75.20,KSBD 141550Z 00000KT 3SM HZ SKC 24/16 A3003,M
SBD,2016-07-14 16:50,80.60,59.00,47.79,0.00,0.00,0.00,30.03,M,4.00,M,CLR,M,M,M,M,M,M,M,HZ,M,M,M,M,M,M,81.11,KSBD 141650Z 00000KT 4SM HZ SKC 27/15 A3003,M
SBD,2016-07-14 17:47,86.00,46.40,25.26,280.00,6.00,0.00,30.03,M,4.00,M,CLR,M,M,M,M,M,M,M,HZ,M,M,M,M,M,M,83.22,KSBD 141747Z 28006KT 4SM HZ SKC 30/08 A3003,M
SBD,2016-07-14 18:48,89.60,48.20,24.11,240.00,6.00,0.00,30.03,M,4.00,M,CLR,M,M,M,M,M,M,M,HZ,M,M,M,M,M,M,86.44,KSBD 141848Z 24006KT 4SM HZ SKC 32/09 A3003,M
SBD,2016-07-14 19:50,95.00,48.20,20.38,260.00,4.00,0.00,30.00,M,6.00,M,CLR,M,M,M,M,M,M,M,HZ,M,M,M,M,M,M,91.56,KSBD 141950Z 26004KT 6SM HZ SKC 35/09 A3000,M
SBD,2016-07-14 20:48,98.60,46.40,17.05,250.00,9.00,0.00,29.98,M,7.00,M,CLR,M,M,M,M,M,M,M,M,M,M,M,M,M,M,94.84,KSBD 142048Z 25009KT 7SM SKC 37/08 A2998,M
SBD,2016-07-14 21:50,100.40,42.80,14.08,250.00,8.00,0.00,29.96,M,7.00,M,CLR,M,M,M,M,M,M,M,M,M,M,M,M,M,M,96.04,KSBD 142150Z 25008KT 7SM SKC 38/06 A2996,M
SBD,2016-07-14 22:48,100.40,46.40,16.15,260.00,8.00,0.00,29.95,M,7.00,M,CLR,M,M,M,M,M,M,M,M,M,M,M,M,M,M,96.63,KSBD 142248Z 26008KT 7SM SKC 38/08 A2995,M
SBD,2016-07-14 23:48,98.60,48.20,18.25,260.00,9.00,0.00,29.93,M,7.00,M,CLR,M,M,M,M,M,M,M,M,M,M,M,M,M,M,95.17,KSBD 142348Z 26009KT 7SM SKC 37/09 A2993,M
SBD,2016-07-15 00:50,78.80,48.20,34.13,250.00,10.00,0.00,29.92,M,7.00,M,CLR,M,M,M,M,M,M,M,M,M,M,M,M,M,M,78.80,KSBD 150050Z 25010KT 7SM SKC 26/09 A2992,M
SBD,2016-07-15 01:48,93.20,46.40,20.13,240.00,10.00,0.00,29.92,M,7.00,M,CLR,M,M,M,M,M,M,M,M,M,M,M,M,M,M,89.55,KSBD 150148Z 24010KT 7SM SKC 34/08 A2992,M
SBD,2016-07-15 02:50,89.60,48.20,24.11,240.00,8.00,0.00,29.93,M,7.00,M,CLR,M,M,M,M,M,M,M,M,M,M,M,M,M,M,86.44,KSBD 150250Z 24008KT 7SM SKC 32/09 A2993,M
SBD,2016-07-15 03:48,84.20,51.80,32.73,230.00,6.00,0.00,29.94,M,7.00,M,CLR,M,M,M,M,M,M,M,M,M,M,M,M,M,M,82.48,KSBD 150348Z 23006KT 7SM SKC 29/11 A2994,M
SBD,2016-07-15 04:14,83.30,52.88,35.07,240.00,5.00,0.00,29.94,M,10.00,M,CLR,M,M,M,M,M,M,M,M,M,M,M,M,M,M,81.98,KSBD 150414Z AUTO 24005KT 10SM CLR 29/12 A2994 RMK AO2 T02850116,M
SBD,2016-07-15 04:34,82.04,53.60,37.50,240.00,5.00,0.00,29.96,M,10.00,M,CLR,M,M,M,M,M,M,M,M,M,M,M,M,M,M,82.04,KSBD 150434Z AUTO 24005KT 10SM CLR 28/12 A2996 RMK AO2 T02780120,M
SBD,2016-07-15 04:54,81.32,54.68,39.94,240.00,4.00,0.00,29.96,M,10.00,M,CLR,M,M,M,M,M,M,M,M,M,M,M,M,M,M,81.32,KSBD 150454Z AUTO 24004KT 10SM CLR 27/13 A2996 RMK AO2 T02740126,M
SBD,2016-07-15 05:14,80.06,55.58,43.00,250.00,4.00,0.00,29.97,M,10.00,M,CLR,M,M,M,M,M,M,M,M,M,M,M,M,M,M,80.22,KSBD 150514Z AUTO 25004KT 10SM CLR 27/13 A2997 RMK AO2 T02670131,M
SBD,2016-07-15 05:34,78.62,56.30,46.27,260.00,4.00,0.00,29.97,M,10.00,M,CLR,M,M,M,M,M,M,M,M,M,M,M,M,M,M,78.62,KSBD 150534Z AUTO 26004KT 10SM CLR 26/14 A2997 RMK AO2 T02590135,M
SBD,2016-07-15 05:54,77.90,57.02,48.63,260.00,4.00,0.00,29.97,M,10.00,M,CLR,M,M,M,M,M,M,M,M,M,M,M,M,M,M,77.90,KSBD 150554Z AUTO 26004KT 10SM CLR 26/14 A2997 RMK AO2 T02550139,M
SBD,2016-07-15 06:14,77.00,57.38,50.76,260.00,4.00,0.00,29.97,M,10.00,M,CLR,M,M,M,M,M,M,M,M,M,M,M,M,M,M,77.00,KSBD 150614Z AUTO 26004KT 10SM CLR 25/14 A2997 RMK AO2 T02500141,M
SBD,2016-07-15 06:34,76.28,58.10,53.35,250.00,4.00,0.00,29.98,M,10.00,M,CLR,M,M,M,M,M,M,M,M,M,M,M,M,M,M,76.28,KSBD 150634Z AUTO 25004KT 10SM CLR 25/15 A2998 RMK AO2 T02460145,M
SBD,2016-07-15 06:54,75.38,58.64,56.05,260.00,4.00,0.00,29.98,M,10.00,M,CLR,M,M,M,M,M,M,M,M,M,M,M,M,M,M,75.38,KSBD 150654Z AUTO 26004KT 10SM CLR 24/15 A2998 RMK AO2 T02410148,M
SBD,2016-07-15 07:14,74.84,58.28,56.34,270.00,4.00,0.00,29.98,M,10.00,M,CLR,M,M,M,M,M,M,M,M,M,M,M,M,M,M,74.84,KSBD 150714Z AUTO 27004KT 10SM CLR 24/15 A2998 RMK AO2 T02380146,M
SBD,2016-07-15 07:34,74.30,58.46,57.74,270.00,3.00,0.00,29.98,M,10.00,M,CLR,M,M,M,M,M,M,M,M,M,M,M,M,M,M,74.30,KSBD 150734Z AUTO 27003KT 10SM CLR 24/15 A2998 RMK AO2 T02350147,M
SBD,2016-07-15 07:54,73.94,58.82,59.20,0.00,0.00,0.00,29.97,M,10.00,M,CLR,M,M,M,M,M,M,M,M,M,M,M,M,M,M,73.94,KSBD 150754Z AUTO 00000KT 10SM CLR 23/15 A2997 RMK AO2 T02330149,M
SBD,2016-07-15 08:14,74.30,58.82,58.49,0.00,0.00,0.00,29.97,M,10.00,M,CLR,M,M,M,M,M,M,M,M,M,M,M,M,M,M,74.30,KSBD 150814Z AUTO 00000KT 10SM CLR 24/15 A2997 RMK AO2 T02350149,M
SBD,2016-07-15 08:34,73.58,57.74,57.64,0.00,0.00,0.00,29.97,M,10.00,M,CLR,M,M,M,M,M,M,M,M,M,M,M,M,M,M,73.58,KSBD 150834Z AUTO 00000KT 10SM CLR 23/14 A2997 RMK AO2 T02310143,M
SBD,2016-07-15 08:55,73.58,55.94,54.02,0.00,0.00,0.00,29.96,M,10.00,M,CLR,M,M,M,M,M,M,M,M,M,M,M,M,M,M,73.58,KSBD 150855Z AUTO 00000KT 10SM CLR 23/13 A2996 RMK AO2 T02310133,M
SBD,2016-07-15 09:14,72.86,54.68,52.86,0.00,0.00,0.00,29.96,M,10.00,M,CLR,M,M,M,M,M,M,M,M,M,M,M,M,M,M,72.86,KSBD 150914Z AUTO 00000KT 10SM CLR 23/13 A2996 RMK AO2 T02270126,M
SBD,2016-07-15 09:34,71.60,53.06,51.99,210.00,3.00,0.00,29.97,M,10.00,M,CLR,M,M,M,M,M,M,M,M,M,M,M,M,M,M,71.60,KSBD 150934Z AUTO 21003KT 10SM CLR 22/12 A2997 RMK AO2 T02200117,M
SBD,2016-07-15 09:55,71.96,54.14,53.43,260.00,3.00,0.00,29.97,M,10.00,M,CLR,M,M,M,M,M,M,M,M,M,M,M,M,M,M,71.96,KSBD 150955Z AUTO 26003KT 10SM CLR 22/12 A2997 RMK AO2 T02220123,M
SBD,2016-07-15 10:14,71.60,57.92,62.03,0.00,0.00,0.00,29.97,M,10.00,M,CLR,M,M,M,M,M,M,M,M,M,M,M,M,M,M,71.60,KSBD 151014Z AUTO 00000KT 10SM CLR 22/14 A2997 RMK AO2 T02200144,M
SBD,2016-07-15 10:34,69.98,58.46,66.83,0.00,0.00,0.00,29.97,M,10.00,M,CLR,M,M,M,M,M,M,M,M,M,M,M,M,M,M,69.98,KSBD 151034Z AUTO 00000KT 10SM CLR 21/15 A2997 RMK AO2 T02110147,M
SBD,2016-07-15 10:55,70.52,58.28,65.19,0.00,0.00,0.00,29.98,M,10.00,M,CLR,M,M,M,M,M,M,M,M,M,M,M,M,M,M,70.52,KSBD 151055Z AUTO 00000KT 10SM CLR 21/15 A2998 RMK AO2 T02140146,M
SBD,2016-07-15 11:14,69.98,55.04,59.06,0.00,0.00,0.00,29.97,M,10.00,M,CLR,M,M,M,M,M,M,M,M,M,M,M,M,M,M,69.98,KSBD 151114Z AUTO 00000KT 10SM CLR 21/13 A2997 RMK AO2 T02110128,M
SBD,2016-07-15 11:34,68.90,54.50,60.09,0.00,0.00,0.00,29.98,M,10.00,M,CLR,M,M,M,M,M,M,M,M,M,M,M,M,M,M,68.90,KSBD 151134Z AUTO 00000KT 10SM CLR 21/13 A2998 RMK AO2 T02050125,M
SBD,2016-07-15 11:55,68.54,53.06,57.72,0.00,0.00,0.00,29.99,M,10.00,M,CLR,M,M,M,M,M,M,M,M,M,M,M,M,M,M,68.54,KSBD 151155Z AUTO 00000KT 10SM CLR 20/12 A2999 RMK AO2 T02030117,M
SBD,2016-07-15 12:14,68.54,51.62,54.74,0.00,0.00,0.00,29.99,M,10.00,M,CLR,M,M,M,M,M,M,M,M,M,M,M,M,M,M,68.54,KSBD 151214Z AUTO 00000KT 10SM CLR 20/11 A2999 RMK AO2 T02030109,M
SBD,2016-07-15 12:34,69.26,53.24,56.68,0.00,0.00,0.00,29.99,M,10.00,M,CLR,M,M,M,M,M,M,M,M,M,M,M,M,M,M,69.26,KSBD 151234Z AUTO 00000KT 10SM CLR 21/12 A2999 RMK AO2 T02070118,M
SBD,2016-07-15 12:55,68.00,52.88,58.41,0.00,0.00,0.00,29.99,M,10.00,M,CLR,M,M,M,M,M,M,M,M,M,M,M,M,M,M,68.00,KSBD 151255Z AUTO 00000KT 10SM CLR 20/12 A2999 RMK AO2 T02000116,M
SBD,2016-07-15 13:14,66.38,51.98,59.76,0.00,0.00,0.00,30.00,M,10.00,M,CLR,M,M,M,M,M,M,M,M,M,M,M,M,M,M,66.38,KSBD 151314Z AUTO 00000KT 10SM CLR 19/11 A3000 RMK AO2 T01910111,M
SBD,2016-07-15 13:34,68.00,52.88,58.41,190.00,3.00,0.00,30.00,M,10.00,M,CLR,M,M,M,M,M,M,M,M,M,M,M,M,M,M,68.00,KSBD 151334Z AUTO 19003KT 10SM CLR 20/12 A3000 RMK AO2 T02000116,M
SBD,2016-07-15 13:54,68.72,52.70,56.61,0.00,0.00,0.00,30.00,M,10.00,M,CLR,M,M,M,M,M,M,M,M,M,M,M,M,M,M,68.72,KSBD 151354Z AUTO 00000KT 10SM CLR 20/12 A3000 RMK AO2 T02040115,M
SBD,2016-07-15 14:00,68.00,59.00,72.92,0.00,0.00,0.00,30.00,M,7.00,M,CLR,M,M,M,M,M,M,M,M,M,M,M,M,M,M,68.00,KSBD 151400Z 00000KT 7SM SKC 20/15 A3000,M
SBD,2016-07-15 14:45,71.60,57.20,60.44,0.00,0.00,0.00,30.01,M,7.00,M,CLR,M,M,M,M,M,M,M,M,M,M,M,M,M,M,71.60,KSBD 151445Z 00000KT 7SM SKC 22/14 A3001,M
SBD,2016-07-15 16:46,75.20,59.00,57.12,230.00,6.00,0.00,29.99,M,7.00,M,CLR,M,M,M,M,M,M,M,M,M,M,M,M,M,M,75.20,KSBD 151646Z 23006KT 7SM SKC 24/15 A2999,M
SBD,2016-07-15 17:52,84.20,55.40,37.35,230.00,5.00,0.00,29.99,M,5.00,M,CLR,M,M,M,M,M,M,M,HZ,M,M,M,M,M,M,83.09,KSBD 151752Z 23005KT 5SM HZ SKC 29/13 A2999,M
SBD,2016-07-15 18:48,87.80,53.60,31.17,230.00,5.00,0.00,29.97,M,5.00,M,CLR,M,M,M,M,M,M,M,HZ,M,M,M,M,M,M,85.72,KSBD 151848Z 23005KT 5SM HZ SKC 31/12 A2997,M
SBD,2016-07-15 19:49,93.20,46.40,20.13,280.00,6.00,0.00,29.95,M,5.00,M,CLR,M,M,M,M,M,M,M,HZ,M,M,M,M,M,M,89.55,KSBD 151949Z 28006KT 5SM HZ SKC 34/08 A2995,M
SBD,2016-07-15 20:50,96.80,44.60,16.83,240.00,9.00,0.00,29.93,M,7.00,M,CLR,M,M,M,M,M,M,M,M,M,M,M,M,M,M,92.79,KSBD 152050Z 24009KT 07SM SKC 36/07 A2993,M
SBD,2016-07-15 21:49,98.60,44.60,15.93,250.00,6.00,0.00,29.91,M,7.00,M,CLR,M,M,M,M,M,M,M,M,M,M,M,M,M,M,94.55,KSBD 152149Z 25006KT 7SM SKC 37/07 A2991,M
SBD,2016-07-15 22:47,98.60,46.40,17.05,220.00,10.00,0.00,29.90,M,7.00,M,CLR,M,M,M,M,M,M,M,M,M,M,M,M,M,M,94.84,KSBD 152247Z 22010KT 7SM SKC 37/08 A2990,M
SBD,2016-07-15 23:47,98.60,44.60,15.93,250.00,9.00,0.00,29.88,M,7.00,M,CLR,M,M,M,M,M,M,M,M,M,M,M,M,M,M,94.55,KSBD 152347Z 25009KT 7SM SKC 37/07 A2988,M
SBD,2016-07-16 00:48,95.00,44.60,17.78,250.00,12.00,0.00,29.87,M,7.00,M,CLR,M,M,M,M,M,M,M,M,M,M,M,M,M,M,91.06,KSBD 160048Z 25012KT 07SM SKC 35/07 A2987,M
SBD,2016-07-16 01:46,91.40,53.60,27.83,240.00,12.00,0.00,29.87,M,7.00,M,CLR,M,M,M,M,M,M,M,M,M,M,M,M,M,M,89.08,KSBD 160146Z 24012KT 07SM SKC 33/12 A2987,M
SBD,2016-07-16 03:47,82.40,55.40,39.58,240.00,8.00,0.00,29.90,M,7.00,M,CLR,M,M,M,M,M,M,M,M,M,M,M,M,M,M,82.40,KSBD 160347Z 24008KT 07SM SKC 28/13 A2990 RMK LAST,M
SBD,2016-07-16 04:14,81.68,55.76,41.05,250.00,5.00,0.00,29.91,M,10.00,M,CLR,M,M,M,M,M,M,M,M,M,M,M,M,M,M,81.30,KSBD 160414Z AUTO 25005KT 10SM CLR 28/13 A2991 RMK AO2 T02760132,M
SBD,2016-07-16 04:34,80.78,55.94,42.55,240.00,7.00,0.00,29.91,M,10.00,M,CLR,M,M,M,M,M,M,M,M,M,M,M,M,M,M,80.73,KSBD 160434Z AUTO 24007KT 10SM CLR 27/13 A2991 RMK AO2 T02710133,M
SBD,2016-07-16 04:54,79.88,56.48,44.69,240.00,6.00,0.00,29.92,M,10.00,M,CLR,M,M,M,M,M,M,M,M,M,M,M,M,M,M,79.88,KSBD 160454Z AUTO 24006KT 10SM CLR 27/14 A2992 RMK AO2 T02660136,M
SBD,2016-07-16 05:14,78.80,56.48,46.30,260.00,4.00,0.00,29.93,M,10.00,M,CLR,M,M,M,M,M,M,M,M,M,M,M,M,M,M,78.80,KSBD 160514Z AUTO 26004KT 10SM CLR 26/14 A2993 RMK AO2 T02600136,M
SBD,2016-07-16 05:34,77.90,56.84,48.32,260.00,4.00,0.00,29.94,M,10.00,M,CLR,M,M,M,M,M,M,M,M,M,M,M,M,M,M,77.90,KSBD 160534Z AUTO 26004KT 10SM CLR 26/14 A2994 RMK AO2 T02550138,M
SBD,2016-07-16 05:54,77.36,57.20,49.83,270.00,3.00,0.00,29.94,M,10.00,M,CLR,M,M,M,M,M,M,M,M,M,M,M,M,M,M,77.36,KSBD 160554Z AUTO 27003KT 10SM CLR 25/14 A2994 RMK AO2 T02520140,M
SBD,2016-07-16 06:14,76.10,57.20,51.96,260.00,4.00,0.00,29.94,M,10.00,M,CLR,M,M,M,M,M,M,M,M,M,M,M,M,M,M,76.10,KSBD 160614Z AUTO 26004KT 10SM CLR 25/14 A2994 RMK AO2 T02450140,M
SBD,2016-07-16 06:34,74.48,57.20,54.85,250.00,5.00,0.00,29.94,M,10.00,M,CLR,M,M,M,M,M,M,M,M,M,M,M,M,M,M,74.48,KSBD 160634Z AUTO 25005KT 10SM CLR 24/14 A2994 RMK AO2 T02360140,M
SBD,2016-07-16 06:54,74.84,57.74,55.26,250.00,5.00,0.00,29.94,M,10.00,M,CLR,M,M,M,M,M,M,M,M,M,M,M,M,M,M,74.84,KSBD 160654Z AUTO 25005KT 10SM CLR 24/14 A2994 RMK AO2 T02380143,M
SBD,2016-07-16 07:14,74.66,57.74,55.59,250.00,5.00,0.00,29.94,M,10.00,M,CLR,M,M,M,M,M,M,M,M,M,M,M,M,M,M,74.66,KSBD 160714Z AUTO 25005KT 10SM CLR 24/14 A2994 RMK AO2 T02370143,M
SBD,2016-07-16 07:34,73.22,57.92,58.72,250.00,5.00,0.00,29.94,M,10.00,M,CLR,M,M,M,M,M,M,M,M,M,M,M,M,M,M,73.22,KSBD 160734Z AUTO 25005KT 10SM CLR 23/14 A2994 RMK AO2 T02290144,M
SBD,2016-07-16 07:54,73.22,57.74,58.35,250.00,4.00,0.00,29.94,M,10.00,M,CLR,M,M,M,M,M,M,M,M,M,M,M,M,M,M,73.22,KSBD 160754Z AUTO 25004KT 10SM CLR 23/14 A2994 RMK AO2 T02290143,M
SBD,2016-07-16 08:14,71.96,57.56,60.49,260.00,4.00,0.00,29.94,M,10.00,M,CLR,M,M,M,M,M,M,M,M,M,M,M,M,M,M,71.96,KSBD 160814Z AUTO 26004KT 10SM CLR 22/14 A2994 RMK AO2 T02220142,M
SBD,2016-07-16 08:34,71.78,58.10,62.05,250.00,4.00,0.00,29.94,M,10.00,M,CLR,M,M,M,M,M,M,M,M,M,M,M,M,M,M,71.78,KSBD 160834Z AUTO 25004KT 10SM CLR 22/15 A2994 RMK AO2 T02210145,M
SBD,2016-07-16 08:54,70.88,58.10,63.98,250.00,3.00,0.00,29.94,M,10.00,M,CLR,M,M,M,M,M,M,M,M,M,M,M,M,M,M,70.88,KSBD 160854Z AUTO 25003KT 10SM CLR 22/15 A2994 RMK AO2 T02160145,M
SBD,2016-07-16 09:14,70.34,58.10,65.16,270.00,3.00,0.00,29.94,M,10.00,M,CLR,M,M,M,M,M,M,M,M,M,M,M,M,M,M,70.34,KSBD 160914Z AUTO 27003KT 10SM CLR 21/15 A2994 RMK AO2 T02130145,M
SBD,2016-07-16 09:34,69.80,58.28,66.81,0.00,0.00,0.00,29.94,M,10.00,M,CLR,M,M,M,M,M,M,M,M,M,M,M,M,M,M,69.80,KSBD 160934Z AUTO 00000KT 10SM CLR 21/15 A2994 RMK AO2 T02100146,M
SBD,2016-07-16 09:54,68.36,58.10,69.73,260.00,4.00,0.00,29.94,M,10.00,M,CLR,M,M,M,M,M,M,M,M,M,M,M,M,M,M,68.36,KSBD 160954Z AUTO 26004KT 10SM CLR 20/15 A2994 RMK AO2 T02020145,M
SBD,2016-07-16 10:14,68.36,58.46,70.64,250.00,4.00,0.00,29.94,M,10.00,M,CLR,M,M,M,M,M,M,M,M,M,M,M,M,M,M,68.36,KSBD 161014Z AUTO 25004KT 10SM CLR 20/15 A2994 RMK AO2 T02020147,M
SBD,2016-07-16 10:34,67.10,58.28,73.30,270.00,4.00,0.00,29.94,M,10.00,M,CLR,M,M,M,M,M,M,M,M,M,M,M,M,M,M,67.10,KSBD 161034Z AUTO 27004KT 10SM CLR 20/15 A2994 RMK AO2 T01950146,M
SBD,2016-07-16 10:54,67.10,58.64,74.25,270.00,5.00,0.00,29.93,M,10.00,M,CLR,M,M,M,M,M,M,M,M,M,M,M,M,M,M,67.10,KSBD 161054Z AUTO 27005KT 10SM CLR 20/15 A2993 RMK AO2 T01950148,M
SBD,2016-07-16 11:14,66.20,58.46,76.11,250.00,3.00,0.00,29.93,M,10.00,M,CLR,M,M,M,M,M,M,M,M,M,M,M,M,M,M,66.20,KSBD 161114Z AUTO 25003KT 10SM CLR 19/15 A2993 RMK AO2 T01900147,M
SBD,2016-07-16 11:34,65.84,58.46,77.07,240.00,4.00,0.00,29.94,M,10.00,M,CLR,M,M,M,M,M,M,M,M,M,M,M,M,M,M,65.84,KSBD 161134Z AUTO 24004KT 10SM CLR 19/15 A2994 RMK AO2 T01880147,M
SBD,2016-07-16 11:54,65.84,58.82,78.07,250.00,4.00,0.00,29.94,M,10.00,M,CLR,M,M,M,M,M,M,M,M,M,M,M,M,M,M,65.84,KSBD 161154Z AUTO 25004KT 10SM CLR 19/15 A2994 RMK AO2 T01880149,M
SBD,2016-07-16 12:14,64.94,58.64,80.04,280.00,3.00,0.00,29.94,M,7.00,M,CLR,M,M,M,M,M,M,M,M,M,M,M,M,M,M,64.94,KSBD 161214Z AUTO 28003KT 7SM CLR 18/15 A2994 RMK AO2 T01830148,M
SBD,2016-07-16 12:34,64.58,58.46,80.53,270.00,4.00,0.00,29.94,M,7.00,M,CLR,M,M,M,M,M,M,M,M,M,M,M,M,M,M,64.58,KSBD 161234Z AUTO 27004KT 7SM CLR 18/15 A2994 RMK AO2 T01810147,M
SBD,2016-07-16 12:54,64.40,59.00,82.62,240.00,4.00,0.00,29.95,M,7.00,M,CLR,M,M,M,M,M,M,M,M,M,M,M,M,M,M,64.40,KSBD 161254Z AUTO 24004KT 7SM CLR 18/15 A2995 RMK AO2 T01800150,M
SBD,2016-07-16 13:14,64.04,58.64,82.59,260.00,4.00,0.00,29.95,M,7.00,M,CLR,M,M,M,M,M,M,M,M,M,M,M,M,M,M,64.04,KSBD 161314Z AUTO 26004KT 7SM CLR 18/15 A2995 RMK AO2 T01780148,M
SBD,2016-07-16 13:34,64.40,59.18,83.15,260.00,3.00,0.00,29.96,M,7.00,M,CLR,M,M,M,M,M,M,M,M,M,M,M,M,M,M,64.40,KSBD 161334Z AUTO 26003KT 7SM CLR 18/15 A2996 RMK AO2 T01800151,M
SBD,2016-07-16 13:54,65.48,59.90,82.16,260.00,3.00,0.00,29.96,M,7.00,M,CLR,M,M,M,M,M,M,M,M,M,M,M,M,M,M,65.48,KSBD 161354Z AUTO 26003KT 7SM CLR 19/16 A2996 RMK AO2 T01860155,M
SBD,2016-07-16 15:47,71.60,59.00,64.48,0.00,0.00,0.00,29.96,M,3.00,M,CLR,M,M,M,M,M,M,M,HZ,M,M,M,M,M,M,71.60,KSBD 161547Z 00000KT 3SM HZ SKC 22/15 A2996,M
SBD,2016-07-16 16:50,75.20,57.20,53.55,0.00,0.00,0.00,29.97,M,3.00,M,CLR,M,M,M,M,M,M,M,HZ,M,M,M,M,M,M,75.20,KSBD 161650Z 00000KT 3SM HZ SKC 24/14 A2997,M
SBD,2016-07-16 17:50,82.40,55.40,39.58,270.00,4.00,0.00,29.97,M,4.00,M,CLR,M,M,M,M,M,M,M,HZ,M,M,M,M,M,M,82.40,KSBD 161750Z 27004KT 4SM HZ SKC 28/13 A2997,M
SBD,2016-07-16 18:50,86.00,53.60,33.01,230.00,5.00,0.00,29.95,M,4.00,M,CLR,M,M,M,M,M,M,M,HZ,M,M,M,M,M,M,84.18,KSBD 161850Z 23005KT 04SM HZ SKC 30/12 A2995,M
SBD,2016-07-16 19:49,91.40,50.00,24.37,280.00,4.00,0.00,29.93,M,4.00,M,CLR,M,M,M,M,M,M,M,HZ,M,M,M,M,M,M,88.36,KSBD 161949Z 28004KT 04SM HZ SKC 33/10 A2993,M
SBD,2016-07-16 20:50,93.20,44.60,18.80,260.00,6.00,0.00,29.91,M,4.00,M,CLR,M,M,M,M,M,M,M,HZ,M,M,M,M,M,M,89.34,KSBD 162050Z 26006KT 04SM HZ SKC 34/07 A2991,M
SBD,2016-07-16 21:47,95.00,44.60,17.78,260.00,6.00,0.00,29.88,M,7.00,M,CLR,M,M,M,M,M,M,M,M,M,M,M,M,M,M,91.06,KSBD 162147Z 26006KT 7SM SKC 35/07 A2988,M
SBD,2016-07-16 22:47,98.60,44.60,15.93,270.00,8.00,0.00,29.87,M,7.00,M,CLR,M,M,M,M,M,M,M,M,M,M,M,M,M,M,94.55,KSBD 162247Z 27008KT 7SM SKC 37/07 A2987,M
SBD,2016-07-16 23:50,96.80,42.80,15.71,230.00,10.00,0.00,29.85,M,7.00,M,CLR,M,M,M,M,M,M,M,M,M,M,M,M,M,M,92.57,KSBD 162350Z 23010KT 07SM SKC 36/06 A2985,M
SBD,2016-07-17 00:48,95.00,39.20,14.44,250.00,10.00,0.00,29.85,M,7.00,M,CLR,M,M,M,M,M,M,M,M,M,M,M,M,M,M,90.57,KSBD 170048Z 25010KT 07SM SKC 35/04 A2985,M
SBD,2016-07-17 01:48,91.40,37.40,15.05,240.00,12.00,0.00,29.86,M,7.00,M,CLR,M,M,M,M,M,M,M,M,M,M,M,M,M,M,87.23,KSBD 170148Z 24012KT 07SM SKC 33/03 A2986,M
SBD,2016-07-17 02:50,86.00,41.00,20.54,230.00,7.00,0.00,29.87,M,7.00,M,CLR,M,M,M,M,M,M,M,M,M,M,M,M,M,M,82.86,KSBD 170250Z 23007KT 07SM SKC 30/05 A2987,M
SBD,2016-07-17 03:48,80.60,51.80,36.79,230.00,7.00,0.00,29.89,M,7.00,M,CLR,M,M,M,M,M,M,M,M,M,M,M,M,M,M,80.60,KSBD 170348Z 23007KT 07SM SKC 27/11 A2989 RMK LAST,M
SBD,2016-07-17 04:14,79.70,53.60,40.48,240.00,7.00,0.00,29.90,M,10.00,M,CLR,M,M,M,M,M,M,M,M,M,M,M,M,M,M,79.70,KSBD 170414Z AUTO 24007KT 10SM CLR 27/12 A2990 RMK AO2 T02650120,M
SBD,2016-07-17 04:34,78.44,55.40,45.05,250.00,7.00,0.00,29.91,M,10.00,M,CLR,M,M,M,M,M,M,M,M,M,M,M,M,M,M,78.44,KSBD 170434Z AUTO 25007KT 10SM CLR 26/13 A2991 RMK AO2 T02580130,M
SBD,2016-07-17 04:54,77.18,56.30,48.53,250.00,7.00,0.00,29.91,M,10.00,M,CLR,M,M,M,M,M,M,M,M,M,M,M,M,M,M,77.18,KSBD 170454Z AUTO 25007KT 10SM CLR 25/14 A2991 RMK AO2 T02510135,M
SBD,2016-07-17 05:14,76.10,56.66,50.96,250.00,7.00,0.00,29.91,M,10.00,M,CLR,M,M,M,M,M,M,M,M,M,M,M,M,M,M,76.10,KSBD 170514Z AUTO 25007KT 10SM CLR 25/14 A2991 RMK AO2 T02450137,M
SBD,2016-07-17 05:34,75.20,57.20,53.55,230.00,8.00,0.00,29.92,M,10.00,M,CLR,M,M,M,M,M,M,M,M,M,M,M,M,M,M,75.20,KSBD 170534Z AUTO 23008KT 10SM CLR 24/14 A2992 RMK AO2 T02400140,M
SBD,2016-07-17 05:54,74.48,57.20,54.85,250.00,6.00,0.00,29.92,M,10.00,M,CLR,M,M,M,M,M,M,M,M,M,M,M,M,M,M,74.48,KSBD 170554Z AUTO 25006KT 10SM CLR 24/14 A2992 RMK AO2 T02360140,M
SBD,2016-07-17 06:14,73.40,57.38,57.25,260.00,6.00,0.00,29.92,M,10.00,M,CLR,M,M,M,M,M,M,M,M,M,M,M,M,M,M,73.40,KSBD 170614Z AUTO 26006KT 10SM CLR 23/14 A2992 RMK AO2 T02300141,M
SBD,2016-07-17 06:34,72.50,57.38,59.01,250.00,5.00,0.00,29.92,M,10.00,M,CLR,M,M,M,M,M,M,M,M,M,M,M,M,M,M,72.50,KSBD 170634Z AUTO 25005KT 10SM CLR 23/14 A2992 RMK AO2 T02250141,M
SBD,2016-07-17 06:54,71.60,57.56,61.23,250.00,6.00,0.00,29.92,M,10.00,M,CLR,M,M,M,M,M,M,M,M,M,M,M,M,M,M,71.60,KSBD 170654Z AUTO 25006KT 10SM CLR 22/14 A2992 RMK AO2 T02200142,M
SBD,2016-07-17 07:14,70.88,57.92,63.56,250.00,4.00,0.00,29.92,M,10.00,M,CLR,M,M,M,M,M,M,M,M,M,M,M,M,M,M,70.88,KSBD 170714Z AUTO 25004KT 10SM CLR 22/14 A2992 RMK AO2 T02160144,M
SBD,2016-07-17 07:34,70.70,58.10,64.37,250.00,4.00,0.00,29.93,M,10.00,M,CLR,M,M,M,M,M,M,M,M,M,M,M,M,M,M,70.70,KSBD 170734Z AUTO 25004KT 10SM CLR 22/15 A2993 RMK AO2 T02150145,M
SBD,2016-07-17 07:54,69.80,58.10,66.38,250.00,4.00,0.00,29.93,M,10.00,M,CLR,M,M,M,M,M,M,M,M,M,M,M,M,M,M,69.80,KSBD 170754Z AUTO 25004KT 10SM CLR 21/15 A2993 RMK AO2 T02100145,M
SBD,2016-07-17 08:14,68.90,58.10,68.45,260.00,5.00,0.00,29.93,M,10.00,M,CLR,M,M,M,M,M,M,M,M,M,M,M,M,M,M,68.90,KSBD 170814Z AUTO 26005KT 10SM CLR 21/15 A2993 RMK AO2 T02050145,M
SBD,2016-07-17 08:34,68.72,58.10,68.88,280.00,3.00,0.00,29.93,M,7.00,M,CLR,M,M,M,M,M,M,M,M,M,M,M,M,M,M,68.72,KSBD 170834Z AUTO 28003KT 7SM CLR 20/15 A2993 RMK AO2 T02040145,M
SBD,2016-07-17 08:54,68.18,58.10,70.17,270.00,4.00,0.00,29.93,M,7.00,M,CLR,M,M,M,M,M,M,M,M,M,M,M,M,M,M,68.18,KSBD 170854Z AUTO 27004KT 7SM CLR 20/15 A2993 RMK AO2 T02010145,M
SBD,2016-07-17 09:14,67.46,57.74,71.00,260.00,3.00,0.00,29.93,M,7.00,M,CLR,M,M,M,M,M,M,M,M,M,M,M,M,M,M,67.46,KSBD 170914Z AUTO 26003KT 7SM CLR 20/14 A2993 RMK AO2 T01970143,M
SBD,2016-07-17 09:34,68.00,58.28,71.06,0.00,0.00,0.00,29.93,M,10.00,M,CLR,M,M,M,M,M,M,M,M,M,M,M,M,M,M,68.00,KSBD 170934Z AUTO 00000KT 10SM CLR 20/15 A2993 RMK AO2 T02000146,M
SBD,2016-07-17 09:54,68.00,58.28,71.06,240.00,3.00,0.00,29.92,M,10.00,M,CLR,M,M,M,M,M,M,M,M,M,M,M,M,M,M,68.00,KSBD 170954Z AUTO 24003KT 10SM CLR 20/15 A2992 RMK AO2 T02000146,M
SBD,2016-07-17 10:14,67.64,58.28,71.95,0.00,0.00,0.00,29.92,M,7.00,M,CLR,M,M,M,M,M,M,M,M,M,M,M,M,M,M,67.64,KSBD 171014Z AUTO 00000KT 7SM CLR 20/15 A2992 RMK AO2 T01980146,M
SBD,2016-07-17 10:34,67.46,58.10,71.93,0.00,0.00,0.00,29.93,M,10.00,M,CLR,M,M,M,M,M,M,M,M,M,M,M,M,M,M,67.46,KSBD 171034Z AUTO 00000KT 10SM CLR 20/15 A2993 RMK AO2 T01970145,M
SBD,2016-07-17 10:54,66.38,57.74,73.71,0.00,0.00,0.00,29.93,M,10.00,M,CLR,M,M,M,M,M,M,M,M,M,M,M,M,M,M,66.38,KSBD 171054Z AUTO 00000KT 10SM CLR 19/14 A2993 RMK AO2 T01910143,M
SBD,2016-07-17 11:14,66.38,58.10,74.67,0.00,0.00,0.00,29.93,M,10.00,M,CLR,M,M,M,M,M,M,M,M,M,M,M,M,M,M,66.38,KSBD 171114Z AUTO 00000KT 10SM CLR 19/15 A2993 RMK AO2 T01910145,M
SBD,2016-07-17 11:34,65.84,58.28,76.57,260.00,3.00,0.00,29.93,M,7.00,M,CLR,M,M,M,M,M,M,M,M,M,M,M,M,M,M,65.84,KSBD 171134Z AUTO 26003KT 7SM CLR 19/15 A2993 RMK AO2 T01880146,M
SBD,2016-07-17 11:54,65.48,58.10,77.04,260.00,3.00,0.00,29.93,M,7.00,M,CLR,M,M,M,M,M,M,M,M,M,M,M,M,M,M,65.48,KSBD 171154Z AUTO 26003KT 7SM CLR 19/15 A2993 RMK AO2 T01860145,M
SBD,2016-07-17 12:14,65.66,58.46,77.55,0.00,0.00,0.00,29.93,M,7.00,M,CLR,M,M,M,M,M,M,M,M,M,M,M,M,M,M,65.66,KSBD 171214Z AUTO 00000KT 7SM CLR 19/15 A2993 RMK AO2 T01870147,M
SBD,2016-07-17 12:35,65.48,58.64,78.54,0.00,0.00,0.00,29.93,M,7.00,M,CLR,M,M,M,M,M,M,M,M,M,M,M,M,M,M,65.48,KSBD 171235Z AUTO 00000KT 7SM CLR 19/15 A2993 RMK AO2 T01860148,M
SBD,2016-07-17 12:54,65.30,58.64,79.04,0.00,0.00,0.00,29.93,M,7.00,M,CLR,M,M,M,M,M,M,M,M,M,M,M,M,M,M,65.30,KSBD 171254Z AUTO 00000KT 7SM CLR 19/15 A2993 RMK AO2 T01850148,M
SBD,2016-07-17 13:14,65.12,57.56,76.51,0.00,0.00,0.00,29.93,M,10.00,M,CLR,M,M,M,M,M,M,M,M,M,M,M,M,M,M,65.12,KSBD 171314Z AUTO 00000KT 10SM CLR 18/14 A2993 RMK AO2 T01840142,M
SBD,2016-07-17 13:35,65.66,58.46,77.55,0.00,0.00,0.00,29.94,M,10.00,M,CLR,M,M,M,M,M,M,M,M,M,M,M,M,M,M,65.66,KSBD 171335Z AUTO 00000KT 10SM CLR 19/15 A2994 RMK AO2 T01870147,M
SBD,2016-07-17 13:54,66.38,59.00,77.11,0.00,0.00,0.00,29.94,M,7.00,M,CLR,M,M,M,M,M,M,M,M,M,M,M,M,M,M,66.38,KSBD 171354Z AUTO 00000KT 7SM CLR 19/15 A2994 RMK AO2 T01910150,M
SBD,2016-07-17 14:47,68.00,59.00,72.92,0.00,0.00,0.00,29.95,M,4.00,M,CLR,M,M,M,M,M,M,M,HZ,M,M,M,M,M,M,68.00,KSBD 171447Z 00000KT 4SM HZ SKC 20/15 A2995,M
SBD,2016-07-17 15:48,73.40,57.20,56.88,0.00,0.00,0.00,29.95,M,5.00,M,CLR,M,M,M,M,M,M,M,HZ,M,M,M,M,M,M,73.40,KSBD 171548Z 00000KT 5SM HZ SKC 23/14 A2995,M
SBD,2016-07-17 16:47,80.60,53.60,39.30,290.00,4.00,0.00,29.96,M,6.00,M,CLR,M,M,M,M,M,M,M,HZ,M,M,M,M,M,M,80.60,KSBD 171647Z 29004KT 6SM HZ SKC 27/12 A2996,M
SBD,2016-07-17 17:52,86.00,48.20,27.03,290.00,5.00,0.00,29.97,M,6.00,M,CLR,M,M,M,M,M,M,M,HZ,M,M,M,M,M,M,83.40,KSBD 171752Z 29005KT 06SM HZ SKC 30/09 A2997,M
SBD,2016-07-17 18:50,91.40,48.20,22.78,0.00,0.00,0.00,29.96,M,6.00,M,CLR,M,M,M,M,M,M,M,HZ,M,M,M,M,M,M,88.09,KSBD 171850Z 00000KT 06SM HZ SKC 33/09 A2996,M
SBD,2016-07-17 19:48,93.20,46.40,20.13,270.00,5.00,0.00,29.95,M,7.00,M,CLR,M,M,M,M,M,M,M,M,M,M,M,M,M,M,89.55,KSBD 171948Z 27005KT 7SM SKC 34/08 A2995,M
SBD,2016-07-17 20:48,96.80,44.60,16.83,270.00,7.00,0.00,29.93,M,7.00,M,CLR,M,M,M,M,M,M,M,M,M,M,M,M,M,M,92.79,KSBD 172048Z 27007KT 7SM SKC 36/07 A2993,M
SBD,2016-07-17 21:50,98.60,46.40,17.05,260.00,11.00,0.00,29.92,M,7.00,M,CLR,M,M,M,M,M,M,M,M,M,M,M,M,M,M,94.84,KSBD 172150Z 26011KT 7SM SKC 37/08 A2992,M
SBD,2016-07-17 22:50,98.60,44.60,15.93,250.00,11.00,0.00,29.91,M,7.00,M,CLR,M,M,M,M,M,M,M,M,M,M,M,M,M,M,94.55,KSBD 172250Z 25011KT 07SM SKC 37/07 A2991,M
SBD,2016-07-17 23:49,96.80,44.60,16.83,270.00,11.00,0.00,29.91,M,7.00,M,CLR,M,M,M,M,M,M,M,M,M,M,M,M,M,M,92.79,KSBD 172349Z 27011KT 07SM SKC 36/07 A2991,M
SBD,2016-07-18 00:50,93.20,53.60,26.31,240.00,12.00,0.00,29.91,M,7.00,M,CLR,M,M,M,M,M,M,M,M,M,M,M,M,M,M,90.86,KSBD 180050Z 24012KT 7SM SKC 34/12 A2991,M
SBD,2016-07-18 01:50,89.60,39.20,17.09,260.00,9.00,0.00,29.93,M,7.00,M,CLR,M,M,M,M,M,M,M,M,M,M,M,M,M,M,85.73,KSBD 180150Z 26009KT 7SM SKC 32/04 A2993,M
SBD,2016-07-18 02:50,84.20,48.20,28.63,240.00,8.00,0.00,29.95,M,7.00,M,CLR,M,M,M,M,M,M,M,M,M,M,M,M,M,M,82.04,KSBD 180250Z 24008KT 7SM SKC 29/09 A2995,M
SBD,2016-07-18 03:55,77.00,55.40,47.25,230.00,5.00,0.00,29.95,M,7.00,M,CLR,M,M,M,M,M,M,M,M,M,M,M,M,M,M,77.00,KSBD 180355Z 23005KT 7SM SKC 25/13 A2995 RMK LAST,M
SBD,2016-07-18 04:14,77.36,55.58,47.00,230.00,5.00,0.00,29.99,M,10.00,M,CLR,M,M,M,M,M,M,M,M,M,M,M,M,M,M,77.36,KSBD 180414Z AUTO 23005KT 10SM CLR 25/13 A2999 RMK AO2 T02520131,M
SBD,2016-07-18 04:34,76.46,56.30,49.70,230.00,5.00,0.00,29.99,M,10.00,M,CLR,M,M,M,M,M,M,M,M,M,M,M,M,M,M,76.46,KSBD 180434Z AUTO 23005KT 10SM CLR 25/14 A2999 RMK AO2 T02470135,M
SBD,2016-07-18 04:54,75.56,56.30,51.21,260.00,6.00,0.00,30.00,M,10.00,M,CLR,M,M,M,M,M,M,M,M,M,M,M,M,M,M,75.56,KSBD 180454Z AUTO 26006KT 10SM CLR 24/14 A3000 RMK AO2 T02420135,M
SBD,2016-07-18 05:14,74.30,56.84,54.47,260.00,7.00,0.00,30.01,M,10.00,M,CLR,M,M,M,M,M,M,M,M,M,M,M,M,M,M,74.30,KSBD 180514Z AUTO 26007KT 10SM CLR 24/14 A3001 RMK AO2 T02350138,M
SBD,2016-07-18 05:34,73.58,57.38,56.90,250.00,5.00,0.00,30.02,M,10.00,M,CLR,M,M,M,M,M,M,M,M,M,M,M,M,M,M,73.58,KSBD 180534Z AUTO 25005KT 10SM CLR 23/14 A3002 RMK AO2 T02310141,M
SBD,2016-07-18 05:54,73.04,57.56,58.32,250.00,7.00,0.00,30.02,M,10.00,M,CLR,M,M,M,M,M,M,M,M,M,M,M,M,M,M,73.04,KSBD 180554Z AUTO 25007KT 10SM CLR 23/14 A3002 RMK AO2 T02280142,M
SBD,2016-07-18 06:14,72.68,57.56,59.03,260.00,5.00,0.00,30.03,M,10.00,M,CLR,M,M,M,M,M,M,M,M,M,M,M,M,M,M,72.68,KSBD 180614Z AUTO 26005KT 10SM CLR 23/14 A3003 RMK AO2 T02260142,M
SBD,2016-07-18 06:34,71.96,57.56,60.49,250.00,5.00,0.00,30.03,M,10.00,M,CLR,M,M,M,M,M,M,M,M,M,M,M,M,M,M,71.96,KSBD 180634Z AUTO 25005KT 10SM CLR 22/14 A3003 RMK AO2 T02220142,M
SBD,2016-07-18 06:54,71.60,57.74,61.63,260.00,4.00,0.00,30.03,M,10.00,M,CLR,M,M,M,M,M,M,M,M,M,M,M,M,M,M,71.60,KSBD 180654Z AUTO 26004KT 10SM CLR 22/14 A3003 RMK AO2 T02200143,M
SBD,2016-07-18 07:14,70.88,57.56,62.75,250.00,4.00,0.00,30.03,M,10.00,M,CLR,M,M,M,M,M,M,M,M,M,M,M,M,M,M,70.88,KSBD 180714Z AUTO 25004KT 10SM CLR 22/14 A3003 RMK AO2 T02160142,M
SBD,2016-07-18 07:34,70.88,58.10,63.98,240.00,3.00,0.00,30.02,M,10.00,M,CLR,M,M,M,M,M,M,M,M,M,M,M,M,M,M,70.88,KSBD 180734Z AUTO 24003KT 10SM CLR 22/15 A3002 RMK AO2 T02160145,M
SBD,2016-07-18 07:54,70.34,58.10,65.16,250.00,4.00,0.00,30.02,M,10.00,M,CLR,M,M,M,M,M,M,M,M,M,M,M,M,M,M,70.34,KSBD 180754Z AUTO 25004KT 10SM CLR 21/15 A3002 RMK AO2 T02130145,M
SBD,2016-07-18 08:14,69.44,57.74,66.33,250.00,4.00,0.00,30.02,M,10.00,M,CLR,M,M,M,M,M,M,M,M,M,M,M,M,M,M,69.44,KSBD 180814Z AUTO 25004KT 10SM CLR 21/14 A3002 RMK AO2 T02080143,M
SBD,2016-07-18 08:34,69.44,58.10,67.20,250.00,3.00,0.00,30.01,M,10.00,M,CLR,M,M,M,M,M,M,M,M,M,M,M,M,M,M,69.44,KSBD 180834Z AUTO 25003KT 10SM CLR 21/15 A3001 RMK AO2 T02080145,M
SBD,2016-07-18 08:54,68.90,58.10,68.45,250.00,4.00,0.00,30.01,M,10.00,M,CLR,M,M,M,M,M,M,M,M,M,M,M,M,M,M,68.90,KSBD 180854Z AUTO 25004KT 10SM CLR 21/15 A3001 RMK AO2 T02050145,M
SBD,2016-07-18 09:14,68.18,57.92,69.71,260.00,4.00,0.00,30.01,M,10.00,M,CLR,M,M,M,M,M,M,M,M,M,M,M,M,M,M,68.18,KSBD 180914Z AUTO 26004KT 10SM CLR 20/14 A3001 RMK AO2 T02010144,M
SBD,2016-07-18 09:34,68.00,58.10,70.60,0.00,0.00,0.00,30.02,M,10.00,M,CLR,M,M,M,M,M,M,M,M,M,M,M,M,M,M,68.00,KSBD 180934Z AUTO 00000KT 10SM CLR 20/15 A3002 RMK AO2 T02000145,M
SBD,2016-07-18 09:54,67.46,57.92,71.47,260.00,4.00,0.00,30.01,M,10.00,M,CLR,M,M,M,M,M,M,M,M,M,M,M,M,M,M,67.46,KSBD 180954Z AUTO 26004KT 10SM CLR 20/14 A3001 RMK AO2 T01970144,M
SBD,2016-07-18 10:14,67.28,57.92,71.91,240.00,3.00,0.00,30.02,M,10.00,M,CLR,M,M,M,M,M,M,M,M,M,M,M,M,M,M,67.28,KSBD 181014Z AUTO 24003KT 10SM CLR 20/14 A3002 RMK AO2 T01960144,M
SBD,2016-07-18 10:34,66.56,57.74,73.25,260.00,3.00,0.00,30.02,M,10.00,M,CLR,M,M,M,M,M,M,M,M,M,M,M,M,M,M,66.56,KSBD 181034Z AUTO 26003KT 10SM CLR 19/14 A3002 RMK AO2 T01920143,M
SBD,2016-07-18 10:54,66.38,57.74,73.71,260.00,3.00,0.00,30.02,M,10.00,M,CLR,M,M,M,M,M,M,M,M,M,M,M,M,M,M,66.38,KSBD 181054Z AUTO 26003KT 10SM CLR 19/14 A3002 RMK AO2 T01910143,M
SBD,2016-07-18 11:14,66.56,58.10,74.20,0.00,0.00,0.00,30.02,M,10.00,M,CLR,M,M,M,M,M,M,M,M,M,M,M,M,M,M,66.56,KSBD 181114Z AUTO 00000KT 10SM CLR 19/15 A3002 RMK AO2 T01920145,M
SBD,2016-07-18 11:34,66.56,58.10,74.20,0.00,0.00,0.00,30.02,M,10.00,M,CLR,M,M,M,M,M,M,M,M,M,M,M,M,M,M,66.56,KSBD 181134Z AUTO 00000KT 10SM CLR 19/15 A3002 RMK AO2 T01920145,M
SBD,2016-07-18 11:54,65.30,57.20,75.05,240.00,3.00,0.00,30.02,M,10.00,M,CLR,M,M,M,M,M,M,M,M,M,M,M,M,M,M,65.30,KSBD 181154Z AUTO 24003KT 10SM CLR 19/14 A3002 RMK AO2 T01850140,M
SBD,2016-07-18 12:14,65.48,58.10,77.04,0.00,0.00,0.00,30.03,M,10.00,M,CLR,M,M,M,M,M,M,M,M,M,M,M,M,M,M,65.48,KSBD 181214Z AUTO 00000KT 10SM CLR 19/15 A3003 RMK AO2 T01860145,M
SBD,2016-07-18 12:34,65.84,58.28,76.57,0.00,0.00,0.00,30.04,M,10.00,M,CLR,M,M,M,M,M,M,M,M,M,M,M,M,M,M,65.84,KSBD 181234Z AUTO 00000KT 10SM CLR 19/15 A3004 RMK AO2 T01880146,M
SBD,2016-07-18 12:54,65.30,58.10,77.52,270.00,3.00,0.00,30.04,M,10.00,M,CLR,M,M,M,M,M,M,M,M,M,M,M,M,M,M,65.30,KSBD 181254Z AUTO 27003KT 10SM CLR 19/15 A3004 RMK AO2 T01850145,M
SBD,2016-07-18 13:14,64.40,57.74,78.97,0.00,0.00,0.00,30.04,M,10.00,M,CLR,M,M,M,M,M,M,M,M,M,M,M,M,M,M,64.40,KSBD 181314Z AUTO 00000KT 10SM CLR 18/14 A3004 RMK AO2 T01800143,M
SBD,2016-07-18 13:34,65.30,58.10,77.52,0.00,0.00,0.00,30.04,M,10.00,M,CLR,M,M,M,M,M,M,M,M,M,M,M,M,M,M,65.30,KSBD 181334Z AUTO 00000KT 10SM CLR 19/15 A3004 RMK AO2 T01850145,M
SBD,2016-07-18 13:54,66.38,56.84,71.36,0.00,0.00,0.00,30.04,M,10.00,M,CLR,M,M,M,M,M,M,M,M,M,M,M,M,M,M,66.38,KSBD 181354Z AUTO 00000KT 10SM CLR 19/14 A3004 RMK AO2 T01910138,M
SBD,2016-07-18 14:00,66.20,57.20,72.74,0.00,0.00,0.00,30.04,M,7.00,M,CLR,M,M,M,M,M,M,M,M,M,M,M,M,M,M,66.20,KSBD 181400Z 00000KT 7SM SKC 19/14 A3004,M
SBD,2016-07-18 14:49,71.60,57.20,60.44,0.00,0.00,0.00,30.05,M,7.00,M,CLR,M,M,M,M,M,M,M,M,M,M,M,M,M,M,71.60,KSBD 181449Z 00000KT 7SM SKC 22/14 A3005,M
SBD,2016-07-18 15:45,75.20,59.00,57.12,0.00,0.00,0.00,30.05,M,7.00,M,CLR,M,M,M,M,M,M,M,M,M,M,M,M,M,M,75.20,KSBD 181545Z 00000KT 7SM SKC 24/15 A3005,M
SBD,2016-07-18 16:46,75.20,59.00,57.12,0.00,0.00,0.00,30.04,M,7.00,M,CLR,M,M,M,M,M,M,M,M,M,M,M,M,M,M,75.20,KSBD 181646Z 00000KT 7SM SKC 24/15 A3004,M
SBD,2016-07-18 17:46,86.00,66.20,51.72,290.00,4.00,0.00,30.03,M,7.00,M,CLR,M,M,M,M,M,M,M,M,M,M,M,M,M,M,88.39,KSBD 181746Z 29004KT 07SM SKC 30/19 A3003,M
SBD,2016-07-18 19:55,93.20,41.00,16.37,260.00,5.00,0.00,30.02,M,7.00,M,CLR,M,M,M,M,M,M,M,M,M,M,M,M,M,M,89.03,KSBD 181955Z 26005KT 07SM SKC 34/05 A3002,M
SBD,2016-07-18 20:49,95.00,46.40,19.04,280.00,8.00,0.00,30.00,M,7.00,M,CLR,M,M,M,M,M,M,M,M,M,M,M,M,M,M,91.29,KSBD 182049Z 28008KT 7SM SKC 35/08 A3000,M
SBD,2016-07-18 21:50,96.80,41.00,14.66,250.00,8.00,0.00,29.98,M,7.00,M,CLR,M,M,M,M,M,M,M,M,M,M,M,M,M,M,92.39,KSBD 182150Z 25008KT 7SM SKC 36/05 A2998,M
SBD,2016-07-18 22:50,98.60,39.20,12.94,230.00,9.00,0.00,29.97,M,7.00,M,CLR,M,M,M,M,M,M,M,M,M,M,M,M,M,M,93.89,KSBD 182250Z 23009KT 07SM SKC 37/04 A2997,M
SBD,2016-07-18 23:48,98.60,39.20,12.94,270.00,10.00,0.00,29.96,M,7.00,M,CLR,M,M,M,M,M,M,M,M,M,M,M,M,M,M,93.89,KSBD 182348Z 27010KT 07SM SKC 37/04 A2996,M
SBD,2016-07-19 00:50,95.00,37.40,13.46,250.00,10.00,0.00,29.95,M,7.00,M,CLR,M,M,M,M,M,M,M,M,M,M,M,M,M,M,90.46,KSBD 190050Z 25010KT 7SM SKC 35/03 A2995,M
SBD,2016-07-19 01:50,91.40,33.80,13.05,250.00,10.00,0.00,29.96,M,7.00,M,CLR,M,M,M,M,M,M,M,M,M,M,M,M,M,M,87.13,KSBD 190150Z 25010KT 7SM SKC 33/01 A2996,M
SBD,2016-07-19 02:50,87.80,33.80,14.61,240.00,11.00,0.00,29.98,M,7.00,M,CLR,M,M,M,M,M,M,M,M,M,M,M,M,M,M,84.10,KSBD 190250Z 24011KT 7SM SKC 31/01 A2998,M
SBD,2016-07-19 03:50,82.40,37.40,20.04,220.00,7.00,0.00,30.00,M,7.00,M,CLR,M,M,M,M,M,M,M,M,M,M,M,M,M,M,80.14,KSBD 190350Z 22007KT 7SM SKC 28/03 A3000 RMK LAST,M
SBD,2016-07-19 04:14,81.86,39.38,22.04,230.00,7.00,0.00,30.01,M,10.00,M,CLR,M,M,M,M,M,M,M,M,M,M,M,M,M,M,79.87,KSBD 190414Z AUTO 23007KT 10SM CLR 28/04 A3001 RMK AO2 T02770041,M
SBD,2016-07-19 04:34,80.78,39.74,23.15,240.00,6.00,0.00,30.02,M,10.00,M,CLR,M,M,M,M,M,M,M,M,M,M,M,M,M,M,79.23,KSBD 190434Z AUTO 24006KT 10SM CLR 27/04 A3002 RMK AO2 T02710043,M
SBD,2016-07-19 04:54,79.34,44.78,29.47,240.00,7.00,0.00,30.03,M,10.00,M,CLR,M,M,M,M,M,M,M,M,M,M,M,M,M,M,79.34,KSBD 190454Z AUTO 24007KT 10SM CLR 26/07 A3003 RMK AO2 T02630071,M
SBD,2016-07-19 05:14,78.26,48.38,34.98,240.00,4.00,0.00,30.04,M,10.00,M,CLR,M,M,M,M,M,M,M,M,M,M,M,M,M,M,78.26,KSBD 190514Z AUTO 24004KT 10SM CLR 26/09 A3004 RMK AO2 T02570091,M
SBD,2016-07-19 05:34,77.18,51.08,40.09,250.00,7.00,0.00,30.04,M,10.00,M,CLR,M,M,M,M,M,M,M,M,M,M,M,M,M,M,77.18,KSBD 190534Z AUTO 25007KT 10SM CLR 25/11 A3004 RMK AO2 T02510106,M
SBD,2016-07-19 05:54,76.46,52.70,43.59,250.00,4.00,0.00,30.04,M,10.00,M,CLR,M,M,M,M,M,M,M,M,M,M,M,M,M,M,76.46,KSBD 190554Z AUTO 25004KT 10SM CLR 25/12 A3004 RMK AO2 T02470115,M
SBD,2016-07-19 06:14,75.38,53.42,46.39,260.00,4.00,0.00,30.04,M,10.00,M,CLR,M,M,M,M,M,M,M,M,M,M,M,M,M,M,75.38,KSBD 190614Z AUTO 26004KT 10SM CLR 24/12 A3004 RMK AO2 T02410119,M
SBD,2016-07-19 06:34,74.66,53.96,48.47,260.00,4.00,0.00,30.04,M,10.00,M,CLR,M,M,M,M,M,M,M,M,M,M,M,M,M,M,74.66,KSBD 190634Z AUTO 26004KT 10SM CLR 24/12 A3004 RMK AO2 T02370122,M
SBD,2016-07-19 06:54,74.66,55.22,50.75,240.00,3.00,0.00,30.04,M,10.00,M,CLR,M,M,M,M,M,M,M,M,M,M,M,M,M,M,74.66,KSBD 190654Z AUTO 24003KT 10SM CLR 24/13 A3004 RMK AO2 T02370129,M
SBD,2016-07-19 07:14,74.48,55.40,51.39,260.00,4.00,0.00,30.03,M,10.00,M,CLR,M,M,M,M,M,M,M,M,M,M,M,M,M,M,74.48,KSBD 190714Z AUTO 26004KT 10SM CLR 24/13 A3003 RMK AO2 T02360130,M
SBD,2016-07-19 07:34,73.04,55.40,53.94,260.00,4.00,0.00,30.04,M,10.00,M,CLR,M,M,M,M,M,M,M,M,M,M,M,M,M,M,73.04,KSBD 190734Z AUTO 26004KT 10SM CLR 23/13 A3004 RMK AO2 T02280130,M
SBD,2016-07-19 07:54,72.50,55.94,56.02,260.00,4.00,0.00,30.04,M,10.00,M,CLR,M,M,M,M,M,M,M,M,M,M,M,M,M,M,72.50,KSBD 190754Z AUTO 26004KT 10SM CLR 23/13 A3004 RMK AO2 T02250133,M
SBD,2016-07-19 08:14,71.96,56.48,58.18,260.00,3.00,0.00,30.04,M,10.00,M,CLR,M,M,M,M,M,M,M,M,M,M,M,M,M,M,71.96,KSBD 190814Z AUTO 26003KT 10SM CLR 22/14 A3004 RMK AO2 T02220136,M
SBD,2016-07-19 08:34,71.60,57.20,60.44,250.00,4.00,0.00,30.03,M,10.00,M,CLR,M,M,M,M,M,M,M,M,M,M,M,M,M,M,71.60,KSBD 190834Z AUTO 25004KT 10SM CLR 22/14 A3003 RMK AO2 T02200140,M
SBD,2016-07-19 08:54,71.42,57.38,61.21,240.00,3.00,0.00,30.03,M,10.00,M,CLR,M,M,M,M,M,M,M,M,M,M,M,M,M,M,71.42,KSBD 190854Z AUTO 24003KT 10SM CLR 22/14 A3003 RMK AO2 T02190141,M
SBD,2016-07-19 09:14,70.88,57.74,63.15,250.00,3.00,0.00,30.03,M,10.00,M,CLR,M,M,M,M,M,M,M,M,M,M,M,M,M,M,70.88,KSBD 190914Z AUTO 25003KT 10SM CLR 22/14 A3003 RMK AO2 T02160143,M
SBD,2016-07-19 09:34,70.52,57.74,63.93,0.00,0.00,0.00,30.03,M,10.00,M,CLR,M,M,M,M,M,M,M,M,M,M,M,M,M,M,70.52,KSBD 190934Z AUTO 00000KT 10SM CLR 21/14 A3003 RMK AO2 T02140143,M
SBD,2016-07-19 09:54,69.80,58.10,66.38,260.00,3.00,0.00,30.03,M,10.00,M,CLR,M,M,M,M,M,M,M,M,M,M,M,M,M,M,69.80,KSBD 190954Z AUTO 26003KT 10SM CLR 21/15 A3003 RMK AO2 T02100145,M
SBD,2016-07-19 10:14,69.98,58.28,66.40,250.00,3.00,0.00,30.03,M,10.00,M,CLR,M,M,M,M,M,M,M,M,M,M,M,M,M,M,69.98,KSBD 191014Z AUTO 25003KT 10SM CLR 21/15 A3003 RMK AO2 T02110146,M
SBD,2016-07-19 10:34,69.62,58.10,66.79,0.00,0.00,0.00,30.03,M,10.00,M,CLR,M,M,M,M,M,M,M,M,M,M,M,M,M,M,69.62,KSBD 191034Z AUTO 00000KT 10SM CLR 21/15 A3003 RMK AO2 T02090145,M
SBD,2016-07-19 10:54,69.80,56.48,62.61,270.00,3.00,0.00,30.03,M,10.00,M,CLR,M,M,M,M,M,M,M,M,M,M,M,M,M,M,69.80,KSBD 191054Z AUTO 27003KT 10SM CLR 21/14 A3003 RMK AO2 T02100136,M
SBD,2016-07-19 11:14,68.36,58.10,69.73,260.00,4.00,0.00,30.03,M,10.00,M,CLR,M,M,M,M,M,M,M,M,M,M,M,M,M,M,68.36,KSBD 191114Z AUTO 26004KT 10SM CLR 20/15 A3003 RMK AO2 T02020145,M
SBD,2016-07-19 11:33,67.64,58.46,72.41,250.00,3.00,0.00,30.03,M,10.00,M,CLR,M,M,M,M,M,M,M,M,M,M,M,M,M,M,67.64,KSBD 191133Z AUTO 25003KT 10SM CLR 20/15 A3003 RMK AO2 T01980147,M
SBD,2016-07-19 11:54,68.00,58.64,71.98,0.00,0.00,0.00,30.04,M,10.00,M,CLR,M,M,M,M,M,M,M,M,M,M,M,M,M,M,68.00,KSBD 191154Z AUTO 00000KT 10SM CLR 20/15 A3004 RMK AO2 T02000148,M
SBD,2016-07-19 12:14,68.36,58.64,71.10,0.00,0.00,0.00,30.04,M,10.00,M,CLR,M,M,M,M,M,M,M,M,M,M,M,M,M,M,68.36,KSBD 191214Z AUTO 00000KT 10SM CLR 20/15 A3004 RMK AO2 T02020148,M
SBD,2016-07-19 12:33,68.90,52.88,56.63,0.00,0.00,0.00,30.04,M,10.00,M,CLR,M,M,M,M,M,M,M,M,M,M,M,M,M,M,68.90,KSBD 191233Z AUTO 00000KT 10SM CLR 21/12 A3004 RMK AO2 T02050116,M
SBD,2016-07-19 12:54,68.00,54.50,61.98,0.00,0.00,0.00,30.04,M,10.00,M,CLR,M,M,M,M,M,M,M,M,M,M,M,M,M,M,68.00,KSBD 191254Z AUTO 00000KT 10SM CLR 20/13 A3004 RMK AO2 T02000125,M
SBD,2016-07-19 13:14,67.82,50.72,54.27,0.00,0.00,0.00,30.04,M,10.00,M,CLR,M,M,M,M,M,M,M,M,M,M,M,M,M,M,67.82,KSBD 191314Z AUTO 00000KT 10SM CLR 20/10 A3004 RMK AO2 T01990104,M
SBD,2016-07-19 13:33,68.36,49.46,50.83,0.00,0.00,0.00,30.04,M,10.00,M,CLR,M,M,M,M,M,M,M,M,M,M,M,M,M,M,68.36,KSBD 191333Z AUTO 00000KT 10SM CLR 20/10 A3004 RMK AO2 T02020097,M
SBD,2016-07-19 13:54,69.80,50.90,51.05,0.00,0.00,0.00,30.03,M,10.00,M,CLR,M,M,M,M,M,M,M,M,M,M,M,M,M,M,69.80,KSBD 191354Z AUTO 00000KT 10SM CLR 21/11 A3003 RMK AO2 T02100105,M
SBD,2016-07-19 14:00,66.20,59.00,77.60,0.00,0.00,0.00,30.03,M,7.00,M,CLR,M,M,M,M,M,M,M,M,M,M,M,M,M,M,66.20,KSBD 191400Z 00000KT 7SM SKC 19/15 A3003,M
SBD,2016-07-19 14:45,75.20,59.00,57.12,0.00,0.00,0.00,30.03,M,7.00,M,CLR,M,M,M,M,M,M,M,M,M,M,M,M,M,M,75.20,KSBD 191445Z 00000KT 7SM SKC 24/15 A3003,M
SBD,2016-07-19 15:45,77.00,59.00,53.80,0.00,0.00,0.00,30.03,M,10.00,M,CLR,M,M,M,M,M,M,M,M,M,M,M,M,M,M,77.00,KSBD 191545Z 00000KT 10SM SKC 25/15 A3003,M
SBD,2016-07-19 16:46,82.40,53.60,37.07,0.00,0.00,0.00,30.03,M,10.00,M,CLR,M,M,M,M,M,M,M,M,M,M,M,M,M,M,82.40,KSBD 191646Z 00000KT 10SM SKC 28/12 A3003,M
SBD,2016-07-19 17:47,89.60,46.40,22.53,270.00,4.00,0.00,30.02,M,10.00,M,CLR,M,M,M,M,M,M,M,M,M,M,M,M,M,M,86.24,KSBD 191747Z 27004KT 10SM SKC 32/08 A3002,M
SBD,2016-07-19 18:50,95.00,44.60,17.78,290.00,5.00,0.00,30.01,M,10.00,M,CLR,M,M,M,M,M,M,M,M,M,M,M,M,M,M,91.06,KSBD 191850Z 29005KT 10SM SKC 35/07 A3001,M
SBD,2016-07-19 19:47,96.80,44.60,16.83,250.00,8.00,0.00,29.99,M,10.00,M,CLR,M,M,M,M,M,M,M,M,M,M,M,M,M,M,92.79,KSBD 191947Z 25008KT 10SM SKC 36/07 A2999,M
SBD,2016-07-19 20:47,100.40,39.20,12.25,240.00,9.00,0.00,29.98,M,10.00,M,CLR,M,M,M,M,M,M,M,M,M,M,M,M,M,M,95.43,KSBD 192047Z 24009KT 10SM SKC 38/04 A2998,M
SBD,2016-07-19 21:50,102.20,39.20,11.60,250.00,11.00,0.00,29.96,M,10.00,M,CLR,M,M,M,M,M,M,M,M,M,M,M,M,M,M,96.99,KSBD 192150Z 25011KT 10SM SKC 39/04 A2996,M
SBD,2016-07-19 22:47,102.20,39.20,11.60,230.00,11.00,0.00,29.94,M,10.00,M,CLR,M,M,M,M,M,M,M,M,M,M,M,M,M,M,96.99,KSBD 192247Z 23011KT 10SM SKC 39/04 A2994,M
SBD,2016-07-19 23:55,100.40,39.20,12.25,270.00,9.00,0.00,29.93,M,10.00,M,CLR,M,M,M,M,M,M,M,M,M,M,M,M,M,M,95.43,KSBD 192355Z 27009KT 10SM SKC 38/04 A2993,M
SBD,2016-07-20 00:50,98.60,41.00,13.87,270.00,10.00,0.00,29.92,M,7.00,M,CLR,M,M,M,M,M,M,M,M,M,M,M,M,M,M,94.09,KSBD 200050Z 27010KT 7SM SKC 37/05 A2992,M
SBD,2016-07-20 01:50,95.00,37.40,13.46,250.00,11.00,0.00,29.92,M,7.00,M,CLR,M,M,M,M,M,M,M,M,M,M,M,M,M,M,90.46,KSBD 200150Z 25011KT 7SM SKC 35/03 A2992,M
SBD,2016-07-20 02:50,91.40,35.60,14.02,250.00,8.00,0.00,29.93,M,7.00,M,CLR,M,M,M,M,M,M,M,M,M,M,M,M,M,M,87.17,KSBD 200250Z 25008KT 7SM SKC 33/02 A2993,M
SBD,2016-07-20 03:50,86.00,37.40,17.85,240.00,7.00,0.00,29.96,M,7.00,M,CLR,M,M,M,M,M,M,M,M,M,M,M,M,M,M,82.73,KSBD 200350Z 24007KT 7SM SKC 30/03 A2996 RMK LAST,M
SBD,2016-07-20 04:14,85.46,39.92,20.04,240.00,7.00,0.00,29.98,M,10.00,M,CLR,M,M,M,M,M,M,M,M,M,M,M,M,M,M,82.40,KSBD 200414Z AUTO 24007KT 10SM CLR 30/04 A2998 RMK AO2 T02970044,M
SBD,2016-07-20 04:34,84.38,42.80,23.19,250.00,7.00,0.00,29.99,M,10.00,M,CLR,M,M,M,M,M,M,M,M,M,M,M,M,M,M,81.74,KSBD 200434Z AUTO 25007KT 10SM CLR 29/06 A2999 RMK AO2 T02910060,M
SBD,2016-07-20 04:54,82.76,44.78,26.36,260.00,6.00,0.00,30.00,M,10.00,M,CLR,M,M,M,M,M,M,M,M,M,M,M,M,M,M,80.75,KSBD 200454Z AUTO 26006KT 10SM CLR 28/07 A3000 RMK AO2 T02820071,M
SBD,2016-07-20 05:14,82.04,47.12,29.48,250.00,6.00,0.00,30.01,M,10.00,M,CLR,M,M,M,M,M,M,M,M,M,M,M,M,M,M,80.47,KSBD 200514Z AUTO 25006KT 10SM CLR 28/08 A3001 RMK AO2 T02780084,M
SBD,2016-07-20 05:34,81.50,47.30,30.21,240.00,4.00,0.00,30.01,M,10.00,M,CLR,M,M,M,M,M,M,M,M,M,M,M,M,M,M,80.16,KSBD 200534Z AUTO 24004KT 10SM CLR 28/09 A3001 RMK AO2 T02750085,M
SBD,2016-07-20 05:54,80.06,46.40,30.61,0.00,0.00,0.00,30.01,M,10.00,M,CLR,M,M,M,M,M,M,M,M,M,M,M,M,M,M,80.06,KSBD 200554Z AUTO 00000KT 10SM CLR 27/08 A3001 RMK AO2 T02670080,M
SBD,2016-07-20 06:14,80.60,44.60,28.08,0.00,0.00,0.00,30.01,M,10.00,M,CLR,M,M,M,M,M,M,M,M,M,M,M,M,M,M,79.42,KSBD 200614Z AUTO 00000KT 10SM CLR 27/07 A3001 RMK AO2 T02700070,M
SBD,2016-07-20 06:34,80.06,42.98,26.87,250.00,3.00,0.00,30.01,M,10.00,M,CLR,M,M,M,M,M,M,M,M,M,M,M,M,M,M,79.02,KSBD 200634Z AUTO 25003KT 10SM CLR 27/06 A3001 RMK AO2 T02670061,M
SBD,2016-07-20 06:54,79.88,42.26,26.29,0.00,0.00,0.00,30.01,M,10.00,M,CLR,M,M,M,M,M,M,M,M,M,M,M,M,M,M,78.80,KSBD 200654Z AUTO 00000KT 10SM CLR 27/06 A3001 RMK AO2 T02660057,M
SBD,2016-07-20 07:14,79.70,41.54,25.72,0.00,0.00,0.00,30.01,M,10.00,M,CLR,M,M,M,M,M,M,M,M,M,M,M,M,M,M,78.58,KSBD 200714Z AUTO 00000KT 10SM CLR 27/05 A3001 RMK AO2 T02650053,M
SBD,2016-07-20 07:34,78.80,41.54,26.49,0.00,0.00,0.00,30.01,M,10.00,M,CLR,M,M,M,M,M,M,M,M,M,M,M,M,M,M,77.63,KSBD 200734Z AUTO 00000KT 10SM CLR 26/05 A3001 RMK AO2 T02600053,M
SBD,2016-07-20 07:54,77.36,42.80,29.16,0.00,0.00,0.00,30.01,M,10.00,M,CLR,M,M,M,M,M,M,M,M,M,M,M,M,M,M,76.17,KSBD 200754Z AUTO 00000KT 10SM CLR 25/06 A3001 RMK AO2 T02520060,M
SBD,2016-07-20 08:14,76.82,42.08,28.88,0.00,0.00,0.00,30.00,M,10.00,M,CLR,M,M,M,M,M,M,M,M,M,M,M,M,M,M,75.56,KSBD 200814Z AUTO 00000KT 10SM CLR 25/06 A3000 RMK AO2 T02490056,M
SBD,2016-07-20 08:34,76.28,41.54,28.80,0.00,0.00,0.00,30.00,M,10.00,M,CLR,M,M,M,M,M,M,M,M,M,M,M,M,M,M,74.96,KSBD 200834Z AUTO 00000KT 10SM CLR 25/05 A3000 RMK AO2 T02460053,M
SBD,2016-07-20 08:54,74.30,42.80,32.29,0.00,0.00,0.00,30.00,M,10.00,M,CLR,M,M,M,M,M,M,M,M,M,M,M,M,M,M,72.95,KSBD 200854Z AUTO 00000KT 10SM CLR 24/06 A3000 RMK AO2 T02350060,M
SBD,2016-07-20 09:14,74.30,42.80,32.29,0.00,0.00,0.00,30.00,M,10.00,M,CLR,M,M,M,M,M,M,M,M,M,M,M,M,M,M,72.95,KSBD 200914Z AUTO 00000KT 10SM CLR 24/06 A3000 RMK AO2 T02350060,M
SBD,2016-07-20 09:34,75.38,43.34,31.80,0.00,0.00,0.00,30.00,M,10.00,M,CLR,M,M,M,M,M,M,M,M,M,M,M,M,M,M,74.11,KSBD 200934Z AUTO 00000KT 10SM CLR 24/06 A3000 RMK AO2 T02410063,M
SBD,2016-07-20 09:54,73.58,43.52,34.01,0.00,0.00,0.00,30.00,M,10.00,M,CLR,M,M,M,M,M,M,M,M,M,M,M,M,M,M,72.24,KSBD 200954Z AUTO 00000KT 10SM CLR 23/06 A3000 RMK AO2 T02310064,M
SBD,2016-07-20 10:14,73.40,43.16,33.75,0.00,0.00,0.00,29.99,M,10.00,M,CLR,M,M,M,M,M,M,M,M,M,M,M,M,M,M,72.03,KSBD 201014Z AUTO 00000KT 10SM CLR 23/06 A2999 RMK AO2 T02300062,M
SBD,2016-07-20 10:34,72.50,45.86,38.56,0.00,0.00,0.00,29.99,M,10.00,M,CLR,M,M,M,M,M,M,M,M,M,M,M,M,M,M,71.26,KSBD 201034Z AUTO 00000KT 10SM CLR 23/08 A2999 RMK AO2 T02250077,M
SBD,2016-07-20 10:54,72.32,45.50,38.27,0.00,0.00,0.00,29.99,M,10.00,M,CLR,M,M,M,M,M,M,M,M,M,M,M,M,M,M,71.05,KSBD 201054Z AUTO 00000KT 10SM CLR 22/08 A2999 RMK AO2 T02240075,M
SBD,2016-07-20 11:14,71.24,44.96,38.89,0.00,0.00,0.00,29.98,M,10.00,M,CLR,M,M,M,M,M,M,M,M,M,M,M,M,M,M,69.89,KSBD 201114Z AUTO 00000KT 10SM CLR 22/07 A2998 RMK AO2 T02180072,M
SBD,2016-07-20 11:34,69.98,44.78,40.32,0.00,0.00,0.00,29.99,M,10.00,M,CLR,M,M,M,M,M,M,M,M,M,M,M,M,M,M,69.98,KSBD 201134Z AUTO 00000KT 10SM CLR 21/07 A2999 RMK AO2 T02110071,M
SBD,2016-07-20 11:54,69.98,44.96,40.59,0.00,0.00,0.00,29.99,M,10.00,M,CLR,M,M,M,M,M,M,M,M,M,M,M,M,M,M,69.98,KSBD 201154Z AUTO 00000KT 10SM CLR 21/07 A2999 RMK AO2 T02110072,M
SBD,2016-07-20 12:14,70.34,45.50,40.93,0.00,0.00,0.00,29.99,M,10.00,M,CLR,M,M,M,M,M,M,M,M,M,M,M,M,M,M,69.00,KSBD 201214Z AUTO 00000KT 10SM CLR 21/08 A2999 RMK AO2 T02130075,M
SBD,2016-07-20 12:34,69.80,45.68,41.97,0.00,0.00,0.00,29.99,M,10.00,M,CLR,M,M,M,M,M,M,M,M,M,M,M,M,M,M,69.80,KSBD 201234Z AUTO 00000KT 10SM CLR 21/08 A2999 RMK AO2 T02100076,M
SBD,2016-07-20 12:54,68.72,46.22,44.46,0.00,0.00,0.00,29.99,M,10.00,M,CLR,M,M,M,M,M,M,M,M,M,M,M,M,M,M,68.72,KSBD 201254Z AUTO 00000KT 10SM CLR 20/08 A2999 RMK AO2 T02040079,M
SBD,2016-07-20 13:14,68.36,46.40,45.32,0.00,0.00,0.00,29.99,M,10.00,M,CLR,M,M,M,M,M,M,M,M,M,M,M,M,M,M,68.36,KSBD 201314Z AUTO 00000KT 10SM CLR 20/08 A2999 RMK AO2 T02020080,M
SBD,2016-07-20 13:34,70.16,46.58,42.90,0.00,0.00,0.00,29.99,M,10.00,M,CLR,M,M,M,M,M,M,M,M,M,M,M,M,M,M,68.89,KSBD 201334Z AUTO 00000KT 10SM CLR 21/08 A2999 RMK AO2 T02120081,M
SBD,2016-07-20 13:53,71.24,44.96,38.89,0.00,0.00,0.00,30.00,M,10.00,M,CLR,M,M,M,M,M,M,M,M,M,M,M,M,M,M,69.89,KSBD 201353Z AUTO 00000KT 10SM CLR 22/07 A3000 RMK AO2 T02180072,M
SBD,2016-07-20 14:00,71.60,48.20,43.42,0.00,0.00,0.00,30.00,M,10.00,M,CLR,M,M,M,M,M,M,M,M,M,M,M,M,M,M,70.50,KSBD 201400Z 00000KT 10SM SKC 22/09 A3000,M
SBD,2016-07-20 15:45,82.40,44.60,26.49,0.00,0.00,0.00,30.01,M,10.00,M,CLR,M,M,M,M,M,M,M,M,M,M,M,M,M,M,80.50,KSBD 201545Z 00000KT 10SM SKC 28/07 A3001,M
SBD,2016-07-20 16:50,87.80,37.40,16.86,0.00,0.00,0.00,30.00,M,10.00,M,CLR,M,M,M,M,M,M,M,M,M,M,M,M,M,M,84.16,KSBD 201650Z 00000KT 10SM SKC 31/03 A3000,M
SBD,2016-07-20 17:50,93.20,35.60,13.25,0.00,0.00,0.00,29.99,M,10.00,M,CLR,M,M,M,M,M,M,M,M,M,M,M,M,M,M,88.76,KSBD 201750Z 00000KT 10SM SKC 34/02 A2999,M
SBD,2016-07-20 18:50,98.60,32.00,9.72,260.00,5.00,0.00,29.98,M,10.00,M,SCT,M,M,M,15000.00,M,M,M,M,M,M,M,M,M,M,92.69,KSBD 201850Z 26005KT 10SM SCT150 37/00 A2998,M
SBD,2016-07-20 19:49,102.20,28.40,7.53,260.00,6.00,0.00,29.96,M,10.00,M,SCT,M,M,M,15000.00,M,M,M,M,M,M,M,M,M,M,95.28,KSBD 201949Z 26006KT 10SM SCT150 39/M02 A2996,M
SBD,2016-07-20 20:50,105.80,37.40,9.72,250.00,6.00,0.00,29.94,M,10.00,M,FEW,M,M,M,15000.00,M,M,M,M,M,M,M,M,M,M,99.76,KSBD 202050Z 25006KT 10SM FEW150 41/03 A2994,M
SBD,2016-07-20 21:50,105.80,35.60,9.05,230.00,7.00,0.00,29.93,M,10.00,M,FEW,M,M,M,15000.00,M,M,M,M,M,M,M,M,M,M,99.42,KSBD 202150Z 23007KT 10SM FEW150 41/02 A2993,M
SBD,2016-07-20 22:50,105.80,39.20,10.43,270.00,10.00,0.00,29.91,M,10.00,M,CLR,M,M,M,M,M,M,M,M,M,M,M,M,M,M,100.14,KSBD 202250Z 27010KT 10SM SKC 41/04 A2991,M
SBD,2016-07-21 00:50,102.20,37.40,10.81,270.00,12.00,0.00,29.90,M,10.00,M,CLR,M,M,M,M,M,M,M,M,M,M,M,M,M,M,96.63,KSBD 210050Z 27012KT 10SM SKC 39/03 A2990,M
SBD,2016-07-21 01:47,98.60,35.60,11.23,250.00,12.00,0.00,29.92,M,10.00,M,CLR,M,M,M,M,M,M,M,M,M,M,M,M,M,M,93.23,KSBD 210147Z 25012KT 10SM SKC 37/02 A2992,M
SBD,2016-07-21 02:48,93.20,37.40,14.23,220.00,6.00,0.00,29.94,M,10.00,M,CLR,M,M,M,M,M,M,M,M,M,M,M,M,M,M,88.83,KSBD 210248Z 22006KT 10SM SKC 34/03 A2994,M
SBD,2016-07-21 03:50,89.60,35.60,14.83,230.00,4.00,0.00,29.95,M,10.00,M,CLR,M,M,M,M,M,M,M,M,M,M,M,M,M,M,85.62,KSBD 210350Z 23004KT 10SM SKC 32/02 A2995,M
SBD,2016-07-21 04:14,87.80,37.04,16.62,0.00,0.00,0.00,29.96,M,10.00,M,CLR,M,M,M,M,M,M,M,M,M,M,M,M,M,M,84.15,KSBD 210414Z AUTO 00000KT 10SM CLR 31/03 A2996 RMK AO2 T03100028,M
SBD,2016-07-21 04:34,87.44,38.84,18.04,240.00,3.00,0.00,29.97,M,10.00,M,CLR,M,M,M,M,M,M,M,M,M,M,M,M,M,M,83.92,KSBD 210434Z AUTO 24003KT 10SM CLR 31/04 A2997 RMK AO2 T03080038,M
SBD,2016-07-21 04:54,86.00,40.46,20.12,260.00,4.00,0.00,29.97,M,10.00,M,CLR,M,M,M,M,M,M,M,M,M,M,M,M,M,M,82.84,KSBD 210454Z AUTO 26004KT 10SM CLR 30/05 A2997 RMK AO2 T03000047,M
SBD,2016-07-21 05:14,84.92,41.72,21.87,280.00,4.00,0.00,29.98,M,10.00,M,CLR,M,M,M,M,M,M,M,M,M,M,M,M,M,M,82.08,KSBD 210514Z AUTO 28004KT 10SM CLR 29/05 A2998 RMK AO2 T02940054,M
SBD,2016-07-21 05:34,84.92,42.26,22.33,290.00,3.00,0.00,29.98,M,10.00,M,CLR,M,M,M,M,M,M,M,M,M,M,M,M,M,M,82.10,KSBD 210534Z AUTO 29003KT 10SM CLR 29/06 A2998 RMK AO2 T02940057,M
SBD,2016-07-21 05:54,84.20,42.80,23.33,280.00,3.00,0.00,29.98,M,10.00,M,CLR,M,M,M,M,M,M,M,M,M,M,M,M,M,M,81.61,KSBD 210554Z AUTO 28003KT 10SM CLR 29/06 A2998 RMK AO2 T02900060,M
SBD,2016-07-21 06:14,84.02,42.80,23.46,0.00,0.00,0.00,29.98,M,10.00,M,CLR,M,M,M,M,M,M,M,M,M,M,M,M,M,M,81.48,KSBD 210614Z AUTO 00000KT 10SM CLR 29/06 A2998 RMK AO2 T02890060,M
SBD,2016-07-21 06:34,83.30,42.80,24.01,0.00,0.00,0.00,29.99,M,10.00,M,CLR,M,M,M,M,M,M,M,M,M,M,M,M,M,M,80.98,KSBD 210634Z AUTO 00000KT 10SM CLR 29/06 A2999 RMK AO2 T02850060,M
SBD,2016-07-21 06:54,83.30,43.16,24.35,0.00,0.00,0.00,29.98,M,10.00,M,CLR,M,M,M,M,M,M,M,M,M,M,M,M,M,M,81.01,KSBD 210654Z AUTO 00000KT 10SM CLR 29/06 A2998 RMK AO2 T02850062,M
SBD,2016-07-21 07:14,82.40,42.08,24.05,0.00,0.00,0.00,29.98,M,10.00,M,CLR,M,M,M,M,M,M,M,M,M,M,M,M,M,M,80.35,KSBD 210714Z AUTO 00000KT 10SM CLR 28/06 A2998 RMK AO2 T02800056,M
SBD,2016-07-21 07:34,80.60,39.74,23.29,170.00,3.00,0.00,29.98,M,10.00,M,CLR,M,M,M,M,M,M,M,M,M,M,M,M,M,M,79.13,KSBD 210734Z AUTO 17003KT 10SM CLR 27/04 A2998 RMK AO2 T02700043,M
SBD,2016-07-21 07:54,80.78,40.10,23.48,0.00,0.00,0.00,29.97,M,10.00,M,CLR,M,M,M,M,M,M,M,M,M,M,M,M,M,M,79.25,KSBD 210754Z AUTO 00000KT 10SM CLR 27/05 A2997 RMK AO2 T02710045,M
SBD,2016-07-21 08:14,80.06,41.36,25.24,0.00,0.00,0.00,29.97,M,10.00,M,CLR,M,M,M,M,M,M,M,M,M,M,M,M,M,M,78.95,KSBD 210814Z AUTO 00000KT 10SM CLR 27/05 A2997 RMK AO2 T02670052,M
SBD,2016-07-21 08:34,79.16,40.28,24.93,0.00,0.00,0.00,29.97,M,10.00,M,CLR,M,M,M,M,M,M,M,M,M,M,M,M,M,M,77.95,KSBD 210834Z AUTO 00000KT 10SM CLR 26/05 A2997 RMK AO2 T02620046,M
SBD,2016-07-21 08:54,78.80,40.28,25.23,0.00,0.00,0.00,29.97,M,10.00,M,CLR,M,M,M,M,M,M,M,M,M,M,M,M,M,M,77.57,KSBD 210854Z AUTO 00000KT 10SM CLR 26/05 A2997 RMK AO2 T02600046,M
SBD,2016-07-21 09:14,78.44,41.00,26.25,0.00,0.00,0.00,29.97,M,10.00,M,CLR,M,M,M,M,M,M,M,M,M,M,M,M,M,M,77.22,KSBD 210914Z AUTO 00000KT 10SM CLR 26/05 A2997 RMK AO2 T02580050,M
SBD,2016-07-21 09:34,78.62,41.00,26.10,0.00,0.00,0.00,29.97,M,10.00,M,CLR,M,M,M,M,M,M,M,M,M,M,M,M,M,M,77.41,KSBD 210934Z AUTO 00000KT 10SM CLR 26/05 A2997 RMK AO2 T02590050,M
SBD,2016-07-21 09:54,78.08,41.72,27.32,0.00,0.00,0.00,29.97,M,10.00,M,CLR,M,M,M,M,M,M,M,M,M,M,M,M,M,M,76.87,KSBD 210954Z AUTO 00000KT 10SM CLR 26/05 A2997 RMK AO2 T02560054,M
SBD,2016-07-21 10:14,77.90,41.36,27.10,0.00,0.00,0.00,29.97,M,10.00,M,CLR,M,M,M,M,M,M,M,M,M,M,M,M,M,M,76.66,KSBD 211014Z AUTO 00000KT 10SM CLR 26/05 A2997 RMK AO2 T02550052,M
SBD,2016-07-21 10:35,76.64,41.36,28.26,0.00,0.00,0.00,29.96,M,10.00,M,CLR,M,M,M,M,M,M,M,M,M,M,M,M,M,M,75.33,KSBD 211035Z AUTO 00000KT 10SM CLR 25/05 A2996 RMK AO2 T02480052,M
SBD,2016-07-21 10:54,74.84,42.62,31.50,90.00,4.00,0.00,29.96,M,10.00,M,CLR,M,M,M,M,M,M,M,M,M,M,M,M,M,M,73.50,KSBD 211054Z AUTO 09004KT 10SM CLR 24/06 A2996 RMK AO2 T02380059,M
SBD,2016-07-21 11:14,76.10,43.16,30.83,0.00,0.00,0.00,29.96,M,10.00,M,CLR,M,M,M,M,M,M,M,M,M,M,M,M,M,M,74.86,KSBD 211114Z AUTO 00000KT 10SM CLR 25/06 A2996 RMK AO2 T02450062,M
SBD,2016-07-21 11:34,74.12,42.08,31.60,0.00,0.00,0.00,29.97,M,10.00,M,CLR,M,M,M,M,M,M,M,M,M,M,M,M,M,M,72.72,KSBD 211134Z AUTO 00000KT 10SM CLR 23/06 A2997 RMK AO2 T02340056,M
SBD,2016-07-21 11:54,74.12,41.00,30.31,0.00,0.00,0.00,29.97,M,10.00,M,CLR,M,M,M,M,M,M,M,M,M,M,M,M,M,M,72.66,KSBD 211154Z AUTO 00000KT 10SM CLR 23/05 A2997 RMK AO2 T02340050,M
SBD,2016-07-21 12:14,75.02,42.44,31.09,0.00,0.00,0.00,29.97,M,10.00,M,CLR,M,M,M,M,M,M,M,M,M,M,M,M,M,M,73.68,KSBD 211214Z AUTO 00000KT 10SM CLR 24/06 A2997 RMK AO2 T02390058,M
SBD,2016-07-21 12:34,74.30,42.80,32.29,0.00,0.00,0.00,29.97,M,10.00,M,CLR,M,M,M,M,M,M,M,M,M,M,M,M,M,M,72.95,KSBD 211234Z AUTO 00000KT 10SM CLR 24/06 A2997 RMK AO2 T02350060,M
SBD,2016-07-21 12:54,74.30,41.90,31.19,0.00,0.00,0.00,29.97,M,10.00,M,CLR,M,M,M,M,M,M,M,M,M,M,M,M,M,M,72.90,KSBD 211254Z AUTO 00000KT 10SM CLR 24/06 A2997 RMK AO2 T02350055,M
SBD,2016-07-21 13:14,73.94,44.06,34.30,0.00,0.00,0.00,29.97,M,10.00,M,CLR,M,M,M,M,M,M,M,M,M,M,M,M,M,M,72.65,KSBD 211314Z AUTO 00000KT 10SM CLR 23/07 A2997 RMK AO2 T02330067,M
SBD,2016-07-21 13:34,73.58,43.88,34.48,0.00,0.00,0.00,29.98,M,10.00,M,CLR,M,M,M,M,M,M,M,M,M,M,M,M,M,M,72.26,KSBD 211334Z AUTO 00000KT 10SM CLR 23/07 A2998 RMK AO2 T02310066,M
SBD,2016-07-21 13:54,74.66,42.44,31.47,0.00,0.00,0.00,29.98,M,10.00,M,CLR,M,M,M,M,M,M,M,M,M,M,M,M,M,M,73.31,KSBD 211354Z AUTO 00000KT 10SM CLR 24/06 A2998 RMK AO2 T02370058,M
SBD,2016-07-21 14:50,80.60,39.20,22.81,0.00,0.00,0.00,29.99,M,10.00,M,FEW,M,M,M,8000.00,M,M,M,M,M,M,M,M,M,M,79.10,KSBD 211450Z 00000KT 10SM FEW080 27/04 A2999,M
SBD,2016-07-21 15:50,86.00,39.20,19.15,0.00,0.00,0.00,29.99,M,10.00,M,FEW,M,M,M,8000.00,M,M,M,M,M,M,M,M,M,M,82.79,KSBD 211550Z 00000KT 10SM FEW080 30/04 A2999,M
SBD,2016-07-21 16:50,91.40,39.20,16.15,0.00,0.00,0.00,29.99,M,10.00,M,CLR,M,M,M,M,M,M,M,M,M,M,M,M,M,M,87.30,KSBD 211650Z 00000KT 10SM SKC 33/04 A2999,M
SBD,2016-07-21 17:47,98.60,35.60,11.23,0.00,0.00,0.00,29.99,M,10.00,M,CLR,M,M,M,M,M,M,M,M,M,M,M,M,M,M,93.23,KSBD 211747Z 00000KT 10SM SKC 37/02 A2999,M
SBD,2016-07-21 18:50,100.40,30.20,8.56,270.00,7.00,0.00,29.99,M,10.00,M,CLR,M,M,M,M,M,M,M,M,M,M,M,M,M,M,93.98,KSBD 211850Z 27007KT 10SM SKC 38/M01 A2999,M
SBD,2016-07-21 19:50,102.20,32.00,8.72,210.00,5.00,0.00,29.98,M,10.00,M,CLR,M,M,M,M,M,M,M,M,M,M,M,M,M,M,95.74,KSBD 211950Z 21005KT 10SM SKC 39/00 A2998,M
SBD,2016-07-21 20:50,105.80,28.40,6.77,270.00,6.00,0.00,29.96,M,10.00,M,CLR,M,M,M,M,M,M,M,M,M,M,M,M,M,M,98.33,KSBD 212050Z 27006KT 10SM SKC 41/M02 A2996,M
SBD,2016-07-21 22:49,107.60,35.60,8.58,260.00,6.00,0.00,29.92,M,10.00,M,CLR,M,M,M,M,M,M,M,M,M,M,M,M,M,M,100.98,KSBD 212249Z 26006KT 10SM SKC 42/02 A2992,M
SBD,2016-07-21 23:59,109.40,39.20,9.38,280.00,11.00,0.00,29.92,M,10.00,M,CLR,M,M,M,M,M,M,M,M,M,M,M,M,M,M,103.33,KSBD 212359Z 28011KT 10SM SKC 43/04 A2992,M
SBD,2016-07-22 00:47,104.00,46.40,14.50,260.00,10.00,0.00,29.91,M,10.00,M,CLR,M,M,M,M,M,M,M,M,M,M,M,M,M,M,100.21,KSBD 220047Z 26010KT 10SM SKC 40/08 A2991,M
SBD,2016-07-22 01:50,100.40,41.00,13.14,240.00,12.00,0.00,29.92,M,10.00,M,CLR,M,M,M,M,M,M,M,M,M,M,M,M,M,M,95.79,KSBD 220150Z 24012KT 10SM SKC 38/05 A2992,M
SBD,2016-07-22 02:50,95.00,48.20,20.38,240.00,9.00,0.00,29.93,M,10.00,M,CLR,M,M,M,M,M,M,M,M,M,M,M,M,M,M,91.56,KSBD 220250Z 24009KT 10SM SKC 35/09 A2993,M
SBD,2016-07-22 03:50,91.40,37.40,15.05,240.00,7.00,0.00,29.96,M,10.00,M,CLR,M,M,M,M,M,M,M,M,M,M,M,M,M,M,87.23,KSBD 220350Z 24007KT 10SM SKC 33/03 A2996,M
SBD,2016-07-22 04:14,89.06,38.66,17.02,240.00,6.00,0.00,29.96,M,10.00,M,CLR,M,M,M,M,M,M,M,M,M,M,M,M,M,M,85.25,KSBD 220414Z AUTO 24006KT 10SM CLR 32/04 A2996 RMK AO2 T03170037,M
SBD,2016-07-22 04:34,87.80,40.46,19.00,260.00,4.00,0.00,29.97,M,10.00,M,CLR,M,M,M,M,M,M,M,M,M,M,M,M,M,M,84.27,KSBD 220434Z AUTO 26004KT 10SM CLR 31/05 A2997 RMK AO2 T03100047,M
SBD,2016-07-22 04:54,87.44,40.64,19.35,230.00,3.00,0.00,29.98,M,10.00,M,CLR,M,M,M,M,M,M,M,M,M,M,M,M,M,M,83.99,KSBD 220454Z AUTO 23003KT 10SM CLR 31/05 A2998 RMK AO2 T03080048,M
SBD,2016-07-22 05:14,87.08,39.74,18.90,0.00,0.00,0.00,29.98,M,10.00,M,CLR,M,M,M,M,M,M,M,M,M,M,M,M,M,M,83.66,KSBD 220514Z AUTO 00000KT 10SM CLR 31/04 A2998 RMK AO2 T03060043,M
SBD,2016-07-22 05:34,86.36,39.74,19.34,260.00,3.00,0.00,29.98,M,10.00,M,CLR,M,M,M,M,M,M,M,M,M,M,M,M,M,M,83.09,KSBD 220534Z AUTO 26003KT 10SM CLR 30/04 A2998 RMK AO2 T03020043,M
SBD,2016-07-22 05:54,84.74,40.46,20.95,270.00,4.00,0.00,29.98,M,10.00,M,CLR,M,M,M,M,M,M,M,M,M,M,M,M,M,M,81.88,KSBD 220554Z AUTO 27004KT 10SM CLR 29/05 A2998 RMK AO2 T02930047,M
SBD,2016-07-22 06:14,84.20,41.90,22.53,0.00,0.00,0.00,29.98,M,10.00,M,CLR,M,M,M,M,M,M,M,M,M,M,M,M,M,M,81.56,KSBD 220614Z AUTO 00000KT 10SM CLR 29/06 A2998 RMK AO2 T02900055,M
SBD,2016-07-22 06:34,84.02,42.98,23.63,0.00,0.00,0.00,29.98,M,10.00,M,CLR,M,M,M,M,M,M,M,M,M,M,M,M,M,M,81.49,KSBD 220634Z AUTO 00000KT 10SM CLR 29/06 A2998 RMK AO2 T02890061,M
SBD,2016-07-22 06:55,82.40,42.62,24.55,0.00,0.00,0.00,29.98,M,10.00,M,CLR,M,M,M,M,M,M,M,M,M,M,M,M,M,M,80.38,KSBD 220655Z AUTO 00000KT 10SM CLR 28/06 A2998 RMK AO2 T02800059,M
SBD,2016-07-22 07:14,81.86,41.00,23.47,80.00,3.00,0.00,29.98,M,10.00,M,CLR,M,M,M,M,M,M,M,M,M,M,M,M,M,M,79.95,KSBD 220714Z AUTO 08003KT 10SM CLR 28/05 A2998 RMK AO2 T02770050,M
SBD,2016-07-22 07:34,80.60,41.00,24.46,80.00,6.00,0.00,29.97,M,10.00,M,CLR,M,M,M,M,M,M,M,M,M,M,M,M,M,M,79.20,KSBD 220734Z AUTO 08006KT 10SM CLR 27/05 A2997 RMK AO2 T02700050,M
SBD,2016-07-22 07:55,80.60,43.52,26.95,0.00,0.00,0.00,29.97,M,10.00,M,CLR,M,M,M,M,M,M,M,M,M,M,M,M,M,M,79.35,KSBD 220755Z AUTO 00000KT 10SM CLR 27/06 A2997 RMK AO2 T02700064,M
SBD,2016-07-22 08:14,79.34,42.80,27.32,0.00,0.00,0.00,29.96,M,10.00,M,CLR,M,M,M,M,M,M,M,M,M,M,M,M,M,M,78.26,KSBD 220814Z AUTO 00000KT 10SM CLR 26/06 A2996 RMK AO2 T02630060,M
SBD,2016-07-22 08:34,78.44,44.06,29.53,0.00,0.00,0.00,29.96,M,10.00,M,CLR,M,M,M,M,M,M,M,M,M,M,M,M,M,M,77.37,KSBD 220834Z AUTO 00000KT 10SM CLR 26/07 A2996 RMK AO2 T02580067,M
SBD,2016-07-22 08:55,76.46,43.88,31.32,0.00,0.00,0.00,29.96,M,10.00,M,CLR,M,M,M,M,M,M,M,M,M,M,M,M,M,M,75.28,KSBD 220855Z AUTO 00000KT 10SM CLR 25/07 A2996 RMK AO2 T02470066,M
SBD,2016-07-22 09:14,76.28,43.70,31.29,80.00,4.00,0.00,29.96,M,10.00,M,CLR,M,M,M,M,M,M,M,M,M,M,M,M,M,M,75.08,KSBD 220914Z AUTO 08004KT 10SM CLR 25/07 A2996 RMK AO2 T02460065,M
SBD,2016-07-22 09:34,75.38,43.52,32.02,0.00,0.00,0.00,29.94,M,10.00,M,CLR,M,M,M,M,M,M,M,M,M,M,M,M,M,M,74.12,KSBD 220934Z AUTO 00000KT 10SM CLR 24/06 A2994 RMK AO2 T02410064,M
SBD,2016-07-22 09:55,76.46,43.88,31.32,0.00,0.00,0.00,29.94,M,10.00,M,CLR,M,M,M,M,M,M,M,M,M,M,M,M,M,M,75.28,KSBD 220955Z AUTO 00000KT 10SM CLR 25/07 A2994 RMK AO2 T02470066,M
SBD,2016-07-22 10:14,75.74,43.88,32.08,0.00,0.00,0.00,29.94,M,10.00,M,CLR,M,M,M,M,M,M,M,M,M,M,M,M,M,M,74.52,KSBD 221014Z AUTO 00000KT 10SM CLR 24/07 A2994 RMK AO2 T02430066,M
SBD,2016-07-22 10:34,75.02,43.70,32.63,0.00,0.00,0.00,29.94,M,10.00,M,CLR,M,M,M,M,M,M,M,M,M,M,M,M,M,M,73.76,KSBD 221034Z AUTO 00000KT 10SM CLR 24/07 A2994 RMK AO2 T02390065,M
SBD,2016-07-22 10:55,75.20,42.26,30.69,0.00,0.00,0.00,29.94,M,10.00,M,CLR,M,M,M,M,M,M,M,M,M,M,M,M,M,M,73.86,KSBD 221055Z AUTO 00000KT 10SM CLR 24/06 A2994 RMK AO2 T02400057,M
SBD,2016-07-22 11:14,73.58,43.70,34.25,80.00,3.00,0.00,29.94,M,10.00,M,CLR,M,M,M,M,M,M,M,M,M,M,M,M,M,M,72.25,KSBD 221114Z AUTO 08003KT 10SM CLR 23/07 A2994 RMK AO2 T02310065,M
SBD,2016-07-22 11:34,75.20,42.80,31.34,0.00,0.00,0.00,29.94,M,10.00,M,CLR,M,M,M,M,M,M,M,M,M,M,M,M,M,M,73.89,KSBD 221134Z AUTO 00000KT 10SM CLR 24/06 A2994 RMK AO2 T02400060,M
SBD,2016-07-22 11:54,73.94,42.80,32.69,0.00,0.00,0.00,29.94,M,10.00,M,CLR,M,M,M,M,M,M,M,M,M,M,M,M,M,M,72.57,KSBD 221154Z AUTO 00000KT 10SM CLR 23/06 A2994 RMK AO2 T02330060,M
SBD,2016-07-22 12:14,74.12,44.42,34.57,0.00,0.00,0.00,29.94,M,10.00,M,CLR,M,M,M,M,M,M,M,M,M,M,M,M,M,M,72.86,KSBD 221214Z AUTO 00000KT 10SM CLR 23/07 A2994 RMK AO2 T02340069,M
SBD,2016-07-22 12:34,72.14,42.26,34.02,0.00,0.00,0.00,29.95,M,10.00,M,CLR,M,M,M,M,M,M,M,M,M,M,M,M,M,M,70.65,KSBD 221234Z AUTO 00000KT 10SM CLR 22/06 A2995 RMK AO2 T02230057,M
SBD,2016-07-22 12:54,72.14,42.08,33.78,0.00,0.00,0.00,29.96,M,10.00,M,CLR,M,M,M,M,M,M,M,M,M,M,M,M,M,M,70.64,KSBD 221254Z AUTO 00000KT 10SM CLR 22/06 A2996 RMK AO2 T02230056,M
SBD,2016-07-22 13:14,69.98,41.18,35.11,50.00,4.00,0.00,29.96,M,10.00,M,CLR,M,M,M,M,M,M,M,M,M,M,M,M,M,M,69.98,KSBD 221314Z AUTO 05004KT 10SM CLR 21/05 A2996 RMK AO2 T02110051,M
SBD,2016-07-22 13:34,72.32,40.28,31.32,70.00,4.00,0.00,29.97,M,10.00,M,CLR,M,M,M,M,M,M,M,M,M,M,M,M,M,M,70.72,KSBD 221334Z AUTO 07004KT 10SM CLR 22/05 A2997 RMK AO2 T02240046,M
SBD,2016-07-22 13:54,75.02,41.18,29.62,0.00,0.00,0.00,29.97,M,10.00,M,CLR,M,M,M,M,M,M,M,M,M,M,M,M,M,M,73.61,KSBD 221354Z AUTO 00000KT 10SM CLR 24/05 A2997 RMK AO2 T02390051,M
SBD,2016-07-22 14:00,75.20,41.00,29.23,0.00,0.00,0.00,29.97,M,10.00,M,CLR,M,M,M,M,M,M,M,M,M,M,M,M,M,M,73.79,KSBD 221400Z 00000KT 10SM SKC 24/05 A2997,M
SBD,2016-07-22 15:45,91.40,39.20,16.15,0.00,0.00,0.00,29.99,M,10.00,M,CLR,M,M,M,M,M,M,M,M,M,M,M,M,M,M,87.30,KSBD 221545Z 00000KT 10SM SKC 33/04 A2999,M
SBD,2016-07-22 16:46,95.00,41.00,15.49,0.00,0.00,0.00,29.99,M,10.00,M,CLR,M,M,M,M,M,M,M,M,M,M,M,M,M,M,90.70,KSBD 221646Z 00000KT 10SM SKC 35/05 A2999,M
SBD,2016-07-22 17:47,100.40,35.60,10.63,250.00,4.00,0.00,29.98,M,10.00,M,CLR,M,M,M,M,M,M,M,M,M,M,M,M,M,M,94.76,KSBD 221747Z 25004KT 10SM SKC 38/02 A2998,M
SBD,2016-07-22 18:48,102.20,35.60,10.07,250.00,5.00,0.00,29.96,M,10.00,M,CLR,M,M,M,M,M,M,M,M,M,M,M,M,M,M,96.30,KSBD 221848Z 25005KT 10SM SKC 39/02 A2996,M
SBD,2016-07-22 19:47,105.80,33.80,8.42,270.00,5.00,0.00,29.95,M,10.00,M,CLR,M,M,M,M,M,M,M,M,M,M,M,M,M,M,99.10,KSBD 221947Z 27005KT 10SM SKC 41/01 A2995,M
SBD,2016-07-22 20:50,109.40,35.60,8.14,270.00,6.00,0.00,29.91,M,10.00,M,CLR,M,M,M,M,M,M,M,M,M,M,M,M,M,M,102.57,KSBD 222050Z 27006KT 10SM SKC 43/02 A2991,M
SBD,2016-07-22 21:48,109.40,32.00,7.05,220.00,8.00,0.00,29.89,M,10.00,M,CLR,M,M,M,M,M,M,M,M,M,M,M,M,M,M,101.93,KSBD 222148Z 22008KT 10SM SKC 43/00 A2989,M
SBD,2016-07-22 22:50,109.40,35.60,8.14,240.00,7.00,0.00,29.86,M,10.00,M,CLR,M,M,M,M,M,M,M,M,M,M,M,M,M,M,102.57,KSBD 222250Z 24007KT 10SM SKC 43/02 A2986,M
SBD,2016-07-22 23:47,111.20,39.20,8.90,250.00,7.00,0.00,29.85,M,10.00,M,CLR,M,M,M,M,M,M,M,M,M,M,M,M,M,M,104.98,KSBD 222347Z 25007KT 10SM SKC 44/04 A2985,M
SBD,2016-07-23 01:50,102.20,44.60,14.29,250.00,12.00,0.00,29.85,M,10.00,M,CLR,M,M,M,M,M,M,M,M,M,M,M,M,M,M,98.07,KSBD 230150Z 25012KT 10SM SKC 39/07 A2985,M
SBD,2016-07-23 02:48,96.80,44.60,16.83,230.00,7.00,0.00,29.86,M,10.00,M,CLR,M,M,M,M,M,M,M,M,M,M,M,M,M,M,92.79,KSBD 230248Z 23007KT 10SM SKC 36/07 A2986,M
SBD,2016-07-23 03:50,93.20,41.00,16.37,240.00,4.00,0.00,29.87,M,10.00,M,CLR,M,M,M,M,M,M,M,M,M,M,M,M,M,M,89.03,KSBD 230350Z 24004KT 10SM SKC 34/05 A2987,M
SBD,2016-07-23 04:14,92.12,41.36,17.17,260.00,3.00,0.00,29.88,M,10.00,M,CLR,M,M,M,M,M,M,M,M,M,M,M,M,M,M,88.07,KSBD 230414Z AUTO 26003KT 10SM CLR 33/05 A2988 RMK AO2 T03340052,M
SBD,2016-07-23 04:34,92.48,41.36,16.98,0.00,0.00,0.00,29.89,M,10.00,M,CLR,M,M,M,M,M,M,M,M,M,M,M,M,M,M,88.40,KSBD 230434Z AUTO 00000KT 10SM CLR 34/05 A2989 RMK AO2 T03360052,M
SBD,2016-07-23 04:54,91.76,41.36,17.37,0.00,0.00,0.00,29.89,M,10.00,M,CLR,M,M,M,M,M,M,M,M,M,M,M,M,M,M,87.75,KSBD 230454Z AUTO 00000KT 10SM CLR 33/05 A2989 RMK AO2 T03320052,M
SBD,2016-07-23 05:14,91.40,42.26,18.18,0.00,0.00,0.00,29.89,M,10.00,M,CLR,M,M,M,M,M,M,M,M,M,M,M,M,M,M,87.48,KSBD 230514Z AUTO 00000KT 10SM CLR 33/06 A2989 RMK AO2 T03300057,M
SBD,2016-07-23 05:34,90.68,42.98,19.12,0.00,0.00,0.00,29.88,M,10.00,M,CLR,M,M,M,M,M,M,M,M,M,M,M,M,M,M,86.89,KSBD 230534Z AUTO 00000KT 10SM CLR 33/06 A2988 RMK AO2 T03260061,M
SBD,2016-07-23 05:54,89.06,45.14,21.85,110.00,3.00,0.00,29.88,M,10.00,M,CLR,M,M,M,M,M,M,M,M,M,M,M,M,M,M,85.64,KSBD 230554Z AUTO 11003KT 10SM CLR 32/07 A2988 RMK AO2 T03170073,M
SBD,2016-07-23 06:14,87.26,45.86,23.77,0.00,0.00,0.00,29.88,M,10.00,M,CLR,M,M,M,M,M,M,M,M,M,M,M,M,M,M,84.18,KSBD 230614Z AUTO 00000KT 10SM CLR 31/08 A2988 RMK AO2 T03070077,M
SBD,2016-07-23 06:34,84.92,45.86,25.62,0.00,0.00,0.00,29.88,M,10.00,M,CLR,M,M,M,M,M,M,M,M,M,M,M,M,M,M,82.35,KSBD 230634Z AUTO 00000KT 10SM CLR 29/08 A2988 RMK AO2 T02940077,M
SBD,2016-07-23 06:55,85.10,46.40,25.99,0.00,0.00,0.00,29.88,M,10.00,M,CLR,M,M,M,M,M,M,M,M,M,M,M,M,M,M,82.53,KSBD 230655Z AUTO 00000KT 10SM CLR 30/08 A2988 RMK AO2 T02950080,M
SBD,2016-07-23 07:14,85.10,45.14,24.78,0.00,0.00,0.00,29.88,M,10.00,M,CLR,M,M,M,M,M,M,M,M,M,M,M,M,M,M,82.43,KSBD 230714Z AUTO 00000KT 10SM CLR 30/07 A2988 RMK AO2 T02950073,M
SBD,2016-07-23 07:34,83.84,46.94,27.63,100.00,3.00,0.00,29.87,M,10.00,M,CLR,M,M,M,M,M,M,M,M,M,M,M,M,M,M,81.66,KSBD 230734Z AUTO 10003KT 10SM CLR 29/08 A2987 RMK AO2 T02880083,M
SBD,2016-07-23 07:55,83.66,47.30,28.17,0.00,0.00,0.00,29.87,M,10.00,M,CLR,M,M,M,M,M,M,M,M,M,M,M,M,M,M,81.56,KSBD 230755Z AUTO 00000KT 10SM CLR 29/09 A2987 RMK AO2 T02870085,M
SBD,2016-07-23 08:14,82.76,47.30,29.00,0.00,0.00,0.00,29.87,M,10.00,M,CLR,M,M,M,M,M,M,M,M,M,M,M,M,M,M,80.95,KSBD 230814Z AUTO 00000KT 10SM CLR 28/09 A2987 RMK AO2 T02820085,M
SBD,2016-07-23 08:34,81.68,46.94,29.63,0.00,0.00,0.00,29.86,M,10.00,M,CLR,M,M,M,M,M,M,M,M,M,M,M,M,M,M,80.23,KSBD 230834Z AUTO 00000KT 10SM CLR 28/08 A2986 RMK AO2 T02760083,M
SBD,2016-07-23 08:55,82.58,44.78,26.51,60.00,3.00,0.00,29.85,M,10.00,M,CLR,M,M,M,M,M,M,M,M,M,M,M,M,M,M,80.63,KSBD 230855Z AUTO 06003KT 10SM CLR 28/07 A2985 RMK AO2 T02810071,M
SBD,2016-07-23 09:14,79.88,44.78,28.95,60.00,3.00,0.00,29.84,M,10.00,M,CLR,M,M,M,M,M,M,M,M,M,M,M,M,M,M,79.88,KSBD 230914Z AUTO 06003KT 10SM CLR 27/07 A2984 RMK AO2 T02660071,M
SBD,2016-07-23 09:34,80.60,44.24,27.70,80.00,3.00,0.00,29.85,M,10.00,M,CLR,M,M,M,M,M,M,M,M,M,M,M,M,M,M,79.40,KSBD 230934Z AUTO 08003KT 10SM CLR 27/07 A2985 RMK AO2 T02700068,M
SBD,2016-07-23 09:55,80.60,45.86,29.46,0.00,0.00,0.00,29.84,M,10.00,M,CLR,M,M,M,M,M,M,M,M,M,M,M,M,M,M,79.52,KSBD 230955Z AUTO 00000KT 10SM CLR 27/08 A2984 RMK AO2 T02700077,M
SBD,2016-07-23 10:14,79.16,46.04,31.10,0.00,0.00,0.00,29.84,M,10.00,M,CLR,M,M,M,M,M,M,M,M,M,M,M,M,M,M,79.16,KSBD 231014Z AUTO 00000KT 10SM CLR 26/08 A2984 RMK AO2 T02620078,M
SBD,2016-07-23 10:34,79.70,47.48,32.26,0.00,0.00,0.00,29.84,M,10.00,M,CLR,M,M,M,M,M,M,M,M,M,M,M,M,M,M,79.70,KSBD 231034Z AUTO 00000KT 10SM CLR 27/09 A2984 RMK AO2 T02650086,M
SBD,2016-07-23 10:55,79.70,46.22,30.76,0.00,0.00,0.00,29.84,M,10.00,M,CLR,M,M,M,M,M,M,M,M,M,M,M,M,M,M,79.70,KSBD 231055Z AUTO 00000KT 10SM CLR 27/08 A2984 RMK AO2 T02650079,M
SBD,2016-07-23 11:14,78.26,43.16,28.70,60.00,3.00,0.00,29.84,M,10.00,M,CLR,M,M,M,M,M,M,M,M,M,M,M,M,M,M,77.14,KSBD 231114Z AUTO 06003KT 10SM CLR 26/06 A2984 RMK AO2 T02570062,M
SBD,2016-07-23 11:34,77.72,42.26,28.23,0.00,0.00,0.00,29.84,M,10.00,M,CLR,M,M,M,M,M,M,M,M,M,M,M,M,M,M,76.52,KSBD 231134Z AUTO 00000KT 10SM CLR 25/06 A2984 RMK AO2 T02540057,M
SBD,2016-07-23 11:55,77.90,44.96,31.11,0.00,0.00,0.00,29.84,M,10.00,M,CLR,M,M,M,M,M,M,M,M,M,M,M,M,M,M,76.85,KSBD 231155Z AUTO 00000KT 10SM CLR 26/07 A2984 RMK AO2 T02550072,M
SBD,2016-07-23 12:14,77.90,42.44,28.25,0.00,0.00,0.00,29.85,M,10.00,M,CLR,M,M,M,M,M,M,M,M,M,M,M,M,M,M,76.72,KSBD 231214Z AUTO 00000KT 10SM CLR 26/06 A2985 RMK AO2 T02550058,M
SBD,2016-07-23 12:34,77.00,43.88,30.76,0.00,0.00,0.00,29.85,M,10.00,M,CLR,M,M,M,M,M,M,M,M,M,M,M,M,M,M,75.85,KSBD 231234Z AUTO 00000KT 10SM CLR 25/07 A2985 RMK AO2 T02500066,M
SBD,2016-07-23 12:55,76.64,44.24,31.56,0.00,0.00,0.00,29.86,M,10.00,M,CLR,M,M,M,M,M,M,M,M,M,M,M,M,M,M,75.49,KSBD 231255Z AUTO 00000KT 10SM CLR 25/07 A2986 RMK AO2 T02480068,M
SBD,2016-07-23 13:14,76.28,42.44,29.81,0.00,0.00,0.00,29.87,M,10.00,M,CLR,M,M,M,M,M,M,M,M,M,M,M,M,M,M,75.01,KSBD 231314Z AUTO 00000KT 10SM CLR 25/06 A2987 RMK AO2 T02460058,M
SBD,2016-07-23 13:34,77.36,42.44,28.76,160.00,3.00,0.00,29.87,M,10.00,M,CLR,M,M,M,M,M,M,M,M,M,M,M,M,M,M,76.15,KSBD 231334Z AUTO 16003KT 10SM CLR 25/06 A2987 RMK AO2 T02520058,M
SBD,2016-07-23 13:54,77.90,44.60,30.69,0.00,0.00,0.00,29.87,M,10.00,M,CLR,M,M,M,M,M,M,M,M,M,M,M,M,M,M,76.83,KSBD 231354Z AUTO 00000KT 10SM CLR 26/07 A2987 RMK AO2 T02550070,M
SBD,2016-07-23 14:50,82.40,44.60,26.49,0.00,0.00,0.00,29.88,M,7.00,M,FEW,M,M,M,6000.00,M,M,M,M,M,M,M,M,M,M,80.50,KSBD 231450Z 00000KT 7SM FEW060 28/07 A2988,M
SBD,2016-07-23 15:50,89.60,41.00,18.33,0.00,0.00,0.00,29.88,M,7.00,M,CLR,M,M,M,M,M,M,M,M,M,M,M,M,M,M,85.82,KSBD 231550Z 00000KT 7SM SKC 32/05 A2988,M
SBD,2016-07-23 16:50,95.00,41.00,15.49,300.00,4.00,0.00,29.87,M,7.00,M,CLR,M,M,M,M,M,M,M,M,M,M,M,M,M,M,90.70,KSBD 231650Z 30004KT 7SM SKC 35/05 A2987,M
SBD,2016-07-23 17:50,100.40,44.60,15.08,0.00,0.00,0.00,29.85,M,7.00,M,CLR,M,M,M,M,M,M,M,M,M,M,M,M,M,M,96.31,KSBD 231750Z 00000KT 7SM SKC 38/07 A2985,M
SBD,2016-07-23 18:50,105.80,46.40,13.75,320.00,3.00,0.00,29.83,M,7.00,M,CLR,M,M,M,M,M,M,M,M,M,M,M,M,M,M,101.97,KSBD 231850Z 32003KT 07SM SKC 41/08 A2983,M
SBD,2016-07-23 19:55,109.40,41.00,10.06,300.00,5.00,0.00,29.81,M,7.00,M,CLR,M,M,M,M,M,M,M,M,M,M,M,M,M,M,103.77,KSBD 231955Z 30005KT 07SM SKC 43/05 A2981,M
SBD,2016-07-23 20:46,109.40,41.00,10.06,270.00,6.00,0.00,29.80,M,7.00,M,CLR,M,M,M,M,M,M,M,M,M,M,M,M,M,M,103.77,KSBD 232046Z 27006KT 07SM SKC 43/05 A2980,M
SBD,2016-07-23 21:47,111.20,39.20,8.90,260.00,12.00,0.00,29.78,M,7.00,M,CLR,M,M,M,M,M,M,M,M,M,M,M,M,M,M,104.98,KSBD 232147Z 26012KT 7SM SKC 44/04 A2978,M
SBD,2016-07-23 22:47,109.40,48.20,13.24,250.00,15.00,0.00,29.77,M,7.00,M,CLR,M,M,M,M,M,M,M,M,M,M,M,M,M,M,105.97,KSBD 232247Z 25015KT 7SM SKC 43/09 A2977,M
SBD,2016-07-23 23:48,104.00,46.40,14.50,240.00,17.00,0.00,29.78,M,7.00,M,CLR,M,M,M,M,M,M,M,M,M,M,M,M,M,M,100.21,KSBD 232348Z 24017KT 07SM SKC 40/08 A2978,M
SBD,2016-07-24 00:55,98.60,51.80,20.87,270.00,9.00,0.00,29.80,M,7.00,M,CLR,M,M,M,M,M,M,M,M,M,M,M,M,M,M,96.00,KSBD 240055Z 27009KT 07SM SKC 37/11 A2980,M
SBD,2016-07-24 01:50,95.00,55.40,26.58,260.00,11.00,0.00,29.81,M,7.00,M,CLR,M,M,M,M,M,M,M,M,M,M,M,M,M,M,93.22,KSBD 240150Z 26011KT 07SM SKC 35/13 A2981,M
SBD,2016-07-24 02:46,89.60,57.20,33.56,230.00,11.00,0.00,29.83,M,7.00,M,CLR,M,M,M,M,M,M,M,M,M,M,M,M,M,M,88.28,KSBD 240246Z 23011KT 07SM SKC 32/14 A2983,M
SBD,2016-07-24 03:47,86.00,59.00,40.14,250.00,6.00,0.00,29.86,M,7.00,M,CLR,M,M,M,M,M,M,M,M,M,M,M,M,M,M,85.47,KSBD 240347Z 25006KT 07SM SKC 30/15 A2986 RMK LAST,M
SBD,2016-07-24 04:14,84.02,59.90,44.17,240.00,7.00,0.00,29.87,M,10.00,M,CLR,M,M,M,M,M,M,M,M,M,M,M,M,M,M,84.01,KSBD 240414Z AUTO 24007KT 10SM CLR 29/16 A2987 RMK AO2 T02890155,M
SBD,2016-07-24 04:34,82.94,59.90,45.73,240.00,5.00,0.00,29.88,M,10.00,M,CLR,M,M,M,M,M,M,M,M,M,M,M,M,M,M,83.11,KSBD 240434Z AUTO 24005KT 10SM CLR 28/16 A2988 RMK AO2 T02830155,M
SBD,2016-07-24 04:54,82.76,59.90,46.00,240.00,4.00,0.00,29.88,M,10.00,M,CLR,M,M,M,M,M,M,M,M,M,M,M,M,M,M,82.97,KSBD 240454Z AUTO 24004KT 10SM CLR 28/16 A2988 RMK AO2 T02820155,M
SBD,2016-07-24 05:14,82.40,59.90,46.54,240.00,3.00,0.00,29.88,M,10.00,M,CLR,M,M,M,M,M,M,M,M,M,M,M,M,M,M,82.68,KSBD 240514Z AUTO 24003KT 10SM CLR 28/16 A2988 RMK AO2 T02800155,M
SBD,2016-07-24 05:34,82.40,58.64,44.49,240.00,4.00,0.00,29.88,M,10.00,M,CLR,M,M,M,M,M,M,M,M,M,M,M,M,M,M,82.38,KSBD 240534Z AUTO 24004KT 10SM CLR 28/15 A2988 RMK AO2 T02800148,M
SBD,2016-07-24 05:54,82.04,58.28,44.44,240.00,3.00,0.00,29.88,M,10.00,M,CLR,M,M,M,M,M,M,M,M,M,M,M,M,M,M,82.03,KSBD 240554Z AUTO 24003KT 10SM CLR 28/15 A2988 RMK AO2 T02780146,M
SBD,2016-07-24 06:14,81.50,57.20,43.50,250.00,3.00,0.00,29.89,M,10.00,M,CLR,M,M,M,M,M,M,M,M,M,M,M,M,M,M,81.43,KSBD 240614Z AUTO 25003KT 10SM CLR 28/14 A2989 RMK AO2 T02750140,M
SBD,2016-07-24 06:34,81.50,57.38,43.78,270.00,3.00,0.00,29.88,M,10.00,M,CLR,M,M,M,M,M,M,M,M,M,M,M,M,M,M,81.46,KSBD 240634Z AUTO 27003KT 10SM CLR 28/14 A2988 RMK AO2 T02750141,M
SBD,2016-07-24 06:54,80.78,57.38,44.82,0.00,0.00,0.00,29.88,M,10.00,M,CLR,M,M,M,M,M,M,M,M,M,M,M,M,M,M,80.96,KSBD 240654Z AUTO 00000KT 10SM CLR 27/14 A2988 RMK AO2 T02710141,M
SBD,2016-07-24 07:14,80.78,57.38,44.82,0.00,0.00,0.00,29.87,M,10.00,M,CLR,M,M,M,M,M,M,M,M,M,M,M,M,M,M,80.96,KSBD 240714Z AUTO 00000KT 10SM CLR 27/14 A2987 RMK AO2 T02710141,M
SBD,2016-07-24 07:34,80.78,57.20,44.53,190.00,3.00,0.00,29.87,M,10.00,M,CLR,M,M,M,M,M,M,M,M,M,M,M,M,M,M,80.93,KSBD 240734Z AUTO 19003KT 10SM CLR 27/14 A2987 RMK AO2 T02710140,M
SBD,2016-07-24 07:54,80.60,57.56,45.38,0.00,0.00,0.00,29.87,M,10.00,M,CLR,M,M,M,M,M,M,M,M,M,M,M,M,M,M,80.87,KSBD 240754Z AUTO 00000KT 10SM CLR 27/14 A2987 RMK AO2 T02700142,M
SBD,2016-07-24 08:14,80.42,57.20,45.06,0.00,0.00,0.00,29.87,M,10.00,M,CLR,M,M,M,M,M,M,M,M,M,M,M,M,M,M,80.69,KSBD 240814Z AUTO 00000KT 10SM CLR 27/14 A2987 RMK AO2 T02690140,M
SBD,2016-07-24 08:34,79.34,56.66,45.78,0.00,0.00,0.00,29.87,M,10.00,M,CLR,M,M,M,M,M,M,M,M,M,M,M,M,M,M,79.34,KSBD 240834Z AUTO 00000KT 10SM CLR 26/14 A2987 RMK AO2 T02630137,M
SBD,2016-07-24 08:54,78.98,57.92,48.48,0.00,0.00,0.00,29.87,M,10.00,M,CLR,M,M,M,M,M,M,M,M,M,M,M,M,M,M,78.98,KSBD 240854Z AUTO 00000KT 10SM CLR 26/14 A2987 RMK AO2 T02610144,M
SBD,2016-07-24 09:14,78.26,57.20,48.37,0.00,0.00,0.00,29.87,M,10.00,M,CLR,M,M,M,M,M,M,M,M,M,M,M,M,M,M,78.26,KSBD 240914Z AUTO 00000KT 10SM CLR 26/14 A2987 RMK AO2 T02570140,M
SBD,2016-07-24 09:34,75.92,58.28,54.34,0.00,0.00,0.00,29.86,M,10.00,M,CLR,M,M,M,M,M,M,M,M,M,M,M,M,M,M,75.92,KSBD 240934Z AUTO 00000KT 10SM CLR 24/15 A2986 RMK AO2 T02440146,M
SBD,2016-07-24 09:54,77.54,58.10,51.17,100.00,3.00,0.00,29.85,M,10.00,M,CLR,M,M,M,M,M,M,M,M,M,M,M,M,M,M,77.54,KSBD 240954Z AUTO 10003KT 10SM CLR 25/15 A2985 RMK AO2 T02530145,M
SBD,2016-07-24 10:14,76.28,57.56,52.33,0.00,0.00,0.00,29.85,M,10.00,M,CLR,M,M,M,M,M,M,M,M,M,M,M,M,M,M,76.28,KSBD 241014Z AUTO 00000KT 10SM CLR 25/14 A2985 RMK AO2 T02460142,M
SBD,2016-07-24 10:34,77.00,55.58,47.56,0.00,0.00,0.00,29.85,M,10.00,M,CLR,M,M,M,M,M,M,M,M,M,M,M,M,M,M,77.00,KSBD 241034Z AUTO 00000KT 10SM CLR 25/13 A2985 RMK AO2 T02500131,M
SBD,2016-07-24 10:54,77.18,56.48,48.85,0.00,0.00,0.00,29.85,M,10.00,M,CLR,M,M,M,M,M,M,M,M,M,M,M,M,M,M,77.18,KSBD 241054Z AUTO 00000KT 10SM CLR 25/14 A2985 RMK AO2 T02510136,M
SBD,2016-07-24 11:14,75.38,55.40,49.87,0.00,0.00,0.00,29.85,M,10.00,M,CLR,M,M,M,M,M,M,M,M,M,M,M,M,M,M,75.38,KSBD 241114Z AUTO 00000KT 10SM CLR 24/13 A2985 RMK AO2 T02410130,M
SBD,2016-07-24 11:34,75.20,55.04,49.52,0.00,0.00,0.00,29.86,M,10.00,M,CLR,M,M,M,M,M,M,M,M,M,M,M,M,M,M,75.20,KSBD 241134Z AUTO 00000KT 10SM CLR 24/13 A2986 RMK AO2 T02400128,M
SBD,2016-07-24 11:54,73.94,54.86,51.31,170.00,3.00,0.00,29.86,M,10.00,M,CLR,M,M,M,M,M,M,M,M,M,M,M,M,M,M,73.94,KSBD 241154Z AUTO 17003KT 10SM CLR 23/13 A2986 RMK AO2 T02330127,M
SBD,2016-07-24 12:14,73.94,55.22,51.99,0.00,0.00,0.00,29.87,M,10.00,M,CLR,M,M,M,M,M,M,M,M,M,M,M,M,M,M,73.94,KSBD 241214Z AUTO 00000KT 10SM CLR 23/13 A2987 RMK AO2 T02330129,M
SBD,2016-07-24 12:33,74.66,55.76,51.75,0.00,0.00,0.00,29.87,M,10.00,M,CLR,M,M,M,M,M,M,M,M,M,M,M,M,M,M,74.66,KSBD 241233Z AUTO 00000KT 10SM CLR 24/13 A2987 RMK AO2 T02370132,M
SBD,2016-07-24 12:54,74.30,55.58,52.04,0.00,0.00,0.00,29.88,M,10.00,M,CLR,M,M,M,M,M,M,M,M,M,M,M,M,M,M,74.30,KSBD 241254Z AUTO 00000KT 10SM CLR 24/13 A2988 RMK AO2 T02350131,M
SBD,2016-07-24 13:14,74.12,55.76,52.70,0.00,0.00,0.00,29.88,M,10.00,M,CLR,M,M,M,M,M,M,M,M,M,M,M,M,M,M,74.12,KSBD 241314Z AUTO 00000KT 10SM CLR 23/13 A2988 RMK AO2 T02340132,M
SBD,2016-07-24 13:33,73.94,55.76,53.02,0.00,0.00,0.00,29.89,M,10.00,M,CLR,M,M,M,M,M,M,M,M,M,M,M,M,M,M,73.94,KSBD 241333Z AUTO 00000KT 10SM CLR 23/13 A2989 RMK AO2 T02330132,M
SBD,2016-07-24 13:54,74.66,55.58,51.42,0.00,0.00,0.00,29.89,M,10.00,M,CLR,M,M,M,M,M,M,M,M,M,M,M,M,M,M,74.66,KSBD 241354Z AUTO 00000KT 10SM CLR 24/13 A2989 RMK AO2 T02370131,M
SBD,2016-07-24 14:50,80.60,55.40,41.97,0.00,0.00,0.00,29.91,M,7.00,M,CLR,M,M,M,M,M,M,M,M,M,M,M,M,M,M,80.53,KSBD 241450Z 00000KT 7SM SKC 27/13 A2991,M
SBD,2016-07-24 15:47,84.20,55.40,37.35,0.00,0.00,0.00,29.92,M,7.00,M,CLR,M,M,M,M,M,M,M,M,M,M,M,M,M,M,83.09,KSBD 241547Z 00000KT 7SM SKC 29/13 A2992,M
SBD,2016-07-24 16:50,87.80,53.60,31.17,0.00,0.00,0.00,29.93,M,7.00,M,CLR,M,M,M,M,M,M,M,M,M,M,M,M,M,M,85.72,KSBD 241650Z 00000KT 7SM SKC 31/12 A2993,M
SBD,2016-07-24 17:58,93.20,50.00,23.04,250.00,4.00,0.00,29.94,M,7.00,M,CLR,M,M,M,M,M,M,M,M,M,M,M,M,M,M,90.10,KSBD 241758Z 25004KT 07SM SKC 34/10 A2994,M
SBD,2016-07-24 18:50,98.60,44.60,15.93,220.00,6.00,0.00,29.94,M,7.00,M,CLR,M,M,M,M,M,M,M,M,M,M,M,M,M,M,94.55,KSBD 241850Z 22006KT 07SM SKC 37/07 A2994,M
SBD,2016-07-24 19:47,100.40,44.60,15.08,250.00,9.00,0.00,29.92,M,7.00,M,CLR,M,M,M,M,M,M,M,M,M,M,M,M,M,M,96.31,KSBD 241947Z 25009KT 7SM SKC 38/07 A2992,M
SBD,2016-07-24 20:47,100.40,46.40,16.15,250.00,7.00,0.00,29.91,M,7.00,M,CLR,M,M,M,M,M,M,M,M,M,M,M,M,M,M,96.63,KSBD 242047Z 25007KT 7SM SKC 38/08 A2991,M
SBD,2016-07-24 21:50,100.40,48.20,17.28,260.00,8.00,0.00,29.90,M,7.00,M,CLR,M,M,M,M,M,M,M,M,M,M,M,M,M,M,97.00,KSBD 242150Z 26008KT 7SM SKC 38/09 A2990,M
SBD,2016-07-24 22:55,100.40,50.00,18.48,250.00,11.00,0.00,29.90,M,7.00,M,CLR,M,M,M,M,M,M,M,M,M,M,M,M,M,M,97.42,KSBD 242255Z 25011KT 07SM SKC 38/10 A2990,M
SBD,2016-07-24 23:55,98.60,46.40,17.05,260.00,12.00,0.00,29.88,M,7.00,M,CLR,M,M,M,M,M,M,M,M,M,M,M,M,M,M,94.84,KSBD 242355Z 26012KT 07SM SKC 37/08 A2988,M
SBD,2016-07-25 00:50,98.60,39.20,12.94,270.00,11.00,0.00,29.88,M,7.00,M,CLR,M,M,M,M,M,M,M,M,M,M,M,M,M,M,93.89,KSBD 250050Z 27011KT 7SM SKC 37/04 A2988,M
SBD,2016-07-25 01:50,95.00,39.20,14.44,260.00,10.00,0.00,29.89,M,7.00,M,CLR,M,M,M,M,M,M,M,M,M,M,M,M,M,M,90.57,KSBD 250150Z 26010KT 7SM SKC 35/04 A2989,M
SBD,2016-07-25 02:50,91.40,37.40,15.05,260.00,7.00,0.00,29.91,M,7.00,M,SCT,M,M,M,8000.00,M,M,M,M,M,M,M,M,M,M,87.23,KSBD 250250Z 26007KT 7SM SCT080 33/03 A2991,M
SBD,2016-07-25 03:50,87.80,41.00,19.40,240.00,6.00,0.00,29.91,M,7.00,M,SCT,M,M,M,8000.00,M,M,M,M,M,M,M,M,M,M,84.30,KSBD 250350Z 24006KT 7SM SCT080 31/05 A2991 RMK LAST,M
SBD,2016-07-25 04:14,87.44,45.50,23.31,250.00,5.00,0.00,29.93,M,10.00,M,CLR,M,M,M,M,M,M,M,M,M,M,M,M,M,M,84.30,KSBD 250414Z AUTO 25005KT 10SM CLR 31/08 A2993 RMK AO2 T03080075,M
SBD,2016-07-25 04:34,86.90,46.58,24.71,260.00,3.00,0.00,29.93,M,10.00,M,CLR,M,M,M,M,M,M,M,M,M,M,M,M,M,M,83.96,KSBD 250434Z AUTO 26003KT 10SM CLR 31/08 A2993 RMK AO2 T03050081,M
SBD,2016-07-25 04:54,85.64,46.76,25.90,260.00,4.00,0.00,29.94,M,10.00,M,CLR,M,M,M,M,M,M,M,M,M,M,M,M,M,M,82.97,KSBD 250454Z AUTO 26004KT 10SM CLR 30/08 A2994 RMK AO2 T02980082,M
SBD,2016-07-25 05:14,85.10,46.58,26.17,280.00,3.00,0.00,29.93,M,10.00,M,CLR,M,M,M,M,M,M,M,M,M,M,M,M,M,M,82.54,KSBD 250514Z AUTO 28003KT 10SM CLR 30/08 A2993 RMK AO2 T02950081,M
SBD,2016-07-25 05:34,85.82,45.32,24.38,270.00,5.00,0.00,29.94,M,10.00,M,CLR,M,M,M,M,M,M,M,M,M,M,M,M,M,M,82.99,KSBD 250534Z AUTO 27005KT 10SM CLR 30/07 A2994 RMK AO2 T02990074,M
SBD,2016-07-25 05:54,83.66,47.30,28.17,240.00,5.00,0.00,29.94,M,10.00,M,CLR,M,M,M,M,M,M,M,M,M,M,M,M,M,M,81.56,KSBD 250554Z AUTO 24005KT 10SM CLR 29/09 A2994 RMK AO2 T02870085,M
SBD,2016-07-25 06:14,82.58,49.46,31.62,240.00,3.00,0.00,29.94,M,10.00,M,CLR,M,M,M,M,M,M,M,M,M,M,M,M,M,M,81.05,KSBD 250614Z AUTO 24003KT 10SM CLR 28/10 A2994 RMK AO2 T02810097,M
SBD,2016-07-25 06:34,81.50,50.36,33.87,260.00,5.00,0.00,29.94,M,10.00,M,CLR,M,M,M,M,M,M,M,M,M,M,M,M,M,M,80.45,KSBD 250634Z AUTO 26005KT 10SM CLR 28/10 A2994 RMK AO2 T02750102,M
SBD,2016-07-25 06:54,79.88,51.26,36.92,250.00,5.00,0.00,29.94,M,10.00,M,CLR,M,M,M,M,M,M,M,M,M,M,M,M,M,M,79.88,KSBD 250654Z AUTO 25005KT 10SM CLR 27/11 A2994 RMK AO2 T02660107,M
SBD,2016-07-25 07:14,79.88,52.34,38.42,240.00,5.00,0.00,29.94,M,10.00,M,CLR,M,M,M,M,M,M,M,M,M,M,M,M,M,M,79.88,KSBD 250714Z AUTO 24005KT 10SM CLR 27/11 A2994 RMK AO2 T02660113,M
SBD,2016-07-25 07:34,79.34,52.34,39.11,250.00,6.00,0.00,29.94,M,10.00,M,CLR,M,M,M,M,M,M,M,M,M,M,M,M,M,M,79.34,KSBD 250734Z AUTO 25006KT 10SM CLR 26/11 A2994 RMK AO2 T02630113,M
SBD,2016-07-25 07:54,78.80,53.60,41.69,240.00,7.00,0.00,29.94,M,10.00,M,CLR,M,M,M,M,M,M,M,M,M,M,M,M,M,M,78.80,KSBD 250754Z AUTO 24007KT 10SM CLR 26/12 A2994 RMK AO2 T02600120,M
SBD,2016-07-25 08:14,77.90,54.50,44.39,260.00,5.00,0.00,29.95,M,10.00,M,CLR,M,M,M,M,M,M,M,M,M,M,M,M,M,M,77.90,KSBD 250814Z AUTO 26005KT 10SM CLR 26/13 A2995 RMK AO2 T02550125,M
SBD,2016-07-25 08:34,77.00,55.22,46.94,250.00,3.00,0.00,29.96,M,10.00,M,CLR,M,M,M,M,M,M,M,M,M,M,M,M,M,M,77.00,KSBD 250834Z AUTO 25003KT 10SM CLR 25/13 A2996 RMK AO2 T02500129,M
SBD,2016-07-25 08:54,77.18,55.40,46.97,0.00,0.00,0.00,29.96,M,10.00,M,CLR,M,M,M,M,M,M,M,M,M,M,M,M,M,M,77.18,KSBD 250854Z AUTO 00000KT 10SM CLR 25/13 A2996 RMK AO2 T02510130,M
SBD,2016-07-25 09:14,77.00,55.94,48.19,260.00,3.00,0.00,29.96,M,10.00,M,CLR,M,M,M,M,M,M,M,M,M,M,M,M,M,M,77.00,KSBD 250914Z AUTO 26003KT 10SM CLR 25/13 A2996 RMK AO2 T02500133,M
SBD,2016-07-25 09:34,75.74,56.30,50.91,250.00,4.00,0.00,29.96,M,10.00,M,CLR,M,M,M,M,M,M,M,M,M,M,M,M,M,M,75.74,KSBD 250934Z AUTO 25004KT 10SM CLR 24/14 A2996 RMK AO2 T02430135,M
SBD,2016-07-25 09:54,75.20,56.84,52.85,0.00,0.00,0.00,29.95,M,10.00,M,CLR,M,M,M,M,M,M,M,M,M,M,M,M,M,M,75.20,KSBD 250954Z AUTO 00000KT 10SM CLR 24/14 A2995 RMK AO2 T02400138,M
SBD,2016-07-25 10:14,75.20,58.10,55.31,0.00,0.00,0.00,29.95,M,10.00,M,CLR,M,M,M,M,M,M,M,M,M,M,M,M,M,M,75.20,KSBD 251014Z AUTO 00000KT 10SM CLR 24/15 A2995 RMK AO2 T02400145,M
SBD,2016-07-25 10:34,75.02,58.28,56.00,0.00,0.00,0.00,29.95,M,10.00,M,CLR,M,M,M,M,M,M,M,M,M,M,M,M,M,M,75.02,KSBD 251034Z AUTO 00000KT 10SM CLR 24/15 A2995 RMK AO2 T02390146,M
SBD,2016-07-25 10:54,75.02,58.28,56.00,0.00,0.00,0.00,29.95,M,10.00,M,CLR,M,M,M,M,M,M,M,M,M,M,M,M,M,M,75.02,KSBD 251054Z AUTO 00000KT 10SM CLR 24/15 A2995 RMK AO2 T02390146,M
SBD,2016-07-25 11:14,74.66,58.46,57.05,0.00,0.00,0.00,29.95,M,10.00,M,CLR,M,M,M,M,M,M,M,M,M,M,M,M,M,M,74.66,KSBD 251114Z AUTO 00000KT 10SM CLR 24/15 A2995 RMK AO2 T02370147,M
SBD,2016-07-25 11:34,73.22,53.78,50.54,0.00,0.00,0.00,29.95,M,10.00,M,CLR,M,M,M,M,M,M,M,M,M,M,M,M,M,M,73.22,KSBD 251134Z AUTO 00000KT 10SM CLR 23/12 A2995 RMK AO2 T02290121,M
SBD,2016-07-25 11:54,73.58,50.36,44.02,0.00,0.00,0.00,29.95,M,10.00,M,CLR,M,M,M,M,M,M,M,M,M,M,M,M,M,M,73.58,KSBD 251154Z AUTO 00000KT 10SM CLR 23/10 A2995 RMK AO2 T02310102,M
SBD,2016-07-25 12:14,73.40,48.92,41.97,0.00,0.00,0.00,29.95,M,10.00,M,CLR,M,M,M,M,M,M,M,M,M,M,M,M,M,M,73.40,KSBD 251214Z AUTO 00000KT 10SM CLR 23/09 A2995 RMK AO2 T02300094,M
SBD,2016-07-25 12:34,73.58,48.92,41.72,0.00,0.00,0.00,29.96,M,10.00,M,CLR,M,M,M,M,M,M,M,M,M,M,M,M,M,M,73.58,KSBD 251234Z AUTO 00000KT 10SM CLR 23/09 A2996 RMK AO2 T02310094,M
SBD,2016-07-25 12:54,72.86,50.00,44.50,0.00,0.00,0.00,29.96,M,10.00,M,CLR,M,M,M,M,M,M,M,M,M,M,M,M,M,M,72.86,KSBD 251254Z AUTO 00000KT 10SM CLR 23/10 A2996 RMK AO2 T02270100,M
SBD,2016-07-25 13:14,73.40,50.18,43.99,0.00,0.00,0.00,29.97,M,10.00,M,CLR,M,M,M,M,M,M,M,M,M,M,M,M,M,M,73.40,KSBD 251314Z AUTO 00000KT 10SM CLR 23/10 A2997 RMK AO2 T02300101,M
SBD,2016-07-25 13:34,73.40,50.54,44.58,0.00,0.00,0.00,29.97,M,10.00,M,CLR,M,M,M,M,M,M,M,M,M,M,M,M,M,M,73.40,KSBD 251334Z AUTO 00000KT 10SM CLR 23/10 A2997 RMK AO2 T02300103,M
SBD,2016-07-25 14:00,73.40,48.20,40.85,0.00,0.00,0.00,29.99,M,10.00,M,FEW,M,M,M,10000.00,M,M,M,M,M,M,M,M,M,M,72.36,KSBD 251400Z 00000KT 10SM FEW100 23/09 A2999,M
SBD,2016-07-25 14:45,78.80,50.00,36.51,0.00,0.00,0.00,30.01,M,10.00,M,SCT,M,M,M,10000.00,M,M,M,M,M,M,M,M,M,M,78.80,KSBD 251445Z 00000KT 10SM SCT100 26/10 A3001,M
SBD,2016-07-25 15:45,82.40,50.00,32.46,0.00,0.00,0.00,30.01,M,10.00,M,SCT,M,M,M,10000.00,M,M,M,M,M,M,M,M,M,M,80.99,KSBD 251545Z 00000KT 10SM SCT100 28/10 A3001,M
SBD,2016-07-25 17:47,91.40,41.00,17.32,0.00,0.00,0.00,29.99,M,10.00,M,SCT,M,M,M,15000.00,M,M,M,M,M,M,M,M,M,M,87.40,KSBD 251747Z 00000KT 10SM SCT150 33/05 A2999,M
SBD,2016-07-25 18:45,95.00,42.80,16.60,290.00,5.00,0.00,29.99,M,10.00,M,SCT,M,M,M,15000.00,M,M,M,M,M,M,M,M,M,M,90.86,KSBD 251845Z 29005KT 10SM SCT150 35/06 A2999,M
SBD,2016-07-25 20:50,102.20,41.00,12.44,260.00,8.00,0.00,29.93,M,10.00,M,FEW,SCT,M,M,6000.00,15000.00,M,M,M,M,M,M,M,M,M,97.39,KSBD 252050Z 26008KT 10SM FEW060 SCT150 39/05 A2993,M
SBD,2016-07-25 21:48,102.20,37.40,10.81,250.00,6.00,0.00,29.90,M,10.00,M,FEW,SCT,M,M,6000.00,15000.00,M,M,M,M,M,M,M,M,M,96.63,KSBD 252148Z 25006KT 10SM FEW060 SCT150 39/03 A2990,M
SBD,2016-07-25 22:53,104.00,39.20,11.00,250.00,6.00,0.00,29.88,M,10.00,M,FEW,SCT,M,M,6000.00,15000.00,M,M,M,M,M,M,M,M,M,98.56,KSBD 252253Z 25006KT 10SM FEW060 SCT150 40/04 A2988,M
SBD,2016-07-25 23:49,102.20,44.60,14.29,240.00,8.00,0.00,29.86,M,10.00,M,FEW,SCT,M,M,6000.00,15000.00,M,M,M,M,M,M,M,M,M,98.07,KSBD 252349Z 24008KT 10SM FEW060 SCT150 39/07 A2986,M
SBD,2016-07-26 01:50,95.00,53.60,24.89,250.00,12.00,0.00,29.87,M,7.00,M,FEW,BKN,M,M,6000.00,15000.00,M,M,M,M,M,M,M,M,M,92.71,KSBD 260150Z 25012KT 7SM FEW060 BKN150 35/12 A2987,M
SBD,2016-07-26 02:50,89.60,50.00,25.79,270.00,9.00,0.00,29.89,M,7.00,M,FEW,BKN,M,M,6000.00,15000.00,M,M,M,M,M,M,M,M,M,86.70,KSBD 260250Z 27009KT 7SM FEW060 BKN150 32/10 A2989,M
SBD,2016-07-26 03:50,86.00,53.60,33.01,250.00,7.00,0.00,29.91,M,6.00,M,FEW,BKN,M,M,6000.00,15000.00,M,M,HZ,M,M,M,M,M,M,84.18,KSBD 260350Z 25007KT 6SM HZ FEW060 BKN150 30/12 A2991 RMK LAST,M
SBD,2016-07-26 04:14,86.00,54.50,34.12,260.00,7.00,0.00,29.93,M,10.00,M,CLR,M,M,M,M,M,M,M,M,M,M,M,M,M,M,84.36,KSBD 260414Z AUTO 26007KT 10SM CLR 30/13 A2993 RMK AO2 T03000125,M
SBD,2016-07-26 04:34,85.64,53.96,33.84,270.00,7.00,0.00,29.94,M,10.00,M,CLR,M,M,M,M,M,M,M,M,M,M,M,M,M,M,83.95,KSBD 260434Z AUTO 27007KT 10SM CLR 30/12 A2994 RMK AO2 T02980122,M
SBD,2016-07-26 04:54,85.28,52.34,32.25,260.00,6.00,0.00,29.94,M,10.00,M,CLR,M,M,M,M,M,M,M,M,M,M,M,M,M,M,83.38,KSBD 260454Z AUTO 26006KT 10SM CLR 30/11 A2994 RMK AO2 T02960113,M
SBD,2016-07-26 05:14,84.20,52.52,33.61,250.00,6.00,0.00,29.94,M,10.00,M,CLR,M,M,M,M,M,M,M,M,M,M,M,M,M,M,82.58,KSBD 260514Z AUTO 25006KT 10SM CLR 29/11 A2994 RMK AO2 T02900114,M
SBD,2016-07-26 05:34,83.12,53.60,36.21,250.00,7.00,0.00,29.94,M,10.00,M,CLR,M,M,M,M,M,M,M,M,M,M,M,M,M,M,81.96,KSBD 260534Z AUTO 25007KT 10SM CLR 28/12 A2994 RMK AO2 T02840120,M
SBD,2016-07-26 05:54,82.40,54.14,37.81,240.00,7.00,0.00,29.94,M,10.00,M,CLR,M,M,M,M,M,M,M,M,M,M,M,M,M,M,82.40,KSBD 260554Z AUTO 24007KT 10SM CLR 28/12 A2994 RMK AO2 T02800123,M
SBD,2016-07-26 06:14,81.32,55.58,41.27,250.00,7.00,0.00,29.94,M,10.00,M,CLR,M,M,M,M,M,M,M,M,M,M,M,M,M,M,81.03,KSBD 260614Z AUTO 25007KT 10SM CLR 27/13 A2994 RMK AO2 T02740131,M
SBD,2016-07-26 06:34,80.60,56.66,43.93,250.00,7.00,0.00,29.94,M,10.00,M,CLR,M,M,M,M,M,M,M,M,M,M,M,M,M,M,80.72,KSBD 260634Z AUTO 25007KT 10SM CLR 27/14 A2994 RMK AO2 T02700137,M
SBD,2016-07-26 06:54,79.70,57.38,46.44,250.00,5.00,0.00,29.94,M,10.00,M,CLR,M,M,M,M,M,M,M,M,M,M,M,M,M,M,79.70,KSBD 260654Z AUTO 25005KT 10SM CLR 27/14 A2994 RMK AO2 T02650141,M
SBD,2016-07-26 07:14,79.16,56.66,46.05,250.00,4.00,0.00,29.94,M,10.00,M,CLR,M,M,M,M,M,M,M,M,M,M,M,M,M,M,79.16,KSBD 260714Z AUTO 25004KT 10SM CLR 26/14 A2994 RMK AO2 T02620137,M
SBD,2016-07-26 07:34,78.80,56.84,46.91,250.00,3.00,0.00,29.94,M,10.00,M,CLR,M,M,M,M,M,M,M,M,M,M,M,M,M,M,78.80,KSBD 260734Z AUTO 25003KT 10SM CLR 26/14 A2994 RMK AO2 T02600138,M
SBD,2016-07-26 07:54,78.44,57.38,48.40,240.00,3.00,0.00,29.94,M,10.00,M,CLR,M,M,M,M,M,M,M,M,M,M,M,M,M,M,78.44,KSBD 260754Z AUTO 24003KT 10SM CLR 26/14 A2994 RMK AO2 T02580141,M
SBD,2016-07-26 08:14,77.90,57.56,49.59,260.00,3.00,0.00,29.94,M,10.00,M,CLR,M,M,M,M,M,M,M,M,M,M,M,M,M,M,77.90,KSBD 260814Z AUTO 26003KT 10SM CLR 26/14 A2994 RMK AO2 T02550142,M
SBD,2016-07-26 08:34,77.54,57.92,50.84,260.00,3.00,0.00,29.94,M,10.00,M,CLR,M,M,M,M,M,M,M,M,M,M,M,M,M,M,77.54,KSBD 260834Z AUTO 26003KT 10SM CLR 25/14 A2994 RMK AO2 T02530144,M
SBD,2016-07-26 08:54,77.72,57.92,50.54,260.00,3.00,0.00,29.94,M,10.00,M,CLR,M,M,M,M,M,M,M,M,M,M,M,M,M,M,77.72,KSBD 260854Z AUTO 26003KT 10SM CLR 25/14 A2994 RMK AO2 T02540144,M
SBD,2016-07-26 09:14,76.64,57.56,51.70,260.00,5.00,0.00,29.94,M,10.00,M,CLR,M,M,M,M,M,M,M,M,M,M,M,M,M,M,76.64,KSBD 260914Z AUTO 26005KT 10SM CLR 25/14 A2994 RMK AO2 T02480142,M
SBD,2016-07-26 09:34,76.64,57.56,51.70,0.00,0.00,0.00,29.94,M,10.00,M,CLR,M,M,M,M,M,M,M,M,M,M,M,M,M,M,76.64,KSBD 260934Z AUTO 00000KT 10SM CLR 25/14 A2994 RMK AO2 T02480142,M
SBD,2016-07-26 09:54,76.10,57.38,52.30,0.00,0.00,0.00,29.94,M,10.00,M,CLR,M,M,M,M,M,M,M,M,M,M,M,M,M,M,76.10,KSBD 260954Z AUTO 00000KT 10SM CLR 25/14 A2994 RMK AO2 T02450141,M
SBD,2016-07-26 10:14,76.46,57.92,52.69,0.00,0.00,0.00,29.93,M,10.00,M,CLR,M,M,M,M,M,M,M,M,M,M,M,M,M,M,76.46,KSBD 261014Z AUTO 00000KT 10SM CLR 25/14 A2993 RMK AO2 T02470144,M
SBD,2016-07-26 10:34,76.28,58.10,53.35,0.00,0.00,0.00,29.93,M,10.00,M,CLR,M,M,M,M,M,M,M,M,M,M,M,M,M,M,76.28,KSBD 261034Z AUTO 00000KT 10SM CLR 25/15 A2993 RMK AO2 T02460145,M
SBD,2016-07-26 10:54,76.46,57.56,52.01,0.00,0.00,0.00,29.93,M,10.00,M,CLR,M,M,M,M,M,M,M,M,M,M,M,M,M,M,76.46,KSBD 261054Z AUTO 00000KT 10SM CLR 25/14 A2993 RMK AO2 T02470142,M
SBD,2016-07-26 11:14,76.10,54.86,47.74,0.00,0.00,0.00,29.93,M,10.00,M,CLR,M,M,M,M,M,M,M,M,M,M,M,M,M,M,76.10,KSBD 261114Z AUTO 00000KT 10SM CLR 25/13 A2993 RMK AO2 T02450127,M
SBD,2016-07-26 11:34,76.28,54.14,46.22,0.00,0.00,0.00,29.93,M,10.00,M,CLR,M,M,M,M,M,M,M,M,M,M,M,M,M,M,76.28,KSBD 261134Z AUTO 00000KT 10SM CLR 25/12 A2993 RMK AO2 T02460123,M
SBD,2016-07-26 11:54,75.74,53.06,45.24,0.00,0.00,0.00,29.92,M,10.00,M,CLR,M,M,M,M,M,M,M,M,M,M,M,M,M,M,75.74,KSBD 261154Z AUTO 00000KT 10SM CLR 24/12 A2992 RMK AO2 T02430117,M
SBD,2016-07-26 12:14,75.20,53.06,46.06,0.00,0.00,0.00,29.93,M,10.00,M,CLR,M,M,M,M,M,M,M,M,M,M,M,M,M,M,75.20,KSBD 261214Z AUTO 00000KT 10SM CLR 24/12 A2993 RMK AO2 T02400117,M
SBD,2016-07-26 12:34,72.68,55.58,54.96,70.00,3.00,0.00,29.92,M,10.00,M,CLR,M,M,M,M,M,M,M,M,M,M,M,M,M,M,72.68,KSBD 261234Z AUTO 07003KT 10SM CLR 23/13 A2992 RMK AO2 T02260131,M
SBD,2016-07-26 12:54,74.48,56.48,53.44,0.00,0.00,0.00,29.93,M,10.00,M,CLR,M,M,M,M,M,M,M,M,M,M,M,M,M,M,74.48,KSBD 261254Z AUTO 00000KT 10SM CLR 24/14 A2993 RMK AO2 T02360136,M
SBD,2016-07-26 13:14,74.12,54.14,49.68,0.00,0.00,0.00,29.93,M,10.00,M,CLR,M,M,M,M,M,M,M,M,M,M,M,M,M,M,74.12,KSBD 261314Z AUTO 00000KT 10SM CLR 23/12 A2993 RMK AO2 T02340123,M
SBD,2016-07-26 13:34,73.94,54.14,49.98,0.00,0.00,0.00,29.93,M,10.00,M,CLR,M,M,M,M,M,M,M,M,M,M,M,M,M,M,73.94,KSBD 261334Z AUTO 00000KT 10SM CLR 23/12 A2993 RMK AO2 T02330123,M
SBD,2016-07-26 13:54,75.56,56.12,50.88,0.00,0.00,0.00,29.93,M,10.00,M,CLR,M,M,M,M,M,M,M,M,M,M,M,M,M,M,75.56,KSBD 261354Z AUTO 00000KT 10SM CLR 24/13 A2993 RMK AO2 T02420134,M
SBD,2016-07-26 14:50,78.80,57.20,47.52,0.00,0.00,0.00,29.92,M,7.00,M,CLR,M,M,M,M,M,M,M,M,M,M,M,M,M,M,78.80,KSBD 261450Z 00000KT 7SM SKC 26/14 A2992,M
SBD,2016-07-26 15:50,82.40,55.40,39.58,0.00,0.00,0.00,29.93,M,7.00,M,CLR,M,M,M,M,M,M,M,M,M,M,M,M,M,M,82.40,KSBD 261550Z 00000KT 7SM SKC 28/13 A2993,M
SBD,2016-07-26 16:50,89.60,53.60,29.45,0.00,0.00,0.00,29.93,M,7.00,M,FEW,M,M,M,10000.00,M,M,M,M,M,M,M,M,M,M,87.36,KSBD 261650Z 00000KT 07SM FEW100 32/12 A2993,M
SBD,2016-07-26 17:50,95.00,46.40,19.04,260.00,5.00,0.00,29.92,M,7.00,M,FEW,M,M,M,10000.00,M,M,M,M,M,M,M,M,M,M,91.29,KSBD 261750Z 26005KT 07SM FEW100 35/08 A2992,M
SBD,2016-07-26 18:50,98.60,44.60,15.93,240.00,6.00,0.00,29.91,M,7.00,M,FEW,M,M,M,10000.00,M,M,M,M,M,M,M,M,M,M,94.55,KSBD 261850Z 24006KT 7SM FEW100 37/07 A2991,M
SBD,2016-07-26 19:50,100.40,46.40,16.15,260.00,6.00,0.00,29.89,M,7.00,M,FEW,M,M,M,10000.00,M,M,M,M,M,M,M,M,M,M,96.63,KSBD 261950Z 26006KT 07SM FEW100 38/08 A2989,M
SBD,2016-07-26 20:50,102.20,41.00,12.44,270.00,6.00,0.00,29.87,M,10.00,M,FEW,M,M,M,10000.00,M,M,M,M,M,M,M,M,M,M,97.39,KSBD 262050Z 27006KT 10SM FEW100 39/05 A2987,M
SBD,2016-07-26 22:48,104.00,46.40,14.50,250.00,15.00,0.00,29.83,M,10.00,M,FEW,M,M,M,10000.00,M,M,M,M,M,M,M,M,M,M,100.21,KSBD 262248Z 25015KT 10SM FEW100 40/08 A2983,M
SBD,2016-07-26 23:46,104.00,50.00,16.59,260.00,15.00,0.00,29.83,M,10.00,M,FEW,M,M,M,10000.00,M,M,M,M,M,M,M,M,M,M,101.14,KSBD 262346Z 26015KT 10SM FEW100 40/10 A2983,M
SBD,2016-07-27 02:49,91.40,59.00,33.84,270.00,8.00,0.00,29.87,M,10.00,M,CLR,M,M,M,M,M,M,M,M,M,M,M,M,M,M,91.40,KSBD 270249Z 27008KT 10SM SKC 33/15 A2987,M
SBD,2016-07-27 03:48,86.00,46.40,25.26,230.00,8.00,0.00,29.88,M,10.00,M,CLR,M,M,M,M,M,M,M,M,M,M,M,M,M,M,83.22,KSBD 270348Z 23008KT 10SM SKC 30/08 A2988,M
SBD,2016-07-27 04:14,86.00,46.40,25.26,260.00,5.00,0.00,29.90,M,10.00,M,CLR,M,M,M,M,M,M,M,M,M,M,M,M,M,M,83.22,KSBD 270414Z AUTO 26005KT 10SM CLR 30/08 A2990 RMK AO2 T03000080,M
SBD,2016-07-27 04:34,85.10,47.48,27.07,250.00,6.00,0.00,29.92,M,10.00,M,CLR,M,M,M,M,M,M,M,M,M,M,M,M,M,M,82.63,KSBD 270434Z AUTO 25006KT 10SM CLR 30/09 A2992 RMK AO2 T02950086,M
SBD,2016-07-27 04:53,84.38,47.30,27.52,260.00,6.00,0.00,29.92,M,10.00,M,CLR,M,M,M,M,M,M,M,M,M,M,M,M,M,M,82.08,KSBD 270453Z AUTO 26006KT 10SM CLR 29/09 A2992 RMK AO2 T02910085,M
SBD,2016-07-27 05:14,83.30,48.38,29.67,250.00,5.00,0.00,29.93,M,10.00,M,CLR,M,M,M,M,M,M,M,M,M,M,M,M,M,M,81.42,KSBD 270514Z AUTO 25005KT 10SM CLR 29/09 A2993 RMK AO2 T02850091,M
SBD,2016-07-27 05:34,83.30,48.38,29.67,250.00,4.00,0.00,29.93,M,10.00,M,CLR,M,M,M,M,M,M,M,M,M,M,M,M,M,M,81.42,KSBD 270534Z AUTO 25004KT 10SM CLR 29/09 A2993 RMK AO2 T02850091,M
SBD,2016-07-27 05:54,82.40,48.20,30.35,260.00,4.00,0.00,29.92,M,10.00,M,CLR,M,M,M,M,M,M,M,M,M,M,M,M,M,M,80.80,KSBD 270554Z AUTO 26004KT 10SM CLR 28/09 A2992 RMK AO2 T02800090,M
SBD,2016-07-27 06:14,82.58,47.48,29.36,240.00,3.00,0.00,29.91,M,10.00,M,CLR,M,M,M,M,M,M,M,M,M,M,M,M,M,M,80.85,KSBD 270614Z AUTO 24003KT 10SM CLR 28/09 A2991 RMK AO2 T02810086,M
SBD,2016-07-27 06:34,82.40,47.30,29.34,250.00,3.00,0.00,29.91,M,10.00,M,CLR,M,M,M,M,M,M,M,M,M,M,M,M,M,M,80.72,KSBD 270634Z AUTO 25003KT 10SM CLR 28/09 A2991 RMK AO2 T02800085,M
SBD,2016-07-27 06:54,82.40,46.94,28.94,250.00,4.00,0.00,29.91,M,10.00,M,CLR,M,M,M,M,M,M,M,M,M,M,M,M,M,M,80.69,KSBD 270654Z AUTO 25004KT 10SM CLR 28/08 A2991 RMK AO2 T02800083,M
SBD,2016-07-27 07:14,80.96,45.50,28.72,260.00,4.00,0.00,29.92,M,10.00,M,CLR,M,M,M,M,M,M,M,M,M,M,M,M,M,M,79.69,KSBD 270714Z AUTO 26004KT 10SM CLR 27/08 A2992 RMK AO2 T02720075,M
SBD,2016-07-27 07:34,80.78,46.58,30.10,260.00,3.00,0.00,29.91,M,10.00,M,CLR,M,M,M,M,M,M,M,M,M,M,M,M,M,M,79.68,KSBD 270734Z AUTO 26003KT 10SM CLR 27/08 A2991 RMK AO2 T02710081,M
SBD,2016-07-27 07:54,81.14,49.10,32.70,0.00,0.00,0.00,29.91,M,10.00,M,CLR,M,M,M,M,M,M,M,M,M,M,M,M,M,M,80.11,KSBD 270754Z AUTO 00000KT 10SM CLR 27/10 A2991 RMK AO2 T02730095,M
SBD,2016-07-27 08:14,80.24,49.82,34.59,0.00,0.00,0.00,29.90,M,10.00,M,CLR,M,M,M,M,M,M,M,M,M,M,M,M,M,M,80.24,KSBD 270814Z AUTO 00000KT 10SM CLR 27/10 A2990 RMK AO2 T02680099,M
SBD,2016-07-27 08:34,80.06,50.18,35.26,0.00,0.00,0.00,29.90,M,10.00,M,CLR,M,M,M,M,M,M,M,M,M,M,M,M,M,M,80.06,KSBD 270834Z AUTO 00000KT 10SM CLR 27/10 A2990 RMK AO2 T02670101,M
SBD,2016-07-27 08:54,79.70,47.48,32.26,0.00,0.00,0.00,29.89,M,10.00,M,CLR,M,M,M,M,M,M,M,M,M,M,M,M,M,M,79.70,KSBD 270854Z AUTO 00000KT 10SM CLR 27/09 A2989 RMK AO2 T02650086,M
SBD,2016-07-27 09:14,79.16,46.22,31.31,0.00,0.00,0.00,29.89,M,10.00,M,CLR,M,M,M,M,M,M,M,M,M,M,M,M,M,M,79.16,KSBD 270914Z AUTO 00000KT 10SM CLR 26/08 A2989 RMK AO2 T02620079,M
SBD,2016-07-27 09:34,79.34,45.50,30.29,0.00,0.00,0.00,29.89,M,10.00,M,CLR,M,M,M,M,M,M,M,M,M,M,M,M,M,M,79.34,KSBD 270934Z AUTO 00000KT 10SM CLR 26/08 A2989 RMK AO2 T02630075,M
SBD,2016-07-27 09:54,79.34,46.58,31.55,0.00,0.00,0.00,29.90,M,10.00,M,CLR,M,M,M,M,M,M,M,M,M,M,M,M,M,M,79.34,KSBD 270954Z AUTO 00000KT 10SM CLR 26/08 A2990 RMK AO2 T02630081,M
SBD,2016-07-27 10:14,79.16,47.48,32.83,0.00,0.00,0.00,29.90,M,10.00,M,CLR,M,M,M,M,M,M,M,M,M,M,M,M,M,M,79.16,KSBD 271014Z AUTO 00000KT 10SM CLR 26/09 A2990 RMK AO2 T02620086,M
SBD,2016-07-27 10:34,78.44,46.94,32.94,0.00,0.00,0.00,29.91,M,10.00,M,CLR,M,M,M,M,M,M,M,M,M,M,M,M,M,M,78.44,KSBD 271034Z AUTO 00000KT 10SM CLR 26/08 A2991 RMK AO2 T02580083,M
SBD,2016-07-27 10:54,77.72,46.76,33.51,0.00,0.00,0.00,29.91,M,10.00,M,CLR,M,M,M,M,M,M,M,M,M,M,M,M,M,M,77.72,KSBD 271054Z AUTO 00000KT 10SM CLR 25/08 A2991 RMK AO2 T02540082,M
SBD,2016-07-27 11:14,77.90,47.84,34.69,0.00,0.00,0.00,29.91,M,10.00,M,CLR,M,M,M,M,M,M,M,M,M,M,M,M,M,M,77.90,KSBD 271114Z AUTO 00000KT 10SM CLR 26/09 A2991 RMK AO2 T02550088,M
SBD,2016-07-27 11:34,77.72,48.38,35.61,0.00,0.00,0.00,29.91,M,10.00,M,CLR,M,M,M,M,M,M,M,M,M,M,M,M,M,M,77.72,KSBD 271134Z AUTO 00000KT 10SM CLR 25/09 A2991 RMK AO2 T02540091,M
SBD,2016-07-27 11:54,77.36,48.38,36.04,0.00,0.00,0.00,29.91,M,10.00,M,CLR,M,M,M,M,M,M,M,M,M,M,M,M,M,M,77.36,KSBD 271154Z AUTO 00000KT 10SM CLR 25/09 A2991 RMK AO2 T02520091,M
SBD,2016-07-27 12:14,76.82,47.12,34.99,0.00,0.00,0.00,29.91,M,10.00,M,CLR,M,M,M,M,M,M,M,M,M,M,M,M,M,M,76.82,KSBD 271214Z AUTO 00000KT 10SM CLR 25/08 A2991 RMK AO2 T02490084,M
SBD,2016-07-27 12:34,76.64,49.10,37.92,0.00,0.00,0.00,29.92,M,10.00,M,CLR,M,M,M,M,M,M,M,M,M,M,M,M,M,M,76.64,KSBD 271234Z AUTO 00000KT 10SM CLR 25/10 A2992 RMK AO2 T02480095,M
SBD,2016-07-27 12:54,76.46,49.46,38.66,0.00,0.00,0.00,29.91,M,10.00,M,CLR,M,M,M,M,M,M,M,M,M,M,M,M,M,M,76.46,KSBD 271254Z AUTO 00000KT 10SM CLR 25/10 A2991 RMK AO2 T02470097,M
SBD,2016-07-27 13:15,76.10,49.10,38.60,0.00,0.00,0.00,29.92,M,10.00,M,CLR,M,M,M,M,M,M,M,M,M,M,M,M,M,M,76.10,KSBD 271315Z AUTO 00000KT 10SM CLR 25/10 A2992 RMK AO2 T02450095,M
SBD,2016-07-27 13:34,76.28,48.20,37.10,0.00,0.00,0.00,29.92,M,10.00,M,CLR,M,M,M,M,M,M,M,M,M,M,M,M,M,M,76.28,KSBD 271334Z AUTO 00000KT 10SM CLR 25/09 A2992 RMK AO2 T02460090,M
SBD,2016-07-27 13:54,77.72,48.56,35.85,0.00,0.00,0.00,29.93,M,10.00,M,CLR,M,M,M,M,M,M,M,M,M,M,M,M,M,M,77.72,KSBD 271354Z AUTO 00000KT 10SM CLR 25/09 A2993 RMK AO2 T02540092,M
SBD,2016-07-27 14:00,77.00,48.20,36.22,0.00,0.00,0.00,29.93,M,10.00,M,CLR,M,M,M,M,M,M,M,M,M,M,M,M,M,M,77.00,KSBD 271400Z 00000KT 10SM SKC 25/09 A2993,M
SBD,2016-07-27 14:48,80.60,48.20,32.18,0.00,0.00,0.00,29.94,M,10.00,M,CLR,M,M,M,M,M,M,M,M,M,M,M,M,M,M,80.60,KSBD 271448Z 00000KT 10SM SKC 27/09 A2994,M
SBD,2016-07-27 15:45,86.00,48.20,27.03,0.00,0.00,0.00,29.95,M,10.00,M,CLR,M,M,M,M,M,M,M,M,M,M,M,M,M,M,83.40,KSBD 271545Z 00000KT 10SM SKC 30/09 A2995,M
SBD,2016-07-27 16:50,91.40,44.60,19.89,0.00,0.00,0.00,29.94,M,10.00,M,FEW,M,M,M,8000.00,M,M,M,M,M,M,M,M,M,M,87.68,KSBD 271650Z 00000KT 10SM FEW080 33/07 A2994,M
SBD,2016-07-27 17:47,95.00,41.00,15.49,210.00,5.00,0.00,29.95,M,10.00,M,FEW,M,M,M,8000.00,M,M,M,M,M,M,M,M,M,M,90.70,KSBD 271747Z 21005KT 10SM FEW080 35/05 A2995,M
SBD,2016-07-27 18:47,96.80,42.80,15.71,250.00,7.00,0.00,29.94,M,10.00,M,FEW,M,M,M,8000.00,M,M,M,M,M,M,M,M,M,M,92.57,KSBD 271847Z 25007KT 10SM FEW080 36/06 A2994,M
SBD,2016-07-27 19:57,100.40,46.40,16.15,270.00,5.00,0.00,29.92,M,10.00,M,FEW,M,M,M,8000.00,M,M,M,M,M,M,M,M,M,M,96.63,KSBD 271957Z 27005KT 10SM FEW080 38/08 A2992,M
SBD,2016-07-27 20:51,102.20,44.60,14.29,230.00,10.00,0.00,29.91,M,10.00,M,FEW,SCT,M,M,8000.00,20000.00,M,M,M,M,M,M,M,M,M,98.07,KSBD 272051Z 23010KT 10SM FEW080 SCT200 39/07 A2991,M
SBD,2016-07-27 21:47,102.20,44.60,14.29,230.00,11.00,0.00,29.90,M,10.00,M,FEW,SCT,M,M,8000.00,20000.00,M,M,M,M,M,M,M,M,M,98.07,KSBD 272147Z 23011KT 10SM FEW080 SCT200 39/07 A2990,M
SBD,2016-07-27 22:50,102.20,46.40,15.30,240.00,9.00,0.00,29.88,M,10.00,M,FEW,SCT,M,M,8000.00,20000.00,M,M,M,M,M,M,M,M,M,98.43,KSBD 272250Z 24009KT 10SM FEW080 SCT200 39/08 A2988,M
SBD,2016-07-27 23:50,100.40,50.00,18.48,230.00,11.00,0.00,29.88,M,10.00,M,FEW,SCT,M,M,8000.00,20000.00,M,M,M,M,M,M,M,M,M,97.42,KSBD 272350Z 23011KT 10SM FEW080 SCT200 38/10 A2988,M
SBD,2016-07-28 00:50,96.80,51.80,22.04,220.00,11.00,0.00,29.88,M,10.00,M,FEW,M,M,M,8000.00,M,M,M,M,M,M,M,M,M,M,94.12,KSBD 280050Z 22011KT 10SM FEW080 36/11 A2988,M
SBD,2016-07-28 01:50,93.20,48.20,21.54,250.00,10.00,0.00,29.89,M,10.00,M,CLR,M,M,M,M,M,M,M,M,M,M,M,M,M,M,89.80,KSBD 280150Z 25010KT 10SM SKC 34/09 A2989,M
SBD,2016-07-28 02:47,91.40,44.60,19.89,240.00,8.00,0.00,29.90,M,10.00,M,CLR,M,M,M,M,M,M,M,M,M,M,M,M,M,M,87.68,KSBD 280247Z 24008KT 10SM SKC 33/07 A2990,M
SBD,2016-07-28 03:49,87.80,44.60,22.27,240.00,6.00,0.00,29.91,M,10.00,M,CLR,M,M,M,M,M,M,M,M,M,M,M,M,M,M,84.53,KSBD 280349Z 24006KT 10SM SKC 31/07 A2991,M
SBD,2016-07-28 04:14,87.26,43.88,22.05,240.00,5.00,0.00,29.91,M,10.00,M,CLR,M,M,M,M,M,M,M,M,M,M,M,M,M,M,84.03,KSBD 280414Z AUTO 24005KT 10SM CLR 31/07 A2991 RMK AO2 T03070066,M
SBD,2016-07-28 04:34,86.54,43.34,22.10,250.00,5.00,0.00,29.92,M,10.00,M,CLR,M,M,M,M,M,M,M,M,M,M,M,M,M,M,83.41,KSBD 280434Z AUTO 25005KT 10SM CLR 30/06 A2992 RMK AO2 T03030063,M
SBD,2016-07-28 04:54,85.64,43.88,23.21,250.00,5.00,0.00,29.93,M,10.00,M,CLR,M,M,M,M,M,M,M,M,M,M,M,M,M,M,82.74,KSBD 280454Z AUTO 25005KT 10SM CLR 30/07 A2993 RMK AO2 T02980066,M
SBD,2016-07-28 05:14,84.74,44.24,24.22,250.00,5.00,0.00,29.93,M,10.00,M,CLR,M,M,M,M,M,M,M,M,M,M,M,M,M,M,82.09,KSBD 280514Z AUTO 25005KT 10SM CLR 29/07 A2993 RMK AO2 T02930068,M
SBD,2016-07-28 05:34,84.20,44.60,24.99,250.00,5.00,0.00,29.93,M,10.00,M,CLR,M,M,M,M,M,M,M,M,M,M,M,M,M,M,81.73,KSBD 280534Z AUTO 25005KT 10SM CLR 29/07 A2993 RMK AO2 T02900070,M
SBD,2016-07-28 05:54,83.30,44.96,26.08,240.00,5.00,0.00,29.93,M,10.00,M,CLR,M,M,M,M,M,M,M,M,M,M,M,M,M,M,81.12,KSBD 280554Z AUTO 24005KT 10SM CLR 29/07 A2993 RMK AO2 T02850072,M
SBD,2016-07-28 06:14,82.40,45.50,27.41,250.00,4.00,0.00,29.93,M,10.00,M,CLR,M,M,M,M,M,M,M,M,M,M,M,M,M,M,80.57,KSBD 280614Z AUTO 25004KT 10SM CLR 28/08 A2993 RMK AO2 T02800075,M
SBD,2016-07-28 06:34,82.58,45.50,27.25,270.00,3.00,0.00,29.93,M,10.00,M,CLR,M,M,M,M,M,M,M,M,M,M,M,M,M,M,80.69,KSBD 280634Z AUTO 27003KT 10SM CLR 28/08 A2993 RMK AO2 T02810075,M
SBD,2016-07-28 06:54,82.94,45.50,26.93,260.00,3.00,0.00,29.93,M,10.00,M,CLR,M,M,M,M,M,M,M,M,M,M,M,M,M,M,80.92,KSBD 280654Z AUTO 26003KT 10SM CLR 28/08 A2993 RMK AO2 T02830075,M
SBD,2016-07-28 07:14,82.58,46.40,28.19,0.00,0.00,0.00,29.93,M,10.00,M,CLR,M,M,M,M,M,M,M,M,M,M,M,M,M,M,80.76,KSBD 280714Z AUTO 00000KT 10SM CLR 28/08 A2993 RMK AO2 T02810080,M
SBD,2016-07-28 07:34,82.40,46.40,28.36,260.00,3.00,0.00,29.92,M,10.00,M,CLR,M,M,M,M,M,M,M,M,M,M,M,M,M,M,80.64,KSBD 280734Z AUTO 26003KT 10SM CLR 28/08 A2992 RMK AO2 T02800080,M
SBD,2016-07-28 07:54,80.96,46.40,29.72,240.00,3.00,0.00,29.92,M,10.00,M,CLR,M,M,M,M,M,M,M,M,M,M,M,M,M,M,79.76,KSBD 280754Z AUTO 24003KT 10SM CLR 27/08 A2992 RMK AO2 T02720080,M
SBD,2016-07-28 08:14,81.32,46.58,29.57,240.00,3.00,0.00,29.92,M,10.00,M,CLR,M,M,M,M,M,M,M,M,M,M,M,M,M,M,79.99,KSBD 280814Z AUTO 24003KT 10SM CLR 27/08 A2992 RMK AO2 T02740081,M
SBD,2016-07-28 08:34,80.06,46.94,31.24,0.00,0.00,0.00,29.92,M,10.00,M,CLR,M,M,M,M,M,M,M,M,M,M,M,M,M,M,80.06,KSBD 280834Z AUTO 00000KT 10SM CLR 27/08 A2992 RMK AO2 T02670083,M
SBD,2016-07-28 08:54,79.88,47.66,32.28,240.00,3.00,0.00,29.92,M,10.00,M,CLR,M,M,M,M,M,M,M,M,M,M,M,M,M,M,79.88,KSBD 280854Z AUTO 24003KT 10SM CLR 27/09 A2992 RMK AO2 T02660087,M
SBD,2016-07-28 09:14,79.34,47.66,32.86,0.00,0.00,0.00,29.92,M,10.00,M,CLR,M,M,M,M,M,M,M,M,M,M,M,M,M,M,79.34,KSBD 280914Z AUTO 00000KT 10SM CLR 26/09 A2992 RMK AO2 T02630087,M
SBD,2016-07-28 09:34,78.98,49.10,35.09,0.00,0.00,0.00,29.92,M,10.00,M,CLR,M,M,M,M,M,M,M,M,M,M,M,M,M,M,78.98,KSBD 280934Z AUTO 00000KT 10SM CLR 26/10 A2992 RMK AO2 T02610095,M
SBD,2016-07-28 09:54,78.08,50.90,38.65,0.00,0.00,0.00,29.92,M,10.00,M,CLR,M,M,M,M,M,M,M,M,M,M,M,M,M,M,78.08,KSBD 280954Z AUTO 00000KT 10SM CLR 26/11 A2992 RMK AO2 T02560105,M
SBD,2016-07-28 10:14,77.90,51.08,39.14,0.00,0.00,0.00,29.92,M,10.00,M,CLR,M,M,M,M,M,M,M,M,M,M,M,M,M,M,77.90,KSBD 281014Z AUTO 00000KT 10SM CLR 26/11 A2992 RMK AO2 T02550106,M
SBD,2016-07-28 10:34,77.36,51.08,39.85,0.00,0.00,0.00,29.92,M,10.00,M,CLR,M,M,M,M,M,M,M,M,M,M,M,M,M,M,77.36,KSBD 281034Z AUTO 00000KT 10SM CLR 25/11 A2992 RMK AO2 T02520106,M
SBD,2016-07-28 10:54,76.82,50.00,38.98,0.00,0.00,0.00,29.92,M,10.00,M,CLR,M,M,M,M,M,M,M,M,M,M,M,M,M,M,76.82,KSBD 281054Z AUTO 00000KT 10SM CLR 25/10 A2992 RMK AO2 T02490100,M
SBD,2016-07-28 11:14,76.28,47.48,36.11,0.00,0.00,0.00,29.92,M,10.00,M,CLR,M,M,M,M,M,M,M,M,M,M,M,M,M,M,76.28,KSBD 281114Z AUTO 00000KT 10SM CLR 25/09 A2992 RMK AO2 T02460086,M
SBD,2016-07-28 11:34,76.10,48.20,37.32,0.00,0.00,0.00,29.92,M,10.00,M,CLR,M,M,M,M,M,M,M,M,M,M,M,M,M,M,76.10,KSBD 281134Z AUTO 00000KT 10SM CLR 25/09 A2992 RMK AO2 T02450090,M
SBD,2016-07-28 11:54,75.56,46.94,36.24,0.00,0.00,0.00,29.92,M,10.00,M,CLR,M,M,M,M,M,M,M,M,M,M,M,M,M,M,74.52,KSBD 281154Z AUTO 00000KT 10SM CLR 24/08 A2992 RMK AO2 T02420083,M
SBD,2016-07-28 12:14,75.38,46.58,35.97,0.00,0.00,0.00,29.92,M,10.00,M,CLR,M,M,M,M,M,M,M,M,M,M,M,M,M,M,74.31,KSBD 281214Z AUTO 00000KT 10SM CLR 24/08 A2992 RMK AO2 T02410081,M
SBD,2016-07-28 12:34,74.12,46.04,36.76,0.00,0.00,0.00,29.93,M,10.00,M,CLR,M,M,M,M,M,M,M,M,M,M,M,M,M,M,72.96,KSBD 281234Z AUTO 00000KT 10SM CLR 23/08 A2993 RMK AO2 T02340078,M
SBD,2016-07-28 12:54,74.84,45.50,35.16,0.00,0.00,0.00,29.93,M,10.00,M,CLR,M,M,M,M,M,M,M,M,M,M,M,M,M,M,73.68,KSBD 281254Z AUTO 00000KT 10SM CLR 24/08 A2993 RMK AO2 T02380075,M
SBD,2016-07-28 13:14,74.66,46.04,36.10,0.00,0.00,0.00,29.93,M,10.00,M,CLR,M,M,M,M,M,M,M,M,M,M,M,M,M,M,73.52,KSBD 281314Z AUTO 00000KT 10SM CLR 24/08 A2993 RMK AO2 T02370078,M
SBD,2016-07-28 13:34,75.20,46.40,35.94,0.00,0.00,0.00,29.93,M,10.00,M,CLR,M,M,M,M,M,M,M,M,M,M,M,M,M,M,74.11,KSBD 281334Z AUTO 00000KT 10SM CLR 24/08 A2993 RMK AO2 T02400080,M
SBD,2016-07-28 13:54,75.20,46.40,35.94,0.00,0.00,0.00,29.94,M,10.00,M,CLR,M,M,M,M,M,M,M,M,M,M,M,M,M,M,74.11,KSBD 281354Z AUTO 00000KT 10SM CLR 24/08 A2994 RMK AO2 T02400080,M
SBD,2016-07-28 14:50,78.80,48.20,34.13,0.00,0.00,0.00,29.94,M,7.00,M,CLR,M,M,M,M,M,M,M,M,M,M,M,M,M,M,78.80,KSBD 281450Z 00000KT 7SM SKC 26/09 A2994,M
SBD,2016-07-28 15:50,84.20,50.00,30.62,0.00,0.00,0.00,29.94,M,7.00,M,CLR,M,M,M,M,M,M,M,M,M,M,M,M,M,M,82.24,KSBD 281550Z 00000KT 7SM SKC 29/10 A2994,M
SBD,2016-07-28 16:50,87.80,44.60,22.27,300.00,4.00,0.00,29.93,M,7.00,M,CLR,M,M,M,M,M,M,M,M,M,M,M,M,M,M,84.53,KSBD 281650Z 30004KT 7SM SKC 31/07 A2993,M
SBD,2016-07-28 17:50,93.20,41.00,16.37,250.00,3.00,0.00,29.93,M,7.00,M,FEW,M,M,M,8000.00,M,M,M,M,M,M,M,M,M,M,89.03,KSBD 281750Z 25003KT 7SM FEW080 34/05 A2993,M
SBD,2016-07-28 18:50,96.80,42.80,15.71,230.00,6.00,0.00,29.93,M,10.00,M,FEW,M,M,M,8000.00,M,M,M,M,M,M,M,M,M,M,92.57,KSBD 281850Z 23006KT 10SM FEW080 36/06 A2993,M
SBD,2016-07-28 19:50,100.40,44.60,15.08,270.00,5.00,0.00,29.89,M,7.00,M,CLR,M,M,M,M,M,M,M,M,M,M,M,M,M,M,96.31,KSBD 281950Z 27005KT 7SM SKC 38/07 A2989,M
SBD,2016-07-28 20:50,102.20,42.80,13.34,240.00,5.00,0.00,29.87,M,7.00,M,CLR,M,M,M,M,M,M,M,M,M,M,M,M,M,M,97.76,KSBD 282050Z 24005KT 7SM SKC 39/06 A2987,M
SBD,2016-07-28 21:50,102.20,44.60,14.29,200.00,5.00,0.00,29.85,M,7.00,M,CLR,M,M,M,M,M,M,M,M,M,M,M,M,M,M,98.07,KSBD 282150Z 20005KT 7SM SKC 39/07 A2985,M
SBD,2016-07-28 22:48,102.20,46.40,15.30,250.00,8.00,0.00,29.84,M,7.00,M,FEW,M,M,M,8000.00,M,M,M,M,M,M,M,M,M,M,98.43,KSBD 282248Z 25008KT 7SM FEW080 39/08 A2984,M
SBD,2016-07-28 23:45,102.20,46.40,15.30,260.00,8.00,0.00,29.82,M,7.00,M,SCT,M,M,M,10000.00,M,M,M,M,M,M,M,M,M,M,98.43,KSBD 282345Z 26008KT 7SM SCT100 39/08 A2982,M
SBD,2016-07-29 01:45,100.40,46.40,16.15,250.00,9.00,0.00,29.81,M,10.00,M,SCT,M,M,M,10000.00,M,M,M,M,M,M,M,M,M,M,96.63,KSBD 290145Z 25009KT 10SM SCT100 38/08 A2981,M
SBD,2016-07-29 04:14,86.18,47.66,26.33,250.00,5.00,0.00,29.87,M,10.00,M,CLR,M,M,M,M,M,M,M,M,M,M,M,M,M,M,83.48,KSBD 290414Z AUTO 25005KT 10SM CLR 30/09 A2987 RMK AO2 T03010087,M
SBD,2016-07-29 04:34,84.92,47.30,27.05,250.00,5.00,0.00,29.87,M,10.00,M,CLR,M,M,M,M,M,M,M,M,M,M,M,M,M,M,82.48,KSBD 290434Z AUTO 25005KT 10SM CLR 29/09 A2987 RMK AO2 T02940085,M
SBD,2016-07-29 04:54,84.38,47.66,27.90,240.00,4.00,0.00,29.87,M,10.00,M,CLR,M,M,M,M,M,M,M,M,M,M,M,M,M,M,82.11,KSBD 290454Z AUTO 24004KT 10SM CLR 29/09 A2987 RMK AO2 T02910087,M
SBD,2016-07-29 05:14,83.84,48.20,28.97,230.00,4.00,0.00,29.87,M,10.00,M,CLR,M,M,M,M,M,M,M,M,M,M,M,M,M,M,81.78,KSBD 290514Z AUTO 23004KT 10SM CLR 29/09 A2987 RMK AO2 T02880090,M
SBD,2016-07-29 05:34,83.30,48.38,29.67,250.00,4.00,0.00,29.87,M,10.00,M,CLR,M,M,M,M,M,M,M,M,M,M,M,M,M,M,81.42,KSBD 290534Z AUTO 25004KT 10SM CLR 29/09 A2987 RMK AO2 T02850091,M
SBD,2016-07-29 05:54,82.76,49.10,31.02,280.00,4.00,0.00,29.88,M,10.00,M,CLR,M,M,M,M,M,M,M,M,M,M,M,M,M,M,81.13,KSBD 290554Z AUTO 28004KT 10SM CLR 28/10 A2988 RMK AO2 T02820095,M
SBD,2016-07-29 06:14,82.58,49.10,31.20,270.00,4.00,0.00,29.88,M,10.00,M,CLR,M,M,M,M,M,M,M,M,M,M,M,M,M,M,81.01,KSBD 290614Z AUTO 27004KT 10SM CLR 28/10 A2988 RMK AO2 T02810095,M
SBD,2016-07-29 06:34,80.78,50.00,34.21,260.00,5.00,0.00,29.88,M,10.00,M,CLR,M,M,M,M,M,M,M,M,M,M,M,M,M,M,80.78,KSBD 290634Z AUTO 26005KT 10SM CLR 27/10 A2988 RMK AO2 T02710100,M
SBD,2016-07-29 06:54,80.24,50.54,35.53,280.00,4.00,0.00,29.89,M,10.00,M,CLR,M,M,M,M,M,M,M,M,M,M,M,M,M,M,80.24,KSBD 290654Z AUTO 28004KT 10SM CLR 27/10 A2989 RMK AO2 T02680103,M
SBD,2016-07-29 07:14,80.42,50.54,35.32,280.00,3.00,0.00,29.88,M,10.00,M,CLR,M,M,M,M,M,M,M,M,M,M,M,M,M,M,80.42,KSBD 290714Z AUTO 28003KT 10SM CLR 27/10 A2988 RMK AO2 T02690103,M
SBD,2016-07-29 07:34,79.70,50.54,36.16,0.00,0.00,0.00,29.88,M,10.00,M,CLR,M,M,M,M,M,M,M,M,M,M,M,M,M,M,79.70,KSBD 290734Z AUTO 00000KT 10SM CLR 27/10 A2988 RMK AO2 T02650103,M
SBD,2016-07-29 07:54,79.88,50.54,35.95,270.00,3.00,0.00,29.88,M,10.00,M,CLR,M,M,M,M,M,M,M,M,M,M,M,M,M,M,79.88,KSBD 290754Z AUTO 27003KT 10SM CLR 27/10 A2988 RMK AO2 T02660103,M
SBD,2016-07-29 08:14,80.06,50.72,35.98,260.00,3.00,0.00,29.87,M,10.00,M,CLR,M,M,M,M,M,M,M,M,M,M,M,M,M,M,80.06,KSBD 290814Z AUTO 26003KT 10SM CLR 27/10 A2987 RMK AO2 T02670104,M
SBD,2016-07-29 08:34,78.80,50.90,37.75,260.00,3.00,0.00,29.87,M,10.00,M,CLR,M,M,M,M,M,M,M,M,M,M,M,M,M,M,78.80,KSBD 290834Z AUTO 26003KT 10SM CLR 26/11 A2987 RMK AO2 T02600105,M
SBD,2016-07-29 08:54,78.62,51.26,38.48,280.00,3.00,0.00,29.86,M,10.00,M,CLR,M,M,M,M,M,M,M,M,M,M,M,M,M,M,78.62,KSBD 290854Z AUTO 28003KT 10SM CLR 26/11 A2986 RMK AO2 T02590107,M
SBD,2016-07-29 09:14,78.62,52.16,39.78,0.00,0.00,0.00,29.86,M,10.00,M,CLR,M,M,M,M,M,M,M,M,M,M,M,M,M,M,78.62,KSBD 290914Z AUTO 00000KT 10SM CLR 26/11 A2986 RMK AO2 T02590112,M
SBD,2016-07-29 09:34,78.44,51.98,39.75,0.00,0.00,0.00,29.86,M,10.00,M,CLR,M,M,M,M,M,M,M,M,M,M,M,M,M,M,78.44,KSBD 290934Z AUTO 00000KT 10SM CLR 26/11 A2986 RMK AO2 T02580111,M
SBD,2016-07-29 09:54,78.26,51.98,39.99,0.00,0.00,0.00,29.85,M,10.00,M,CLR,M,M,M,M,M,M,M,M,M,M,M,M,M,M,78.26,KSBD 290954Z AUTO 00000KT 10SM CLR 26/11 A2985 RMK AO2 T02570111,M
SBD,2016-07-29 10:14,77.90,51.62,39.93,0.00,0.00,0.00,29.85,M,10.00,M,CLR,M,M,M,M,M,M,M,M,M,M,M,M,M,M,77.90,KSBD 291014Z AUTO 00000KT 10SM CLR 26/11 A2985 RMK AO2 T02550109,M
SBD,2016-07-29 10:34,77.54,50.18,38.31,0.00,0.00,0.00,29.85,M,10.00,M,CLR,M,M,M,M,M,M,M,M,M,M,M,M,M,M,77.54,KSBD 291034Z AUTO 00000KT 10SM CLR 25/10 A2985 RMK AO2 T02530101,M
SBD,2016-07-29 10:54,77.00,50.00,38.74,0.00,0.00,0.00,29.86,M,10.00,M,CLR,M,M,M,M,M,M,M,M,M,M,M,M,M,M,77.00,KSBD 291054Z AUTO 00000KT 10SM CLR 25/10 A2986 RMK AO2 T02500100,M
SBD,2016-07-29 11:14,76.82,50.36,39.50,0.00,0.00,0.00,29.85,M,10.00,M,CLR,M,M,M,M,M,M,M,M,M,M,M,M,M,M,76.82,KSBD 291114Z AUTO 00000KT 10SM CLR 25/10 A2985 RMK AO2 T02490102,M
SBD,2016-07-29 11:34,76.46,50.90,40.78,0.00,0.00,0.00,29.85,M,10.00,M,CLR,M,M,M,M,M,M,M,M,M,M,M,M,M,M,76.46,KSBD 291134Z AUTO 00000KT 10SM CLR 25/11 A2985 RMK AO2 T02470105,M
SBD,2016-07-29 11:54,75.38,50.54,41.72,0.00,0.00,0.00,29.86,M,10.00,M,CLR,M,M,M,M,M,M,M,M,M,M,M,M,M,M,75.38,KSBD 291154Z AUTO 00000KT 10SM CLR 24/10 A2986 RMK AO2 T02410103,M
SBD,2016-07-29 12:14,75.38,50.36,41.44,0.00,0.00,0.00,29.86,M,10.00,M,CLR,M,M,M,M,M,M,M,M,M,M,M,M,M,M,75.38,KSBD 291214Z AUTO 00000KT 10SM CLR 24/10 A2986 RMK AO2 T02410102,M
SBD,2016-07-29 12:34,75.20,50.36,41.69,0.00,0.00,0.00,29.86,M,10.00,M,CLR,M,M,M,M,M,M,M,M,M,M,M,M,M,M,75.20,KSBD 291234Z AUTO 00000KT 10SM CLR 24/10 A2986 RMK AO2 T02400102,M
SBD,2016-07-29 12:54,75.56,50.36,41.19,0.00,0.00,0.00,29.86,M,10.00,M,CLR,M,M,M,M,M,M,M,M,M,M,M,M,M,M,75.56,KSBD 291254Z AUTO 00000KT 10SM CLR 24/10 A2986 RMK AO2 T02420102,M
SBD,2016-07-29 13:14,75.56,50.54,41.47,0.00,0.00,0.00,29.87,M,10.00,M,CLR,M,M,M,M,M,M,M,M,M,M,M,M,M,M,75.56,KSBD 291314Z AUTO 00000KT 10SM CLR 24/10 A2987 RMK AO2 T02420103,M
SBD,2016-07-29 13:34,75.74,50.90,41.77,0.00,0.00,0.00,29.87,M,10.00,M,CLR,M,M,M,M,M,M,M,M,M,M,M,M,M,M,75.74,KSBD 291334Z AUTO 00000KT 10SM CLR 24/11 A2987 RMK AO2 T02430105,M
SBD,2016-07-29 13:54,76.46,50.90,40.78,0.00,0.00,0.00,29.87,M,10.00,M,CLR,M,M,M,M,M,M,M,M,M,M,M,M,M,M,76.46,KSBD 291354Z AUTO 00000KT 10SM CLR 25/11 A2987 RMK AO2 T02470105,M
SBD,2016-07-29 14:00,77.00,51.80,41.42,0.00,0.00,0.00,29.87,M,7.00,M,CLR,M,M,M,M,M,M,M,M,M,M,M,M,M,M,77.00,KSBD 291400Z 00000KT 7SM SKC 25/11 A2987,M
SBD,2016-07-29 14:45,80.60,51.80,36.79,0.00,0.00,0.00,29.88,M,7.00,M,CLR,M,M,M,M,M,M,M,M,M,M,M,M,M,M,80.60,KSBD 291445Z 00000KT 7SM SKC 27/11 A2988,M
SBD,2016-07-29 15:45,82.40,51.80,34.69,0.00,0.00,0.00,29.88,M,7.00,M,CLR,M,M,M,M,M,M,M,M,M,M,M,M,M,M,81.20,KSBD 291545Z 00000KT 7SM SKC 28/11 A2988,M
SBD,2016-07-29 16:46,89.60,51.80,27.56,0.00,0.00,0.00,29.86,M,7.00,M,CLR,M,M,M,M,M,M,M,M,M,M,M,M,M,M,87.00,KSBD 291646Z 00000KT 7SM SKC 32/11 A2986,M
SBD,2016-07-29 17:47,95.00,48.20,20.38,0.00,0.00,0.00,29.86,M,7.00,M,CLR,M,M,M,M,M,M,M,M,M,M,M,M,M,M,91.56,KSBD 291747Z 00000KT 7SM SKC 35/09 A2986,M
SBD,2016-07-29 18:50,100.40,48.20,17.28,260.00,4.00,0.00,29.85,M,7.00,M,CLR,M,M,M,M,M,M,M,M,M,M,M,M,M,M,97.00,KSBD 291850Z 26004KT 7SM SKC 38/09 A2985,M
SBD,2016-07-29 19:49,104.00,50.00,16.59,240.00,8.00,0.00,29.82,M,7.00,M,CLR,M,M,M,M,M,M,M,M,M,M,M,M,M,M,101.14,KSBD 291949Z 24008KT 7SM SKC 40/10 A2982,M
SBD,2016-07-29 20:55,107.60,48.20,13.95,210.00,8.00,0.00,29.81,M,7.00,M,CLR,M,M,M,M,M,M,M,M,M,M,M,M,M,M,104.23,KSBD 292055Z 21008KT 07SM SKC 42/09 A2981,M
SBD,2016-07-29 21:50,105.80,51.80,16.82,250.00,11.00,0.00,29.79,M,7.00,M,CLR,M,M,M,M,M,M,M,M,M,M,M,M,M,M,103.57,KSBD 292150Z 25011KT 07SM SKC 41/11 A2979,M
SBD,2016-07-29 22:48,105.80,50.00,15.73,240.00,10.00,0.00,29.78,M,7.00,M,FEW,M,M,M,6000.00,M,M,M,M,M,M,M,M,M,M,102.98,KSBD 292248Z 24010KT 7SM FEW060 41/10 A2978,M
SBD,2016-07-29 23:50,104.00,51.80,17.74,240.00,9.00,0.00,29.78,M,7.00,M,FEW,M,M,M,6000.00,M,M,M,M,M,M,M,M,M,M,101.69,KSBD 292350Z 24009KT 7SM FEW060 40/11 A2978,M
SBD,2016-07-30 00:46,100.40,55.40,22.54,250.00,10.00,0.00,29.77,M,7.00,M,CLR,M,M,M,M,M,M,M,M,M,M,M,M,M,M,99.06,KSBD 300046Z 25010KT 07SM SKC 38/13 A2977,M
SBD,2016-07-30 01:46,95.00,53.60,24.89,240.00,11.00,0.00,29.77,M,7.00,M,FEW,M,M,M,6000.00,M,M,M,M,M,M,M,M,M,M,92.71,KSBD 300146Z 24011KT 07SM FEW060 35/12 A2977,M
SBD,2016-07-30 02:46,91.40,53.60,27.83,250.00,9.00,0.00,29.79,M,7.00,M,FEW,M,M,M,6000.00,M,M,M,M,M,M,M,M,M,M,89.08,KSBD 300246Z 25009KT 07SM FEW060 33/12 A2979,M
SBD,2016-07-30 03:50,86.00,55.40,35.25,230.00,5.00,0.00,29.82,M,7.00,M,CLR,M,M,M,M,M,M,M,M,M,M,M,M,M,M,84.54,KSBD 300350Z 23005KT 07SM SKC 30/13 A2982 RMK LAST,M
SBD,2016-07-30 04:14,85.46,54.86,35.17,250.00,6.00,0.00,29.83,M,10.00,M,CLR,M,M,M,M,M,M,M,M,M,M,M,M,M,M,83.98,KSBD 300414Z AUTO 25006KT 10SM CLR 30/13 A2983 RMK AO2 T02970127,M
SBD,2016-07-30 04:34,84.38,57.56,40.15,260.00,8.00,0.00,29.84,M,10.00,M,CLR,M,M,M,M,M,M,M,M,M,M,M,M,M,M,83.70,KSBD 300434Z AUTO 26008KT 10SM CLR 29/14 A2984 RMK AO2 T02910142,M
SBD,2016-07-30 04:54,83.66,55.76,38.50,260.00,5.00,0.00,29.85,M,10.00,M,CLR,M,M,M,M,M,M,M,M,M,M,M,M,M,M,83.66,KSBD 300454Z AUTO 26005KT 10SM CLR 29/13 A2985 RMK AO2 T02870132,M
SBD,2016-07-30 05:14,82.94,56.48,40.45,250.00,6.00,0.00,29.85,M,10.00,M,CLR,M,M,M,M,M,M,M,M,M,M,M,M,M,M,82.34,KSBD 300514Z AUTO 25006KT 10SM CLR 28/14 A2985 RMK AO2 T02830136,M
SBD,2016-07-30 05:34,82.76,57.02,41.49,240.00,5.00,0.00,29.85,M,10.00,M,CLR,M,M,M,M,M,M,M,M,M,M,M,M,M,M,82.31,KSBD 300534Z AUTO 24005KT 10SM CLR 28/14 A2985 RMK AO2 T02820139,M
SBD,2016-07-30 05:54,82.40,58.10,43.64,250.00,6.00,0.00,29.85,M,10.00,M,CLR,M,M,M,M,M,M,M,M,M,M,M,M,M,M,82.26,KSBD 300554Z AUTO 25006KT 10SM CLR 28/15 A2985 RMK AO2 T02800145,M
SBD,2016-07-30 06:15,81.50,59.00,46.41,250.00,5.00,0.00,29.84,M,10.00,M,CLR,M,M,M,M,M,M,M,M,M,M,M,M,M,M,81.78,KSBD 300615Z AUTO 25005KT 10SM CLR 28/15 A2984 RMK AO2 T02750150,M
SBD,2016-07-30 06:34,80.60,59.36,48.41,240.00,6.00,0.00,29.84,M,10.00,M,CLR,M,M,M,M,M,M,M,M,M,M,M,M,M,M,81.18,KSBD 300634Z AUTO 24006KT 10SM CLR 27/15 A2984 RMK AO2 T02700152,M
SBD,2016-07-30 06:54,80.42,59.36,48.69,240.00,6.00,0.00,29.84,M,10.00,M,CLR,M,M,M,M,M,M,M,M,M,M,M,M,M,M,81.05,KSBD 300654Z AUTO 24006KT 10SM CLR 27/15 A2984 RMK AO2 T02690152,M
SBD,2016-07-30 07:14,79.70,59.36,49.85,240.00,5.00,0.00,29.84,M,10.00,M,CLR,M,M,M,M,M,M,M,M,M,M,M,M,M,M,79.70,KSBD 300714Z AUTO 24005KT 10SM CLR 27/15 A2984 RMK AO2 T02650152,M
SBD,2016-07-30 07:34,78.80,59.18,51.02,250.00,4.00,0.00,29.84,M,10.00,M,CLR,M,M,M,M,M,M,M,M,M,M,M,M,M,M,78.80,KSBD 300734Z AUTO 25004KT 10SM CLR 26/15 A2984 RMK AO2 T02600151,M
SBD,2016-07-30 07:54,77.90,59.00,52.22,260.00,5.00,0.00,29.84,M,10.00,M,CLR,M,M,M,M,M,M,M,M,M,M,M,M,M,M,77.90,KSBD 300754Z AUTO 26005KT 10SM CLR 26/15 A2984 RMK AO2 T02550150,M
SBD,2016-07-30 08:15,77.18,58.46,52.45,260.00,6.00,0.00,29.84,M,10.00,M,CLR,M,M,M,M,M,M,M,M,M,M,M,M,M,M,77.18,KSBD 300815Z AUTO 26006KT 10SM CLR 25/15 A2984 RMK AO2 T02510147,M
SBD,2016-07-30 08:34,76.46,58.46,53.72,260.00,5.00,0.00,29.84,M,10.00,M,CLR,M,M,M,M,M,M,M,M,M,M,M,M,M,M,76.46,KSBD 300834Z AUTO 26005KT 10SM CLR 25/15 A2984 RMK AO2 T02470147,M
SBD,2016-07-30 08:54,76.10,58.82,55.08,260.00,4.00,0.00,29.84,M,10.00,M,CLR,M,M,M,M,M,M,M,M,M,M,M,M,M,M,76.10,KSBD 300854Z AUTO 26004KT 10SM CLR 25/15 A2984 RMK AO2 T02450149,M
SBD,2016-07-30 09:15,75.74,59.36,56.83,260.00,4.00,0.00,29.83,M,10.00,M,CLR,M,M,M,M,M,M,M,M,M,M,M,M,M,M,75.74,KSBD 300915Z AUTO 26004KT 10SM CLR 24/15 A2983 RMK AO2 T02430152,M
SBD,2016-07-30 09:34,75.38,59.54,57.88,270.00,4.00,0.00,29.83,M,10.00,M,CLR,M,M,M,M,M,M,M,M,M,M,M,M,M,M,75.38,KSBD 300934Z AUTO 27004KT 10SM CLR 24/15 A2983 RMK AO2 T02410153,M
SBD,2016-07-30 09:54,75.02,60.08,59.72,250.00,4.00,0.00,29.83,M,10.00,M,CLR,M,M,M,M,M,M,M,M,M,M,M,M,M,M,75.02,KSBD 300954Z AUTO 25004KT 10SM CLR 24/16 A2983 RMK AO2 T02390156,M
SBD,2016-07-30 10:15,75.38,60.80,60.54,280.00,3.00,0.00,29.84,M,10.00,M,CLR,M,M,M,M,M,M,M,M,M,M,M,M,M,M,75.38,KSBD 301015Z AUTO 28003KT 10SM CLR 24/16 A2984 RMK AO2 T02410160,M
SBD,2016-07-30 10:34,75.20,60.98,61.29,310.00,4.00,0.00,29.84,M,10.00,M,CLR,M,M,M,M,M,M,M,M,M,M,M,M,M,M,75.20,KSBD 301034Z AUTO 31004KT 10SM CLR 24/16 A2984 RMK AO2 T02400161,M
SBD,2016-07-30 10:54,75.20,60.98,61.29,280.00,4.00,0.00,29.84,M,10.00,M,CLR,M,M,M,M,M,M,M,M,M,M,M,M,M,M,75.20,KSBD 301054Z AUTO 28004KT 10SM CLR 24/16 A2984 RMK AO2 T02400161,M
SBD,2016-07-30 11:15,74.48,61.16,63.19,260.00,5.00,0.00,29.85,M,10.00,M,CLR,M,M,M,M,M,M,M,M,M,M,M,M,M,M,74.48,KSBD 301115Z AUTO 26005KT 10SM CLR 24/16 A2985 RMK AO2 T02360162,M
SBD,2016-07-30 11:34,74.30,61.88,65.21,230.00,4.00,0.00,29.85,M,10.00,M,CLR,M,M,M,M,M,M,M,M,M,M,M,M,M,M,74.30,KSBD 301134Z AUTO 23004KT 10SM CLR 24/17 A2985 RMK AO2 T02350166,M
SBD,2016-07-30 11:54,74.30,62.24,66.05,0.00,0.00,0.00,29.84,M,10.00,M,CLR,M,M,M,M,M,M,M,M,M,M,M,M,M,M,74.30,KSBD 301154Z AUTO 00000KT 10SM CLR 24/17 A2984 RMK AO2 T02350168,M
SBD,2016-07-30 12:15,74.30,62.06,65.63,0.00,0.00,0.00,29.85,M,10.00,M,CLR,M,M,M,M,M,M,M,M,M,M,M,M,M,M,74.30,KSBD 301215Z AUTO 00000KT 10SM CLR 24/17 A2985 RMK AO2 T02350167,M
SBD,2016-07-30 12:34,74.48,61.88,64.82,0.00,0.00,0.00,29.85,M,10.00,M,CLR,M,M,M,M,M,M,M,M,M,M,M,M,M,M,74.48,KSBD 301234Z AUTO 00000KT 10SM CLR 24/17 A2985 RMK AO2 T02360166,M
SBD,2016-07-30 12:54,74.66,61.70,64.02,0.00,0.00,0.00,29.86,M,10.00,M,CLR,M,M,M,M,M,M,M,M,M,M,M,M,M,M,74.66,KSBD 301254Z AUTO 00000KT 10SM CLR 24/17 A2986 RMK AO2 T02370165,M
SBD,2016-07-30 13:15,74.48,61.70,64.41,80.00,3.00,0.00,29.87,M,10.00,M,SCT,M,M,M,2600.00,M,M,M,M,M,M,M,M,M,M,74.48,KSBD 301315Z AUTO 08003KT 10SM SCT026 24/17 A2987 RMK AO2 T02360165,M
SBD,2016-07-30 13:34,75.38,61.70,62.50,0.00,0.00,0.00,29.87,M,10.00,M,OVC,M,M,M,2600.00,M,M,M,M,M,M,M,M,M,M,75.38,KSBD 301334Z AUTO 00000KT 10SM OVC026 24/17 A2987 RMK AO2 T02410165,M
SBD,2016-07-30 13:54,76.28,61.70,60.65,0.00,0.00,0.00,29.88,M,10.00,M,OVC,M,M,M,2600.00,M,M,M,M,M,M,M,M,M,M,76.28,KSBD 301354Z AUTO 00000KT 10SM OVC026 25/17 A2988 RMK AO2 T02460165,M
SBD,2016-07-30 14:00,75.20,50.00,41.14,0.00,0.00,0.00,29.88,M,4.00,M,SCT,M,M,M,10000.00,M,M,M,HZ,M,M,M,M,M,M,75.20,KSBD 301400Z 00000KT 4SM HZ SCT100 24/10 A2988,M
SBD,2016-07-30 14:45,73.40,51.80,46.71,0.00,0.00,0.00,29.89,M,4.00,M,SCT,M,M,M,10000.00,M,M,M,HZ,M,M,M,M,M,M,73.40,KSBD 301445Z 00000KT 4SM HZ SCT100 23/11 A2989,M
SBD,2016-07-30 15:45,84.20,50.00,30.62,0.00,0.00,0.00,29.91,M,4.00,M,BKN,M,M,M,3400.00,M,M,M,HZ,M,M,M,M,M,M,82.24,KSBD 301545Z 00000KT 4SM HZ BKN034 29/10 A2991,M
SBD,2016-07-30 16:45,89.60,46.40,22.53,260.00,3.00,0.00,29.88,M,1.50,M,BKN,M,M,M,2000.00,M,M,M,HZ,M,M,M,M,M,M,86.24,KSBD 301645Z 26003KT 1 1/2SM HZ BKN020 32/08 A2988,M
SBD,2016-07-30 19:50,98.60,62.60,30.80,250.00,14.00,0.00,29.85,M,1.00,M,OVC,M,M,M,2100.00,M,M,M,BLSA HZ,M,M,M,M,M,M,100.38,KSBD 301950Z 25014KT 1SM BLSA HZ OVC021 37/17 A2985,M
SBD,2016-07-30 21:51,98.60,62.60,30.80,240.00,9.00,0.00,29.84,M,2.00,M,OVC,M,M,M,2300.00,M,M,M,BLSA,M,M,M,M,M,M,100.38,KSBD 302151Z 24009KT 2SM BLSA OVC023 37/17 A2984,M
SBD,2016-07-30 22:45,98.60,55.40,23.81,260.00,15.00,0.00,29.82,M,3.00,M,BKN,M,M,M,2900.00,M,M,M,HZ,M,M,M,M,M,M,97.09,KSBD 302245Z 26015KT 3SM HZ BKN029 37/13 A2982,M
SBD,2016-07-30 23:50,98.60,59.00,27.10,260.00,10.00,0.00,29.83,M,4.00,M,SCT,M,M,M,8000.00,M,M,M,HZ,M,M,M,M,M,M,98.60,KSBD 302350Z 26010KT 4SM HZ SCT080 37/15 A2983,M
SBD,2016-07-31 00:50,95.00,59.00,30.26,240.00,9.00,0.00,29.82,M,4.00,M,BKN,M,M,M,10000.00,M,M,M,HZ,M,M,M,M,M,M,95.00,KSBD 310050Z 24009KT 4SM HZ BKN100 35/15 A2982,M
SBD,2016-07-31 01:50,93.20,59.00,31.99,250.00,8.00,0.00,29.83,M,4.00,M,BKN,M,M,M,10000.00,M,M,M,HZ,M,M,M,M,M,M,93.20,KSBD 310150Z 25008KT 4SM HZ BKN100 34/15 A2983,M
SBD,2016-07-31 02:50,89.60,59.00,35.81,270.00,7.00,0.00,29.84,M,5.00,M,SCT,M,M,M,10000.00,M,M,M,HZ,M,M,M,M,M,M,89.60,KSBD 310250Z 27007KT 5SM HZ SCT100 32/15 A2984,M
SBD,2016-07-31 04:14,84.56,60.44,44.25,220.00,7.00,0.00,29.87,M,10.00,M,CLR,M,M,M,M,M,M,M,M,M,M,M,M,M,M,84.64,KSBD 310414Z AUTO 22007KT 10SM CLR 29/16 A2987 RMK AO2 T02920158,M
SBD,2016-07-31 04:34,83.48,60.62,46.11,250.00,8.00,0.00,29.89,M,10.00,M,CLR,M,M,M,M,M,M,M,M,M,M,M,M,M,M,83.76,KSBD 310434Z AUTO 25008KT 10SM CLR 29/16 A2989 RMK AO2 T02860159,M
SBD,2016-07-31 04:54,82.22,60.98,48.65,240.00,7.00,0.00,29.89,M,10.00,M,CLR,M,M,M,M,M,M,M,M,M,M,M,M,M,M,82.80,KSBD 310454Z AUTO 24007KT 10SM CLR 28/16 A2989 RMK AO2 T02790161,M
SBD,2016-07-31 05:14,81.50,61.34,50.44,270.00,6.00,0.00,29.90,M,10.00,M,CLR,M,M,M,M,M,M,M,M,M,M,M,M,M,M,82.30,KSBD 310514Z AUTO 27006KT 10SM CLR 28/16 A2990 RMK AO2 T02750163,M
SBD,2016-07-31 05:34,80.24,61.70,53.23,260.00,5.00,0.00,29.91,M,10.00,M,CLR,M,M,M,M,M,M,M,M,M,M,M,M,M,M,81.35,KSBD 310534Z AUTO 26005KT 10SM CLR 27/17 A2991 RMK AO2 T02680165,M
SBD,2016-07-31 05:54,79.88,61.88,54.20,260.00,5.00,0.00,29.91,M,10.00,M,CLR,M,M,M,M,M,M,M,M,M,M,M,M,M,M,81.09,KSBD 310554Z AUTO 26005KT 10SM CLR 27/17 A2991 RMK AO2 T02660166,M
SBD,2016-07-31 06:14,79.70,62.24,55.22,250.00,6.00,0.00,29.91,M,10.00,M,CLR,M,M,M,M,M,M,M,M,M,M,M,M,M,M,81.01,KSBD 310614Z AUTO 25006KT 10SM CLR 27/17 A2991 RMK AO2 T02650168,M
SBD,2016-07-31 06:34,78.98,62.42,56.90,240.00,4.00,0.00,29.91,M,10.00,M,CLR,M,M,M,M,M,M,M,M,M,M,M,M,M,M,80.44,KSBD 310634Z AUTO 24004KT 10SM CLR 26/17 A2991 RMK AO2 T02610169,M
SBD,2016-07-31 06:54,78.80,62.60,57.60,240.00,5.00,0.00,29.91,M,10.00,M,CLR,M,M,M,M,M,M,M,M,M,M,M,M,M,M,80.31,KSBD 310654Z AUTO 24005KT 10SM CLR 26/17 A2991 RMK AO2 T02600170,M
SBD,2016-07-31 07:14,78.44,62.60,58.29,260.00,5.00,0.00,29.91,M,10.00,M,CLR,M,M,M,M,M,M,M,M,M,M,M,M,M,M,78.44,KSBD 310714Z AUTO 26005KT 10SM CLR 26/17 A2991 RMK AO2 T02580170,M
SBD,2016-07-31 07:34,78.08,62.60,58.99,260.00,4.00,0.00,29.91,M,10.00,M,CLR,M,M,M,M,M,M,M,M,M,M,M,M,M,M,78.08,KSBD 310734Z AUTO 26004KT 10SM CLR 26/17 A2991 RMK AO2 T02560170,M
SBD,2016-07-31 07:54,77.90,62.60,59.34,250.00,3.00,0.00,29.91,M,10.00,M,CLR,M,M,M,M,M,M,M,M,M,M,M,M,M,M,77.90,KSBD 310754Z AUTO 25003KT 10SM CLR 26/17 A2991 RMK AO2 T02550170,M
SBD,2016-07-31 08:14,77.90,62.60,59.34,260.00,4.00,0.00,29.91,M,10.00,M,CLR,M,M,M,M,M,M,M,M,M,M,M,M,M,M,77.90,KSBD 310814Z AUTO 26004KT 10SM CLR 26/17 A2991 RMK AO2 T02550170,M
SBD,2016-07-31 08:34,77.54,62.78,60.43,250.00,3.00,0.00,29.91,M,10.00,M,CLR,M,M,M,M,M,M,M,M,M,M,M,M,M,M,77.54,KSBD 310834Z AUTO 25003KT 10SM CLR 25/17 A2991 RMK AO2 T02530171,M
SBD,2016-07-31 08:54,77.00,62.60,61.13,270.00,4.00,0.00,29.90,M,10.00,M,CLR,M,M,M,M,M,M,M,M,M,M,M,M,M,M,77.00,KSBD 310854Z AUTO 27004KT 10SM CLR 25/17 A2990 RMK AO2 T02500170,M
SBD,2016-07-31 09:14,76.46,62.78,62.63,250.00,4.00,0.00,29.90,M,10.00,M,CLR,M,M,M,M,M,M,M,M,M,M,M,M,M,M,76.46,KSBD 310914Z AUTO 25004KT 10SM CLR 25/17 A2990 RMK AO2 T02470171,M
SBD,2016-07-31 09:34,76.10,62.78,63.39,260.00,3.00,0.00,29.90,M,10.00,M,CLR,M,M,M,M,M,M,M,M,M,M,M,M,M,M,76.10,KSBD 310934Z AUTO 26003KT 10SM CLR 25/17 A2990 RMK AO2 T02450171,M
SBD,2016-07-31 09:54,76.28,62.96,63.41,260.00,3.00,0.00,29.90,M,10.00,M,CLR,M,M,M,M,M,M,M,M,M,M,M,M,M,M,76.28,KSBD 310954Z AUTO 26003KT 10SM CLR 25/17 A2990 RMK AO2 T02460172,M
SBD,2016-07-31 10:14,75.74,62.96,64.56,240.00,3.00,0.00,29.89,M,10.00,M,CLR,M,M,M,M,M,M,M,M,M,M,M,M,M,M,75.74,KSBD 311014Z AUTO 24003KT 10SM CLR 24/17 A2989 RMK AO2 T02430172,M
SBD,2016-07-31 10:34,75.56,62.96,64.95,0.00,0.00,0.00,29.89,M,10.00,M,CLR,M,M,M,M,M,M,M,M,M,M,M,M,M,M,75.56,KSBD 311034Z AUTO 00000KT 10SM CLR 24/17 A2989 RMK AO2 T02420172,M
SBD,2016-07-31 10:54,75.20,62.96,65.73,260.00,3.00,0.00,29.89,M,10.00,M,CLR,M,M,M,M,M,M,M,M,M,M,M,M,M,M,75.20,KSBD 311054Z AUTO 26003KT 10SM CLR 24/17 A2989 RMK AO2 T02400172,M
SBD,2016-07-31 11:14,74.48,62.96,67.34,260.00,4.00,0.00,29.89,M,10.00,M,CLR,M,M,M,M,M,M,M,M,M,M,M,M,M,M,74.48,KSBD 311114Z AUTO 26004KT 10SM CLR 24/17 A2989 RMK AO2 T02360172,M
SBD,2016-07-31 11:34,74.48,63.14,67.76,260.00,4.00,0.00,29.89,M,10.00,M,CLR,M,M,M,M,M,M,M,M,M,M,M,M,M,M,74.48,KSBD 311134Z AUTO 26004KT 10SM CLR 24/17 A2989 RMK AO2 T02360173,M
SBD,2016-07-31 11:54,74.30,63.50,69.04,260.00,3.00,0.00,29.89,M,10.00,M,CLR,M,M,M,M,M,M,M,M,M,M,M,M,M,M,74.30,KSBD 311154Z AUTO 26003KT 10SM CLR 24/18 A2989 RMK AO2 T02350175,M
SBD,2016-07-31 12:14,73.76,63.50,70.30,260.00,3.00,0.00,29.90,M,10.00,M,CLR,M,M,M,M,M,M,M,M,M,M,M,M,M,M,73.76,KSBD 311214Z AUTO 26003KT 10SM CLR 23/18 A2990 RMK AO2 T02320175,M
SBD,2016-07-31 12:34,73.76,63.50,70.30,260.00,3.00,0.00,29.91,M,10.00,M,CLR,M,M,M,M,M,M,M,M,M,M,M,M,M,M,73.76,KSBD 311234Z AUTO 26003KT 10SM CLR 23/18 A2991 RMK AO2 T02320175,M
SBD,2016-07-31 12:54,73.58,63.50,70.73,270.00,4.00,0.00,29.92,M,10.00,M,CLR,M,M,M,M,M,M,M,M,M,M,M,M,M,M,73.58,KSBD 311254Z AUTO 27004KT 10SM CLR 23/18 A2992 RMK AO2 T02310175,M
SBD,2016-07-31 13:14,73.40,63.50,71.16,260.00,3.00,0.00,29.92,M,10.00,M,CLR,M,M,M,M,M,M,M,M,M,M,M,M,M,M,73.40,KSBD 311314Z AUTO 26003KT 10SM CLR 23/18 A2992 RMK AO2 T02300175,M
SBD,2016-07-31 13:34,73.76,63.50,70.30,260.00,4.00,0.00,29.92,M,10.00,M,CLR,M,M,M,M,M,M,M,M,M,M,M,M,M,M,73.76,KSBD 311334Z AUTO 26004KT 10SM CLR 23/18 A2992 RMK AO2 T02320175,M
SBD,2016-07-31 13:54,74.12,63.50,69.46,250.00,3.00,0.00,29.93,M,10.00,M,CLR,M,M,M,M,M,M,M,M,M,M,M,M,M,M,74.12,KSBD 311354Z AUTO 25003KT 10SM CLR 23/18 A2993 RMK AO2 T02340175,M
SBD,2016-07-31 14:50,77.00,62.60,61.13,240.00,3.00,0.00,29.94,M,7.00,M,SCT,M,M,M,12000.00,M,M,M,M,M,M,M,M,M,M,77.00,KSBD 311450Z 24003KT 7SM SCT120 25/17 A2994,M
SBD,2016-07-31 15:47,80.60,62.60,54.30,250.00,3.00,0.00,29.96,M,7.00,M,CLR,M,M,M,M,M,M,M,M,M,M,M,M,M,M,81.84,KSBD 311547Z 25003KT 7SM SKC 27/17 A2996,M
SBD,2016-07-31 16:47,84.20,57.20,39.86,0.00,0.00,0.00,29.95,M,5.00,M,CLR,M,M,M,M,M,M,M,HZ,M,M,M,M,M,M,84.20,KSBD 311647Z 00000KT 5SM HZ SKC 29/14 A2995,M
SBD,2016-07-31 17:49,87.80,57.20,35.53,0.00,0.00,0.00,29.95,M,5.00,M,CLR,M,M,M,M,M,M,M,HZ,M,M,M,M,M,M,86.58,KSBD 311749Z 00000KT 05SM HZ SKC 31/14 A2995,M
SBD,2016-07-31 18:51,91.40,57.20,31.72,240.00,6.00,0.00,29.92,M,5.00,M,FEW,M,M,M,6000.00,M,M,M,HZ,M,M,M,M,M,M,90.06,KSBD 311851Z 24006KT 05SM HZ FEW060 33/14 A2992,M
SBD,2016-07-31 19:47,93.20,57.20,29.99,230.00,5.00,0.00,29.91,M,5.00,M,FEW,M,M,M,6000.00,M,M,M,HZ,M,M,M,M,M,M,91.91,KSBD 311947Z 23005KT 5SM HZ FEW060 34/14 A2991,M
SBD,2016-07-31 21:50,98.60,55.40,23.81,260.00,8.00,0.00,29.87,M,5.00,M,FEW,M,M,M,6000.00,M,M,M,HZ,M,M,M,M,M,M,97.09,KSBD 312150Z 26008KT 5SM HZ FEW060 37/13 A2987,M
SBD,2016-07-31 22:50,96.80,55.40,25.15,270.00,12.00,0.00,29.86,M,5.00,M,FEW,M,M,M,6000.00,M,M,M,HZ,M,M,M,M,M,M,95.14,KSBD 312250Z 27012KT 05SM HZ FEW060 36/13 A2986,M
SBD,2016-07-31 23:48,95.00,55.40,26.58,240.00,14.00,0.00,29.86,M,5.00,M,FEW,M,M,M,6000.00,M,M,M,HZ,M,M,M,M,M,M,93.22,KSBD 312348Z 24014KT 05SM HZ FEW060 35/13 A2986,M
SBD,2016-08-01 00:50,93.20,53.60,26.31,260.00,13.00,0.00,29.87,M,5.00,M,FEW,M,M,M,6000.00,M,M,M,HZ,M,M,M,M,M,M,90.86,KSBD 010050Z 26013KT 5SM HZ FEW060 34/12 A2987,M
SBD,2016-08-01 01:50,89.60,53.60,29.45,240.00,11.00,0.00,29.87,M,6.00,M,FEW,M,M,M,6000.00,M,M,M,HZ,M,M,M,M,M,M,87.36,KSBD 010150Z 24011KT 6SM HZ FEW060 32/12 A2987,M
SBD,2016-08-01 02:50,86.00,51.80,30.90,240.00,10.00,0.00,29.88,M,6.00,M,CLR,M,M,M,M,M,M,M,HZ,M,M,M,M,M,M,83.87,KSBD 010250Z 24010KT 6SM HZ SKC 30/11 A2988,M
SBD,2016-08-01 03:54,82.40,51.80,34.69,250.00,8.00,0.00,29.91,M,6.00,M,CLR,M,M,M,M,M,M,M,HZ,M,M,M,M,M,M,81.20,KSBD 010354Z 25008KT 6SM HZ SKC 28/11 A2991,M
SBD,2016-08-01 04:14,80.78,51.98,36.82,240.00,8.00,0.00,29.93,M,10.00,M,CLR,M,M,M,M,M,M,M,M,M,M,M,M,M,M,80.78,KSBD 010414Z AUTO 24008KT 10SM CLR 27/11 A2993 RMK AO2 T02710111,M
SBD,2016-08-01 04:34,80.06,53.78,40.27,240.00,5.00,0.00,29.94,M,10.00,M,CLR,M,M,M,M,M,M,M,M,M,M,M,M,M,M,79.99,KSBD 010434Z AUTO 24005KT 10SM CLR 27/12 A2994 RMK AO2 T02670121,M
SBD,2016-08-01 04:54,79.16,53.60,41.20,250.00,7.00,0.00,29.94,M,10.00,M,CLR,M,M,M,M,M,M,M,M,M,M,M,M,M,M,79.16,KSBD 010454Z AUTO 25007KT 10SM CLR 26/12 A2994 RMK AO2 T02620120,M
SBD,2016-08-01 05:14,78.80,55.58,44.82,240.00,7.00,0.00,29.94,M,10.00,M,CLR,M,M,M,M,M,M,M,M,M,M,M,M,M,M,78.80,KSBD 010514Z AUTO 24007KT 10SM CLR 26/13 A2994 RMK AO2 T02600131,M
SBD,2016-08-01 05:34,77.90,56.48,47.70,250.00,6.00,0.00,29.94,M,10.00,M,CLR,M,M,M,M,M,M,M,M,M,M,M,M,M,M,77.90,KSBD 010534Z AUTO 25006KT 10SM CLR 26/14 A2994 RMK AO2 T02550136,M
SBD,2016-08-01 05:54,77.36,56.84,49.19,250.00,6.00,0.00,29.94,M,10.00,M,CLR,M,M,M,M,M,M,M,M,M,M,M,M,M,M,77.36,KSBD 010554Z AUTO 25006KT 10SM CLR 25/14 A2994 RMK AO2 T02520138,M
SBD,2016-08-01 06:14,76.82,57.38,51.06,250.00,5.00,0.00,29.94,M,10.00,M,CLR,M,M,M,M,M,M,M,M,M,M,M,M,M,M,76.82,KSBD 010614Z AUTO 25005KT 10SM CLR 25/14 A2994 RMK AO2 T02490141,M
SBD,2016-08-01 06:34,76.46,58.10,53.03,240.00,4.00,0.00,29.94,M,10.00,M,CLR,M,M,M,M,M,M,M,M,M,M,M,M,M,M,76.46,KSBD 010634Z AUTO 24004KT 10SM CLR 25/15 A2994 RMK AO2 T02470145,M
SBD,2016-08-01 06:54,76.10,59.00,55.43,220.00,3.00,0.00,29.94,M,10.00,M,CLR,M,M,M,M,M,M,M,M,M,M,M,M,M,M,76.10,KSBD 010654Z AUTO 22003KT 10SM CLR 25/15 A2994 RMK AO2 T02450150,M
SBD,2016-08-01 07:14,75.38,59.36,57.51,240.00,4.00,0.00,29.95,M,10.00,M,CLR,M,M,M,M,M,M,M,M,M,M,M,M,M,M,75.38,KSBD 010714Z AUTO 24004KT 10SM CLR 24/15 A2995 RMK AO2 T02410152,M
SBD,2016-08-01 07:34,74.66,59.90,60.06,260.00,3.00,0.00,29.95,M,10.00,M,CLR,M,M,M,M,M,M,M,M,M,M,M,M,M,M,74.66,KSBD 010734Z AUTO 26003KT 10SM CLR 24/16 A2995 RMK AO2 T02370155,M
SBD,2016-08-01 07:54,73.94,60.26,62.32,250.00,4.00,0.00,29.94,M,10.00,M,CLR,M,M,M,M,M,M,M,M,M,M,M,M,M,M,73.94,KSBD 010754Z AUTO 25004KT 10SM CLR 23/16 A2994 RMK AO2 T02330157,M
SBD,2016-08-01 08:14,73.40,60.80,64.69,260.00,5.00,0.00,29.94,M,10.00,M,CLR,M,M,M,M,M,M,M,M,M,M,M,M,M,M,73.40,KSBD 010814Z AUTO 26005KT 10SM CLR 23/16 A2994 RMK AO2 T02300160,M
SBD,2016-08-01 08:34,72.86,60.80,65.88,260.00,4.00,0.00,29.93,M,10.00,M,CLR,M,M,M,M,M,M,M,M,M,M,M,M,M,M,72.86,KSBD 010834Z AUTO 26004KT 10SM CLR 23/16 A2993 RMK AO2 T02270160,M
SBD,2016-08-01 08:54,72.86,61.16,66.73,270.00,4.00,0.00,29.93,M,10.00,M,CLR,M,M,M,M,M,M,M,M,M,M,M,M,M,M,72.86,KSBD 010854Z AUTO 27004KT 10SM CLR 23/16 A2993 RMK AO2 T02270162,M
SBD,2016-08-01 09:14,72.32,61.16,67.96,260.00,4.00,0.00,29.93,M,10.00,M,CLR,M,M,M,M,M,M,M,M,M,M,M,M,M,M,72.32,KSBD 010914Z AUTO 26004KT 10SM CLR 22/16 A2993 RMK AO2 T02240162,M
SBD,2016-08-01 09:34,71.96,61.16,68.79,250.00,3.00,0.00,29.93,M,10.00,M,CLR,M,M,M,M,M,M,M,M,M,M,M,M,M,M,71.96,KSBD 010934Z AUTO 25003KT 10SM CLR 22/16 A2993 RMK AO2 T02220162,M
SBD,2016-08-01 09:54,72.14,61.34,68.81,260.00,3.00,0.00,29.93,M,10.00,M,CLR,M,M,M,M,M,M,M,M,M,M,M,M,M,M,72.14,KSBD 010954Z AUTO 26003KT 10SM CLR 22/16 A2993 RMK AO2 T02230163,M
SBD,2016-08-01 10:14,71.60,61.34,70.08,260.00,3.00,0.00,29.94,M,10.00,M,CLR,M,M,M,M,M,M,M,M,M,M,M,M,M,M,71.60,KSBD 011014Z AUTO 26003KT 10SM CLR 22/16 A2994 RMK AO2 T02200163,M
SBD,2016-08-01 10:34,71.24,61.70,71.85,260.00,4.00,0.00,29.94,M,10.00,M,CLR,M,M,M,M,M,M,M,M,M,M,M,M,M,M,71.24,KSBD 011034Z AUTO 26004KT 10SM CLR 22/17 A2994 RMK AO2 T02180165,M
SBD,2016-08-01 10:54,71.24,61.70,71.85,260.00,3.00,0.00,29.94,M,10.00,M,CLR,M,M,M,M,M,M,M,M,M,M,M,M,M,M,71.24,KSBD 011054Z AUTO 26003KT 10SM CLR 22/17 A2994 RMK AO2 T02180165,M
SBD,2016-08-01 11:14,70.70,61.52,72.72,270.00,4.00,0.00,29.94,M,10.00,M,CLR,M,M,M,M,M,M,M,M,M,M,M,M,M,M,70.70,KSBD 011114Z AUTO 27004KT 10SM CLR 22/16 A2994 RMK AO2 T02150164,M
SBD,2016-08-01 11:33,70.70,61.70,73.18,250.00,3.00,0.00,29.94,M,10.00,M,CLR,M,M,M,M,M,M,M,M,M,M,M,M,M,M,70.70,KSBD 011133Z AUTO 25003KT 10SM CLR 22/17 A2994 RMK AO2 T02150165,M
SBD,2016-08-01 11:54,70.52,61.70,73.63,0.00,0.00,0.00,29.94,M,10.00,M,CLR,M,M,M,M,M,M,M,M,M,M,M,M,M,M,70.52,KSBD 011154Z AUTO 00000KT 10SM CLR 21/17 A2994 RMK AO2 T02140165,M
SBD,2016-08-01 12:14,70.52,61.88,74.10,0.00,0.00,0.00,29.94,M,10.00,M,CLR,M,M,M,M,M,M,M,M,M,M,M,M,M,M,70.52,KSBD 011214Z AUTO 00000KT 10SM CLR 21/17 A2994 RMK AO2 T02140166,M
SBD,2016-08-01 12:33,70.70,61.88,73.65,250.00,3.00,0.00,29.95,M,10.00,M,CLR,M,M,M,M,M,M,M,M,M,M,M,M,M,M,70.70,KSBD 011233Z AUTO 25003KT 10SM CLR 22/17 A2995 RMK AO2 T02150166,M
SBD,2016-08-01 12:54,70.70,62.06,74.12,0.00,0.00,0.00,29.95,M,10.00,M,CLR,M,M,M,M,M,M,M,M,M,M,M,M,M,M,70.70,KSBD 011254Z AUTO 00000KT 10SM CLR 22/17 A2995 RMK AO2 T02150167,M
SBD,2016-08-01 13:14,70.70,62.06,74.12,0.00,0.00,0.00,29.96,M,10.00,M,CLR,M,M,M,M,M,M,M,M,M,M,M,M,M,M,70.70,KSBD 011314Z AUTO 00000KT 10SM CLR 22/17 A2996 RMK AO2 T02150167,M
SBD,2016-08-01 13:34,70.70,61.70,73.18,0.00,0.00,0.00,29.96,M,10.00,M,CLR,M,M,M,M,M,M,M,M,M,M,M,M,M,M,70.70,KSBD 011334Z AUTO 00000KT 10SM CLR 22/17 A2996 RMK AO2 T02150165,M
SBD,2016-08-01 13:54,71.60,61.88,71.43,0.00,0.00,0.00,29.97,M,10.00,M,CLR,M,M,M,M,M,M,M,M,M,M,M,M,M,M,71.60,KSBD 011354Z AUTO 00000KT 10SM CLR 22/17 A2997 RMK AO2 T02200166,M
SBD,2016-08-01 14:00,71.60,62.60,73.27,0.00,0.00,0.00,29.97,M,6.00,M,CLR,M,M,M,M,M,M,M,HZ,M,M,M,M,M,M,71.60,KSBD 011400Z 00000KT 6SM HZ SKC 22/17 A2997,M
SBD,2016-08-01 14:48,73.40,62.60,68.94,0.00,0.00,0.00,29.97,M,5.00,M,CLR,M,M,M,M,M,M,M,HZ,M,M,M,M,M,M,73.40,KSBD 011448Z 00000KT 5SM HZ SKC 23/17 A2997,M
SBD,2016-08-01 17:48,86.00,57.20,37.62,310.00,4.00,0.00,29.99,M,5.00,M,CLR,M,M,M,M,M,M,M,HZ,M,M,M,M,M,M,84.97,KSBD 011748Z 31004KT 05SM HZ SKC 30/14 A2999,M
SBD,2016-08-01 18:50,91.40,57.20,31.72,280.00,4.00,0.00,29.97,M,5.00,M,CLR,M,M,M,M,M,M,M,HZ,M,M,M,M,M,M,90.06,KSBD 011850Z 28004KT 05SM HZ SKC 33/14 A2997,M
SBD,2016-08-01 19:50,93.20,55.40,28.10,220.00,6.00,0.00,29.95,M,5.00,M,CLR,M,M,M,M,M,M,M,HZ,M,M,M,M,M,M,91.35,KSBD 011950Z 22006KT 05SM HZ SKC 34/13 A2995,M
SBD,2016-08-01 20:45,95.00,55.40,26.58,260.00,6.00,0.00,29.94,M,5.00,M,CLR,M,M,M,M,M,M,M,HZ,M,M,M,M,M,M,93.22,KSBD 012045Z 26006KT 5SM HZ SKC 35/13 A2994,M
SBD,2016-08-01 21:50,96.80,53.60,23.55,270.00,9.00,0.00,29.92,M,5.00,M,FEW,M,M,M,6000.00,M,M,M,HZ,M,M,M,M,M,M,94.59,KSBD 012150Z 27009KT 5SM HZ FEW060 36/12 A2992,M
SBD,2016-08-01 22:50,98.60,53.60,22.29,260.00,10.00,0.00,29.90,M,5.00,M,FEW,M,M,M,6000.00,M,M,M,HZ,M,M,M,M,M,M,96.51,KSBD 012250Z 26010KT 05SM HZ FEW060 37/12 A2990,M
SBD,2016-08-01 23:55,95.00,53.60,24.89,250.00,13.00,0.00,29.90,M,5.00,M,FEW,M,M,M,6000.00,M,M,M,HZ,M,M,M,M,M,M,92.71,KSBD 012355Z 25013KT 05SM HZ FEW060 35/12 A2990,M
SBD,2016-08-02 00:50,93.20,51.80,24.63,250.00,14.00,0.00,29.90,M,5.00,M,FEW,M,M,M,6000.00,M,M,M,HZ,M,M,M,M,M,M,90.45,KSBD 020050Z 25014KT 5SM HZ FEW060 34/11 A2990,M
SBD,2016-08-02 01:50,89.60,53.60,29.45,240.00,12.00,0.00,29.92,M,5.00,M,CLR,M,M,M,M,M,M,M,HZ,M,M,M,M,M,M,87.36,KSBD 020150Z 24012KT 5SM HZ SKC 32/12 A2992,M
SBD,2016-08-02 02:50,84.20,57.20,39.86,230.00,10.00,0.00,29.95,M,7.00,M,CLR,M,M,M,M,M,M,M,M,M,M,M,M,M,M,84.20,KSBD 020250Z 23010KT 7SM SKC 29/14 A2995,M
SBD,2016-08-02 03:50,80.60,57.20,44.80,240.00,9.00,0.00,29.97,M,7.00,M,CLR,M,M,M,M,M,M,M,M,M,M,M,M,M,M,80.81,KSBD 020350Z 24009KT 7SM SKC 27/14 A2997 RMK LAST,M
SBD,2016-08-02 04:13,80.60,58.64,47.18,260.00,6.00,0.00,29.98,M,10.00,M,CLR,M,M,M,M,M,M,M,M,M,M,M,M,M,M,81.05,KSBD 020413Z AUTO 26006KT 10SM CLR 27/15 A2998 RMK AO2 T02700148,M
SBD,2016-08-02 04:34,79.70,58.46,48.27,260.00,8.00,0.00,29.99,M,10.00,M,CLR,M,M,M,M,M,M,M,M,M,M,M,M,M,M,79.70,KSBD 020434Z AUTO 26008KT 10SM CLR 27/15 A2999 RMK AO2 T02650147,M
SBD,2016-08-02 04:53,78.80,58.28,49.40,260.00,6.00,0.00,30.00,M,10.00,M,CLR,M,M,M,M,M,M,M,M,M,M,M,M,M,M,78.80,KSBD 020453Z AUTO 26006KT 10SM CLR 26/15 A3000 RMK AO2 T02600146,M
SBD,2016-08-02 05:14,78.44,58.46,50.32,250.00,6.00,0.00,30.01,M,10.00,M,CLR,M,M,M,M,M,M,M,M,M,M,M,M,M,M,78.44,KSBD 020514Z AUTO 25006KT 10SM CLR 26/15 A3001 RMK AO2 T02580147,M
SBD,2016-08-02 05:34,77.90,58.46,51.22,240.00,5.00,0.00,30.01,M,10.00,M,CLR,M,M,M,M,M,M,M,M,M,M,M,M,M,M,77.90,KSBD 020534Z AUTO 24005KT 10SM CLR 26/15 A3001 RMK AO2 T02550147,M
SBD,2016-08-02 05:53,77.36,59.36,53.85,250.00,6.00,0.00,30.01,M,10.00,M,CLR,M,M,M,M,M,M,M,M,M,M,M,M,M,M,77.36,KSBD 020553Z AUTO 25006KT 10SM CLR 25/15 A3001 RMK AO2 T02520152,M
SBD,2016-08-02 06:14,76.46,59.90,56.56,250.00,3.00,0.00,30.02,M,10.00,M,CLR,M,M,M,M,M,M,M,M,M,M,M,M,M,M,76.46,KSBD 020614Z AUTO 25003KT 10SM CLR 25/16 A3002 RMK AO2 T02470155,M
SBD,2016-08-02 06:34,75.74,60.08,58.31,250.00,5.00,0.00,30.02,M,10.00,M,CLR,M,M,M,M,M,M,M,M,M,M,M,M,M,M,75.74,KSBD 020634Z AUTO 25005KT 10SM CLR 24/16 A3002 RMK AO2 T02430156,M
SBD,2016-08-02 06:53,75.38,60.26,59.39,260.00,5.00,0.00,30.02,M,10.00,M,CLR,M,M,M,M,M,M,M,M,M,M,M,M,M,M,75.38,KSBD 020653Z AUTO 26005KT 10SM CLR 24/16 A3002 RMK AO2 T02410157,M
SBD,2016-08-02 07:14,74.48,60.62,61.99,260.00,5.00,0.00,30.02,M,10.00,M,CLR,M,M,M,M,M,M,M,M,M,M,M,M,M,M,74.48,KSBD 020714Z AUTO 26005KT 10SM CLR 24/16 A3002 RMK AO2 T02360159,M
SBD,2016-08-02 07:34,73.94,60.80,63.53,250.00,4.00,0.00,30.02,M,10.00,M,CLR,M,M,M,M,M,M,M,M,M,M,M,M,M,M,73.94,KSBD 020734Z AUTO 25004KT 10SM CLR 23/16 A3002 RMK AO2 T02330160,M
SBD,2016-08-02 07:53,73.94,60.62,63.12,240.00,3.00,0.00,30.01,M,10.00,M,CLR,M,M,M,M,M,M,M,M,M,M,M,M,M,M,73.94,KSBD 020753Z AUTO 24003KT 10SM CLR 23/16 A3001 RMK AO2 T02330159,M
SBD,2016-08-02 08:14,73.40,60.08,63.06,250.00,4.00,0.00,30.01,M,10.00,M,CLR,M,M,M,M,M,M,M,M,M,M,M,M,M,M,73.40,KSBD 020814Z AUTO 25004KT 10SM CLR 23/16 A3001 RMK AO2 T02300156,M
SBD,2016-08-02 08:34,73.40,60.08,63.06,250.00,4.00,0.00,30.01,M,10.00,M,CLR,M,M,M,M,M,M,M,M,M,M,M,M,M,M,73.40,KSBD 020834Z AUTO 25004KT 10SM CLR 23/16 A3001 RMK AO2 T02300156,M
SBD,2016-08-02 08:53,72.68,59.90,64.19,260.00,4.00,0.00,30.01,M,10.00,M,CLR,M,M,M,M,M,M,M,M,M,M,M,M,M,M,72.68,KSBD 020853Z AUTO 26004KT 10SM CLR 23/16 A3001 RMK AO2 T02260155,M
SBD,2016-08-02 09:14,72.50,59.90,64.59,260.00,3.00,0.00,30.01,M,10.00,M,CLR,M,M,M,M,M,M,M,M,M,M,M,M,M,M,72.50,KSBD 020914Z AUTO 26003KT 10SM CLR 23/16 A3001 RMK AO2 T02250155,M
SBD,2016-08-02 09:34,71.96,60.26,66.63,280.00,3.00,0.00,30.00,M,10.00,M,CLR,M,M,M,M,M,M,M,M,M,M,M,M,M,M,71.96,KSBD 020934Z AUTO 28003KT 10SM CLR 22/16 A3000 RMK AO2 T02220157,M
SBD,2016-08-02 09:53,71.60,60.44,67.88,250.00,4.00,0.00,30.00,M,10.00,M,CLR,M,M,M,M,M,M,M,M,M,M,M,M,M,M,71.60,KSBD 020953Z AUTO 25004KT 10SM CLR 22/16 A3000 RMK AO2 T02200158,M
SBD,2016-08-02 10:14,70.88,60.80,70.45,260.00,3.00,0.00,30.00,M,10.00,M,CLR,M,M,M,M,M,M,M,M,M,M,M,M,M,M,70.88,KSBD 021014Z AUTO 26003KT 10SM CLR 22/16 A3000 RMK AO2 T02160160,M
SBD,2016-08-02 10:34,70.88,60.80,70.45,250.00,3.00,0.00,30.00,M,10.00,M,CLR,M,M,M,M,M,M,M,M,M,M,M,M,M,M,70.88,KSBD 021034Z AUTO 25003KT 10SM CLR 22/16 A3000 RMK AO2 T02160160,M
SBD,2016-08-02 10:53,70.70,60.80,70.88,260.00,3.00,0.00,30.00,M,10.00,M,CLR,M,M,M,M,M,M,M,M,M,M,M,M,M,M,70.70,KSBD 021053Z AUTO 26003KT 10SM CLR 22/16 A3000 RMK AO2 T02150160,M
SBD,2016-08-02 11:14,70.34,60.80,71.76,260.00,3.00,0.00,29.99,M,10.00,M,CLR,M,M,M,M,M,M,M,M,M,M,M,M,M,M,70.34,KSBD 021114Z AUTO 26003KT 10SM CLR 21/16 A2999 RMK AO2 T02130160,M
SBD,2016-08-02 11:34,69.98,60.80,72.65,260.00,4.00,0.00,30.00,M,10.00,M,CLR,M,M,M,M,M,M,M,M,M,M,M,M,M,M,69.98,KSBD 021134Z AUTO 26004KT 10SM CLR 21/16 A3000 RMK AO2 T02110160,M
SBD,2016-08-02 11:53,69.80,60.80,73.09,260.00,3.00,0.00,30.00,M,10.00,M,CLR,M,M,M,M,M,M,M,M,M,M,M,M,M,M,69.80,KSBD 021153Z AUTO 26003KT 10SM CLR 21/16 A3000 RMK AO2 T02100160,M
SBD,2016-08-02 12:14,69.80,60.98,73.56,260.00,4.00,0.00,30.00,M,10.00,M,CLR,M,M,M,M,M,M,M,M,M,M,M,M,M,M,69.80,KSBD 021214Z AUTO 26004KT 10SM CLR 21/16 A3000 RMK AO2 T02100161,M
SBD,2016-08-02 12:34,69.80,61.34,74.51,260.00,3.00,0.00,30.01,M,10.00,M,CLR,M,M,M,M,M,M,M,M,M,M,M,M,M,M,69.80,KSBD 021234Z AUTO 26003KT 10SM CLR 21/16 A3001 RMK AO2 T02100163,M
SBD,2016-08-02 12:53,69.62,61.70,75.93,250.00,4.00,0.00,30.01,M,10.00,M,CLR,M,M,M,M,M,M,M,M,M,M,M,M,M,M,69.62,KSBD 021253Z AUTO 25004KT 10SM CLR 21/17 A3001 RMK AO2 T02090165,M
SBD,2016-08-02 13:14,69.26,61.70,76.87,270.00,3.00,0.00,30.02,M,10.00,M,CLR,M,M,M,M,M,M,M,M,M,M,M,M,M,M,69.26,KSBD 021314Z AUTO 27003KT 10SM CLR 21/17 A3002 RMK AO2 T02070165,M
SBD,2016-08-02 13:34,69.62,61.70,75.93,270.00,3.00,0.00,30.03,M,10.00,M,CLR,M,M,M,M,M,M,M,M,M,M,M,M,M,M,69.62,KSBD 021334Z AUTO 27003KT 10SM CLR 21/17 A3003 RMK AO2 T02090165,M
SBD,2016-08-02 13:53,70.16,62.06,75.49,260.00,5.00,0.00,30.03,M,10.00,M,CLR,M,M,M,M,M,M,M,M,M,M,M,M,M,M,70.16,KSBD 021353Z AUTO 26005KT 10SM CLR 21/17 A3003 RMK AO2 T02120167,M
SBD,2016-08-02 14:00,69.80,62.60,77.90,240.00,3.00,0.00,30.03,M,5.00,M,CLR,M,M,M,M,M,M,M,HZ,M,M,M,M,M,M,69.80,KSBD 021400Z 24003KT 5SM HZ SKC 21/17 A3003,M
SBD,2016-08-02 14:45,73.40,62.60,68.94,230.00,3.00,0.00,30.04,M,5.00,M,CLR,M,M,M,M,M,M,M,HZ,M,M,M,M,M,M,73.40,KSBD 021445Z 23003KT 5SM HZ SKC 23/17 A3004,M
SBD,2016-08-02 15:45,75.20,57.20,53.55,0.00,0.00,0.00,30.04,M,4.00,M,CLR,M,M,M,M,M,M,M,HZ,M,M,M,M,M,M,75.20,KSBD 021545Z 00000KT 4SM HZ SKC 24/14 A3004,M
SBD,2016-08-02 16:45,78.80,59.00,50.69,230.00,3.00,0.00,30.03,M,4.00,M,CLR,M,M,M,M,M,M,M,HZ,M,M,M,M,M,M,78.80,KSBD 021645Z 23003KT 4SM HZ SKC 26/15 A3003,M
SBD,2016-08-02 17:51,84.20,57.20,39.86,0.00,0.00,0.00,30.03,M,4.00,M,CLR,M,M,M,M,M,M,M,HZ,M,M,M,M,M,M,84.20,KSBD 021751Z 00000KT 04SM HZ SKC 29/14 A3003,M
SBD,2016-08-02 18:50,86.00,55.40,35.25,280.00,3.00,0.00,30.01,M,4.00,M,CLR,M,M,M,M,M,M,M,HZ,M,M,M,M,M,M,84.54,KSBD 021850Z 28003KT 04SM HZ SKC 30/13 A3001,M
SBD,2016-08-02 20:55,95.00,55.40,26.58,0.00,0.00,0.00,29.96,M,4.00,M,SCT,M,M,M,8000.00,M,M,M,HZ,M,M,M,M,M,M,93.22,KSBD 022055Z 00000KT 4SM HZ SCT080 35/13 A2996,M
SBD,2016-08-02 21:50,96.80,51.80,22.04,260.00,8.00,0.00,29.94,M,5.00,M,SCT,M,M,M,8000.00,M,M,M,HZ,M,M,M,M,M,M,94.12,KSBD 022150Z 26008KT 5SM HZ SCT080 36/11 A2994,M
SBD,2016-08-02 23:49,98.60,50.00,19.52,230.00,9.00,0.00,29.90,M,6.00,M,FEW,M,M,M,8000.00,M,M,M,HZ,M,M,M,M,M,M,95.56,KSBD 022349Z 23009KT 06SM HZ FEW080 37/10 A2990,M
SBD,2016-08-03 00:50,96.80,48.20,19.28,230.00,14.00,0.00,29.90,M,6.00,M,FEW,M,M,M,8000.00,M,M,M,HZ,M,M,M,M,M,M,93.36,KSBD 030050Z 23014KT 6SM HZ FEW080 36/09 A2990,M
SBD,2016-08-03 01:50,91.40,50.00,24.37,240.00,13.00,0.00,29.91,M,6.00,M,FEW,M,M,M,8000.00,M,M,M,HZ,M,M,M,M,M,M,88.36,KSBD 030150Z 24013KT 6SM HZ FEW080 33/10 A2991,M
SBD,2016-08-03 02:50,86.00,50.00,28.90,230.00,8.00,0.00,29.95,M,6.00,M,SCT,M,M,M,8000.00,M,M,M,HZ,M,M,M,M,M,M,83.62,KSBD 030250Z 23008KT 6SM HZ SCT080 30/10 A2995,M
SBD,2016-08-03 03:50,82.40,53.60,37.07,220.00,7.00,0.00,29.98,M,5.00,M,SCT,M,M,M,8000.00,M,M,M,HZ,M,M,M,M,M,M,82.40,KSBD 030350Z 22007KT 5SM HZ SCT080 28/12 A2998 RMK LAST,M
SBD,2016-08-03 04:14,81.14,56.30,42.61,240.00,6.00,0.00,30.00,M,10.00,M,CLR,M,M,M,M,M,M,M,M,M,M,M,M,M,M,81.03,KSBD 030414Z AUTO 24006KT 10SM CLR 27/14 A3000 RMK AO2 T02730135,M
SBD,2016-08-03 04:34,79.88,57.92,47.07,240.00,7.00,0.00,30.01,M,10.00,M,CLR,M,M,M,M,M,M,M,M,M,M,M,M,M,M,79.88,KSBD 030434Z AUTO 24007KT 10SM CLR 27/14 A3001 RMK AO2 T02660144,M
SBD,2016-08-03 04:54,79.16,59.18,50.42,260.00,7.00,0.00,30.01,M,10.00,M,CLR,M,M,M,M,M,M,M,M,M,M,M,M,M,M,79.16,KSBD 030454Z AUTO 26007KT 10SM CLR 26/15 A3001 RMK AO2 T02620151,M
SBD,2016-08-03 05:14,78.44,59.90,52.97,240.00,5.00,0.00,30.01,M,10.00,M,CLR,M,M,M,M,M,M,M,M,M,M,M,M,M,M,78.44,KSBD 030514Z AUTO 24005KT 10SM CLR 26/16 A3001 RMK AO2 T02580155,M
SBD,2016-08-03 05:33,77.90,59.90,53.93,240.00,6.00,0.00,30.01,M,10.00,M,CLR,M,M,M,M,M,M,M,M,M,M,M,M,M,M,77.90,KSBD 030533Z AUTO 24006KT 10SM CLR 26/16 A3001 RMK AO2 T02550155,M
SBD,2016-08-03 05:54,77.36,59.90,54.90,240.00,5.00,0.00,30.01,M,10.00,M,CLR,M,M,M,M,M,M,M,M,M,M,M,M,M,M,77.36,KSBD 030554Z AUTO 24005KT 10SM CLR 25/16 A3001 RMK AO2 T02520155,M
SBD,2016-08-03 06:14,77.00,59.90,55.56,230.00,4.00,0.00,30.02,M,10.00,M,CLR,M,M,M,M,M,M,M,M,M,M,M,M,M,M,77.00,KSBD 030614Z AUTO 23004KT 10SM CLR 25/16 A3002 RMK AO2 T02500155,M
SBD,2016-08-03 06:34,76.10,59.90,57.24,240.00,5.00,0.00,30.02,M,10.00,M,CLR,M,M,M,M,M,M,M,M,M,M,M,M,M,M,76.10,KSBD 030634Z AUTO 24005KT 10SM CLR 25/16 A3002 RMK AO2 T02450155,M
SBD,2016-08-03 06:54,75.38,60.26,59.39,250.00,6.00,0.00,30.03,M,10.00,M,CLR,M,M,M,M,M,M,M,M,M,M,M,M,M,M,75.38,KSBD 030654Z AUTO 25006KT 10SM CLR 24/16 A3003 RMK AO2 T02410157,M
SBD,2016-08-03 07:14,75.20,60.26,59.75,240.00,5.00,0.00,30.02,M,10.00,M,CLR,M,M,M,M,M,M,M,M,M,M,M,M,M,M,75.20,KSBD 030714Z AUTO 24005KT 10SM CLR 24/16 A3002 RMK AO2 T02400157,M
SBD,2016-08-03 07:34,74.48,60.44,61.60,250.00,5.00,0.00,30.02,M,10.00,M,CLR,M,M,M,M,M,M,M,M,M,M,M,M,M,M,74.48,KSBD 030734Z AUTO 25005KT 10SM CLR 24/16 A3002 RMK AO2 T02360158,M
SBD,2016-08-03 07:54,73.94,60.80,63.53,250.00,5.00,0.00,30.02,M,10.00,M,CLR,M,M,M,M,M,M,M,M,M,M,M,M,M,M,73.94,KSBD 030754Z AUTO 25005KT 10SM CLR 23/16 A3002 RMK AO2 T02330160,M
SBD,2016-08-03 08:14,73.58,60.80,64.30,260.00,6.00,0.00,30.01,M,10.00,M,CLR,M,M,M,M,M,M,M,M,M,M,M,M,M,M,73.58,KSBD 030814Z AUTO 26006KT 10SM CLR 23/16 A3001 RMK AO2 T02310160,M
SBD,2016-08-03 08:34,72.86,60.62,65.46,250.00,4.00,0.00,30.01,M,10.00,M,CLR,M,M,M,M,M,M,M,M,M,M,M,M,M,M,72.86,KSBD 030834Z AUTO 25004KT 10SM CLR 23/16 A3001 RMK AO2 T02270159,M
SBD,2016-08-03 08:54,72.50,60.80,66.69,250.00,5.00,0.00,30.01,M,10.00,M,CLR,M,M,M,M,M,M,M,M,M,M,M,M,M,M,72.50,KSBD 030854Z AUTO 25005KT 10SM CLR 23/16 A3001 RMK AO2 T02250160,M
SBD,2016-08-03 09:14,72.14,60.80,67.50,260.00,5.00,0.00,30.01,M,10.00,M,CLR,M,M,M,M,M,M,M,M,M,M,M,M,M,M,72.14,KSBD 030914Z AUTO 26005KT 10SM CLR 22/16 A3001 RMK AO2 T02230160,M
SBD,2016-08-03 09:34,71.24,60.80,69.59,260.00,4.00,0.00,30.01,M,10.00,M,CLR,M,M,M,M,M,M,M,M,M,M,M,M,M,M,71.24,KSBD 030934Z AUTO 26004KT 10SM CLR 22/16 A3001 RMK AO2 T02180160,M
SBD,2016-08-03 09:54,70.70,60.80,70.88,250.00,4.00,0.00,30.01,M,10.00,M,CLR,M,M,M,M,M,M,M,M,M,M,M,M,M,M,70.70,KSBD 030954Z AUTO 25004KT 10SM CLR 22/16 A3001 RMK AO2 T02150160,M
SBD,2016-08-03 10:14,70.34,60.80,71.76,0.00,0.00,0.00,30.00,M,10.00,M,CLR,M,M,M,M,M,M,M,M,M,M,M,M,M,M,70.34,KSBD 031014Z AUTO 00000KT 10SM CLR 21/16 A3000 RMK AO2 T02130160,M
SBD,2016-08-03 10:34,70.16,60.80,72.20,0.00,0.00,0.00,30.00,M,10.00,M,CLR,M,M,M,M,M,M,M,M,M,M,M,M,M,M,70.16,KSBD 031034Z AUTO 00000KT 10SM CLR 21/16 A3000 RMK AO2 T02120160,M
SBD,2016-08-03 10:54,70.70,60.80,70.88,0.00,0.00,0.00,30.00,M,10.00,M,CLR,M,M,M,M,M,M,M,M,M,M,M,M,M,M,70.70,KSBD 031054Z AUTO 00000KT 10SM CLR 22/16 A3000 RMK AO2 T02150160,M
SBD,2016-08-03 11:14,71.06,60.98,70.47,240.00,4.00,0.00,29.99,M,10.00,M,CLR,M,M,M,M,M,M,M,M,M,M,M,M,M,M,71.06,KSBD 031114Z AUTO 24004KT 10SM CLR 22/16 A2999 RMK AO2 T02170161,M
SBD,2016-08-03 11:34,70.70,60.80,70.88,250.00,5.00,0.00,29.99,M,10.00,M,CLR,M,M,M,M,M,M,M,M,M,M,M,M,M,M,70.70,KSBD 031134Z AUTO 25005KT 10SM CLR 22/16 A2999 RMK AO2 T02150160,M
SBD,2016-08-03 11:54,70.52,60.98,71.78,250.00,6.00,0.00,29.99,M,10.00,M,CLR,M,M,M,M,M,M,M,M,M,M,M,M,M,M,70.52,KSBD 031154Z AUTO 25006KT 10SM CLR 21/16 A2999 RMK AO2 T02140161,M
SBD,2016-08-03 12:14,69.98,60.98,73.11,250.00,5.00,0.00,30.00,M,10.00,M,CLR,M,M,M,M,M,M,M,M,M,M,M,M,M,M,69.98,KSBD 031214Z AUTO 25005KT 10SM CLR 21/16 A3000 RMK AO2 T02110161,M
SBD,2016-08-03 12:34,69.44,60.98,74.47,260.00,4.00,0.00,30.00,M,10.00,M,CLR,M,M,M,M,M,M,M,M,M,M,M,M,M,M,69.44,KSBD 031234Z AUTO 26004KT 10SM CLR 21/16 A3000 RMK AO2 T02080161,M
SBD,2016-08-03 12:53,69.08,60.98,75.40,260.00,5.00,0.00,30.00,M,10.00,M,CLR,M,M,M,M,M,M,M,M,M,M,M,M,M,M,69.08,KSBD 031253Z AUTO 26005KT 10SM CLR 21/16 A3000 RMK AO2 T02060161,M
SBD,2016-08-03 13:14,68.90,61.16,76.35,260.00,4.00,0.00,30.01,M,10.00,M,CLR,M,M,M,M,M,M,M,M,M,M,M,M,M,M,68.90,KSBD 031314Z AUTO 26004KT 10SM CLR 21/16 A3001 RMK AO2 T02050162,M
SBD,2016-08-03 13:34,69.08,61.34,76.36,260.00,4.00,0.00,30.01,M,10.00,M,CLR,M,M,M,M,M,M,M,M,M,M,M,M,M,M,69.08,KSBD 031334Z AUTO 26004KT 10SM CLR 21/16 A3001 RMK AO2 T02060163,M
SBD,2016-08-03 13:53,69.44,61.70,76.40,250.00,3.00,0.00,30.01,M,10.00,M,CLR,M,M,M,M,M,M,M,M,M,M,M,M,M,M,69.44,KSBD 031353Z AUTO 25003KT 10SM CLR 21/17 A3001 RMK AO2 T02080165,M
SBD,2016-08-03 14:00,69.80,62.60,77.90,230.00,3.00,0.00,30.01,M,4.00,M,SCT,M,M,M,10000.00,M,M,M,HZ,M,M,M,M,M,M,69.80,KSBD 031400Z 23003KT 4SM HZ SCT100 21/17 A3001,M
SBD,2016-08-03 15:45,71.60,62.60,73.27,0.00,0.00,0.00,30.02,M,4.00,M,SCT,M,M,M,10000.00,M,M,M,HZ,M,M,M,M,M,M,71.60,KSBD 031545Z 00000KT 4SM HZ SCT100 22/17 A3002,M
SBD,2016-08-03 16:50,77.00,60.80,57.36,220.00,3.00,0.00,30.01,M,5.00,M,SCT,M,M,M,10000.00,M,M,M,HZ,M,M,M,M,M,M,77.00,KSBD 031650Z 22003KT 5SM HZ SCT100 25/16 A3001,M
SBD,2016-08-03 17:50,84.20,55.40,37.35,280.00,5.00,0.00,30.00,M,6.00,M,FEW,SCT,M,M,6000.00,12000.00,M,M,HZ,M,M,M,M,M,M,83.09,KSBD 031750Z 28005KT 6SM HZ FEW060 SCT120 29/13 A3000,M
SBD,2016-08-03 18:50,87.80,53.60,31.17,220.00,5.00,0.00,29.98,M,6.00,M,FEW,SCT,M,M,6000.00,12000.00,M,M,HZ,M,M,M,M,M,M,85.72,KSBD 031850Z 22005KT 6SM HZ FEW060 SCT120 31/12 A2998,M
SBD,2016-08-03 21:50,96.80,50.00,20.62,220.00,8.00,0.00,29.93,M,7.00,M,FEW,SCT,M,M,6000.00,12000.00,M,M,M,M,M,M,M,M,M,93.71,KSBD 032150Z 22008KT 7SM FEW060 SCT120 36/10 A2993,M
SBD,2016-08-03 22:50,95.00,51.80,23.30,260.00,11.00,0.00,29.91,M,7.00,M,FEW,SCT,M,M,6000.00,10000.00,M,M,M,M,M,M,M,M,M,92.26,KSBD 032250Z 26011KT 7SM FEW060 SCT100 35/11 A2991,M
SBD,2016-08-04 00:48,93.20,50.00,23.04,240.00,12.00,0.00,29.89,M,7.00,M,FEW,M,M,M,6000.00,M,M,M,M,M,M,M,M,M,M,90.10,KSBD 040048Z 24012KT 7SM FEW060 34/10 A2989,M
SBD,2016-08-04 01:49,89.60,48.20,24.11,240.00,13.00,0.00,29.89,M,7.00,M,FEW,M,M,M,6000.00,M,M,M,M,M,M,M,M,M,M,86.44,KSBD 040149Z 24013KT 7SM FEW060 32/09 A2989,M
SBD,2016-08-04 02:48,84.20,55.40,37.35,240.00,12.00,0.00,29.91,M,7.00,M,FEW,M,M,M,6000.00,M,M,M,M,M,M,M,M,M,M,83.09,KSBD 040248Z 24012KT 7SM FEW060 29/13 A2991,M
SBD,2016-08-04 03:47,80.60,59.00,47.79,230.00,8.00,0.00,29.93,M,7.00,M,CLR,M,M,M,M,M,M,M,M,M,M,M,M,M,M,81.11,KSBD 040347Z 23008KT 7SM SKC 27/15 A2993,M
SBD,2016-08-04 04:14,78.80,59.18,51.02,240.00,8.00,0.00,29.94,M,10.00,M,CLR,M,M,M,M,M,M,M,M,M,M,M,M,M,M,78.80,KSBD 040414Z AUTO 24008KT 10SM CLR 26/15 A2994 RMK AO2 T02600151,M
SBD,2016-08-04 04:34,78.08,59.36,52.58,250.00,6.00,0.00,29.96,M,10.00,M,CLR,M,M,M,M,M,M,M,M,M,M,M,M,M,M,78.08,KSBD 040434Z AUTO 25006KT 10SM CLR 26/15 A2996 RMK AO2 T02560152,M
SBD,2016-08-04 04:53,77.36,59.36,53.85,250.00,6.00,0.00,29.96,M,10.00,M,CLR,M,M,M,M,M,M,M,M,M,M,M,M,M,M,77.36,KSBD 040453Z AUTO 25006KT 10SM CLR 25/15 A2996 RMK AO2 T02520152,M
SBD,2016-08-04 05:14,76.64,60.08,56.59,250.00,6.00,0.00,29.96,M,10.00,M,CLR,M,M,M,M,M,M,M,M,M,M,M,M,M,M,76.64,KSBD 040514Z AUTO 25006KT 10SM CLR 25/16 A2996 RMK AO2 T02480156,M
SBD,2016-08-04 05:34,75.74,60.80,59.82,240.00,6.00,0.00,29.96,M,10.00,M,CLR,M,M,M,M,M,M,M,M,M,M,M,M,M,M,75.74,KSBD 040534Z AUTO 24006KT 10SM CLR 24/16 A2996 RMK AO2 T02430160,M
SBD,2016-08-04 05:53,75.02,60.80,61.27,250.00,8.00,0.00,29.95,M,10.00,M,CLR,M,M,M,M,M,M,M,M,M,M,M,M,M,M,75.02,KSBD 040553Z AUTO 25008KT 10SM CLR 24/16 A2995 RMK AO2 T02390160,M
SBD,2016-08-04 06:14,74.30,61.16,63.57,250.00,6.00,0.00,29.95,M,10.00,M,CLR,M,M,M,M,M,M,M,M,M,M,M,M,M,M,74.30,KSBD 040614Z AUTO 25006KT 10SM CLR 24/16 A2995 RMK AO2 T02350162,M
SBD,2016-08-04 06:34,73.76,61.34,65.15,240.00,6.00,0.00,29.96,M,10.00,M,CLR,M,M,M,M,M,M,M,M,M,M,M,M,M,M,73.76,KSBD 040634Z AUTO 24006KT 10SM CLR 23/16 A2996 RMK AO2 T02320163,M
SBD,2016-08-04 06:53,72.86,61.34,67.15,270.00,7.00,0.00,29.96,M,10.00,M,CLR,M,M,M,M,M,M,M,M,M,M,M,M,M,M,72.86,KSBD 040653Z AUTO 27007KT 10SM CLR 23/16 A2996 RMK AO2 T02270163,M
SBD,2016-08-04 07:14,72.50,61.16,67.54,260.00,6.00,0.00,29.95,M,10.00,M,CLR,M,M,M,M,M,M,M,M,M,M,M,M,M,M,72.50,KSBD 040714Z AUTO 26006KT 10SM CLR 23/16 A2995 RMK AO2 T02250162,M
SBD,2016-08-04 07:34,71.78,61.16,69.21,260.00,5.00,0.00,29.94,M,10.00,M,CLR,M,M,M,M,M,M,M,M,M,M,M,M,M,M,71.78,KSBD 040734Z AUTO 26005KT 10SM CLR 22/16 A2994 RMK AO2 T02210162,M
SBD,2016-08-04 07:53,71.60,60.98,69.19,250.00,5.00,0.00,29.94,M,10.00,M,CLR,M,M,M,M,M,M,M,M,M,M,M,M,M,M,71.60,KSBD 040753Z AUTO 25005KT 10SM CLR 22/16 A2994 RMK AO2 T02200161,M
SBD,2016-08-04 08:14,71.42,61.16,70.06,260.00,6.00,0.00,29.94,M,10.00,M,CLR,M,M,M,M,M,M,M,M,M,M,M,M,M,M,71.42,KSBD 040814Z AUTO 26006KT 10SM CLR 22/16 A2994 RMK AO2 T02190162,M
SBD,2016-08-04 08:34,70.88,61.16,71.36,260.00,4.00,0.00,29.94,M,10.00,M,CLR,M,M,M,M,M,M,M,M,M,M,M,M,M,M,70.88,KSBD 040834Z AUTO 26004KT 10SM CLR 22/16 A2994 RMK AO2 T02160162,M
SBD,2016-08-04 08:54,70.70,61.16,71.80,260.00,5.00,0.00,29.94,M,10.00,M,CLR,M,M,M,M,M,M,M,M,M,M,M,M,M,M,70.70,KSBD 040854Z AUTO 26005KT 10SM CLR 22/16 A2994 RMK AO2 T02150162,M
SBD,2016-08-04 09:14,70.70,61.16,71.80,250.00,4.00,0.00,29.93,M,10.00,M,CLR,M,M,M,M,M,M,M,M,M,M,M,M,M,M,70.70,KSBD 040914Z AUTO 25004KT 10SM CLR 22/16 A2993 RMK AO2 T02150162,M
SBD,2016-08-04 09:34,70.34,60.98,72.22,0.00,0.00,0.00,29.93,M,10.00,M,CLR,M,M,M,M,M,M,M,M,M,M,M,M,M,M,70.34,KSBD 040934Z AUTO 00000KT 10SM CLR 21/16 A2993 RMK AO2 T02130161,M
SBD,2016-08-04 09:54,69.98,60.98,73.11,250.00,3.00,0.00,29.92,M,10.00,M,CLR,M,M,M,M,M,M,M,M,M,M,M,M,M,M,69.98,KSBD 040954Z AUTO 25003KT 10SM CLR 21/16 A2992 RMK AO2 T02110161,M
SBD,2016-08-04 10:14,70.16,61.16,73.13,250.00,5.00,0.00,29.92,M,10.00,M,CLR,M,M,M,M,M,M,M,M,M,M,M,M,M,M,70.16,KSBD 041014Z AUTO 25005KT 10SM CLR 21/16 A2992 RMK AO2 T02120162,M
SBD,2016-08-04 10:34,69.80,60.98,73.56,250.00,4.00,0.00,29.93,M,10.00,M,CLR,M,M,M,M,M,M,M,M,M,M,M,M,M,M,69.80,KSBD 041034Z AUTO 25004KT 10SM CLR 21/16 A2993 RMK AO2 T02100161,M
SBD,2016-08-04 10:53,69.80,60.98,73.56,260.00,3.00,0.00,29.93,M,10.00,M,CLR,M,M,M,M,M,M,M,M,M,M,M,M,M,M,69.80,KSBD 041053Z AUTO 26003KT 10SM CLR 21/16 A2993 RMK AO2 T02100161,M
SBD,2016-08-04 11:14,69.08,60.98,75.40,260.00,3.00,0.00,29.93,M,10.00,M,CLR,M,M,M,M,M,M,M,M,M,M,M,M,M,M,69.08,KSBD 041114Z AUTO 26003KT 10SM CLR 21/16 A2993 RMK AO2 T02060161,M
SBD,2016-08-04 11:34,68.90,60.98,75.86,260.00,5.00,0.00,29.93,M,10.00,M,CLR,M,M,M,M,M,M,M,M,M,M,M,M,M,M,68.90,KSBD 041134Z AUTO 26005KT 10SM CLR 21/16 A2993 RMK AO2 T02050161,M
SBD,2016-08-04 11:54,69.26,60.98,74.93,0.00,0.00,0.00,29.94,M,10.00,M,CLR,M,M,M,M,M,M,M,M,M,M,M,M,M,M,69.26,KSBD 041154Z AUTO 00000KT 10SM CLR 21/16 A2994 RMK AO2 T02070161,M
SBD,2016-08-04 12:14,69.26,60.98,74.93,0.00,0.00,0.00,29.93,M,10.00,M,CLR,M,M,M,M,M,M,M,M,M,M,M,M,M,M,69.26,KSBD 041214Z AUTO 00000KT 10SM CLR 21/16 A2993 RMK AO2 T02070161,M
SBD,2016-08-04 12:34,68.90,60.80,75.38,0.00,0.00,0.00,29.93,M,10.00,M,CLR,M,M,M,M,M,M,M,M,M,M,M,M,M,M,68.90,KSBD 041234Z AUTO 00000KT 10SM CLR 21/16 A2993 RMK AO2 T02050160,M
SBD,2016-08-04 12:54,68.36,60.44,75.82,260.00,5.00,0.00,29.93,M,10.00,M,CLR,M,M,M,M,M,M,M,M,M,M,M,M,M,M,68.36,KSBD 041254Z AUTO 26005KT 10SM CLR 20/16 A2993 RMK AO2 T02020158,M
SBD,2016-08-04 13:14,68.54,60.80,76.32,0.00,0.00,0.00,29.94,M,10.00,M,CLR,M,M,M,M,M,M,M,M,M,M,M,M,M,M,68.54,KSBD 041314Z AUTO 00000KT 10SM CLR 20/16 A2994 RMK AO2 T02030160,M
SBD,2016-08-04 13:34,69.26,60.98,74.93,260.00,5.00,0.00,29.94,M,10.00,M,CLR,M,M,M,M,M,M,M,M,M,M,M,M,M,M,69.26,KSBD 041334Z AUTO 26005KT 10SM CLR 21/16 A2994 RMK AO2 T02070161,M
SBD,2016-08-04 13:54,69.44,60.80,74.00,250.00,3.00,0.00,29.95,M,10.00,M,CLR,M,M,M,M,M,M,M,M,M,M,M,M,M,M,69.44,KSBD 041354Z AUTO 25003KT 10SM CLR 21/16 A2995 RMK AO2 T02080160,M
SBD,2016-08-04 14:00,69.80,62.60,77.90,240.00,3.00,0.00,29.95,M,5.00,M,SCT,M,M,M,10000.00,M,M,M,HZ,M,M,M,M,M,M,69.80,KSBD 041400Z 24003KT 5SM HZ SCT100 21/17 A2995,M
SBD,2016-08-04 14:48,71.60,62.60,73.27,0.00,0.00,0.00,29.95,M,5.00,M,SCT,M,M,M,10000.00,M,M,M,HZ,M,M,M,M,M,M,71.60,KSBD 041448Z 00000KT 5SM HZ SCT100 22/17 A2995,M
SBD,2016-08-04 15:45,73.40,62.60,68.94,0.00,0.00,0.00,29.95,M,5.00,M,SCT,M,M,M,10000.00,M,M,M,HZ,M,M,M,M,M,M,73.40,KSBD 041545Z 00000KT 5SM HZ SCT100 23/17 A2995,M
SBD,2016-08-04 16:46,78.80,60.80,54.05,0.00,0.00,0.00,29.93,M,5.00,M,SCT,M,M,M,10000.00,M,M,M,HZ,M,M,M,M,M,M,78.80,KSBD 041646Z 00000KT 5SM HZ SCT100 26/16 A2993,M
SBD,2016-08-04 17:47,82.40,59.00,45.07,230.00,3.00,0.00,29.93,M,5.00,M,SCT,M,M,M,10000.00,M,M,M,HZ,M,M,M,M,M,M,82.46,KSBD 041747Z 23003KT 5SM HZ SCT100 28/15 A2993,M
SBD,2016-08-04 19:50,91.40,55.40,29.72,230.00,5.00,0.00,29.89,M,6.00,M,SCT,M,M,M,10000.00,M,M,M,M,M,M,M,M,M,M,89.53,KSBD 041950Z 23005KT 6SM SCT100 33/13 A2989,M
SBD,2016-08-04 20:47,93.20,55.40,28.10,270.00,7.00,0.00,29.86,M,6.00,M,FEW,M,M,M,10000.00,M,M,M,HZ,M,M,M,M,M,M,91.35,KSBD 042047Z 27007KT 06SM HZ FEW100 34/13 A2986,M
SBD,2016-08-04 21:47,96.80,53.60,23.55,240.00,8.00,0.00,29.84,M,6.00,M,FEW,M,M,M,10000.00,M,M,M,HZ,M,M,M,M,M,M,94.59,KSBD 042147Z 24008KT 06SM HZ FEW100 36/12 A2984,M
SBD,2016-08-04 22:50,96.80,53.60,23.55,240.00,8.00,0.00,29.81,M,7.00,M,FEW,M,M,M,10000.00,M,M,M,M,M,M,M,M,M,M,94.59,KSBD 042250Z 24008KT 7SM FEW100 36/12 A2981,M
SBD,2016-08-04 23:50,95.00,55.40,26.58,250.00,12.00,0.00,29.81,M,7.00,M,FEW,M,M,M,10000.00,M,M,M,M,M,M,M,M,M,M,93.22,KSBD 042350Z 25012KT 7SM FEW100 35/13 A2981,M
SBD,2016-08-05 00:48,93.20,57.20,29.99,230.00,12.00,0.00,29.81,M,7.00,M,FEW,M,M,M,10000.00,M,M,M,M,M,M,M,M,M,M,91.91,KSBD 050048Z 23012KT 07SM FEW100 34/14 A2981,M
SBD,2016-08-05 01:50,87.80,57.20,35.53,240.00,11.00,0.00,29.83,M,7.00,M,FEW,M,M,M,6000.00,M,M,M,M,M,M,M,M,M,M,86.58,KSBD 050150Z 24011KT 07SM FEW060 31/14 A2983,M
SBD,2016-08-05 02:50,84.20,59.00,42.52,230.00,8.00,0.00,29.85,M,7.00,M,FEW,M,M,M,10000.00,M,M,M,M,M,M,M,M,M,M,83.92,KSBD 050250Z 23008KT 07SM FEW100 29/15 A2985,M
SBD,2016-08-05 03:48,80.60,59.00,M,M,M,0.00,29.87,M,24007.00,M,CLR,M,M,M,M,M,M,M,M,M,M,M,M,M,M,M,KSBD 050348Z 24007SM 07SM SKC 27/15 A2987 RMK LAST,M
SBD,2016-08-05 04:14,79.70,59.36,49.85,240.00,7.00,0.00,29.88,M,10.00,M,CLR,M,M,M,M,M,M,M,M,M,M,M,M,M,M,79.70,KSBD 050414Z AUTO 24007KT 10SM CLR 27/15 A2988 RMK AO2 T02650152,M
SBD,2016-08-05 04:34,78.80,59.36,51.35,250.00,7.00,0.00,29.89,M,10.00,M,CLR,M,M,M,M,M,M,M,M,M,M,M,M,M,M,78.80,KSBD 050434Z AUTO 25007KT 10SM CLR 26/15 A2989 RMK AO2 T02600152,M
SBD,2016-08-05 04:54,78.08,59.00,51.91,250.00,6.00,0.00,29.89,M,10.00,M,CLR,M,M,M,M,M,M,M,M,M,M,M,M,M,M,78.08,KSBD 050454Z AUTO 25006KT 10SM CLR 26/15 A2989 RMK AO2 T02560150,M
SBD,2016-08-05 05:13,77.72,59.00,52.53,250.00,6.00,0.00,29.89,M,10.00,M,CLR,M,M,M,M,M,M,M,M,M,M,M,M,M,M,77.72,KSBD 050513Z AUTO 25006KT 10SM CLR 25/15 A2989 RMK AO2 T02540150,M
SBD,2016-08-05 05:34,76.82,58.64,53.43,260.00,6.00,0.00,29.89,M,10.00,M,CLR,M,M,M,M,M,M,M,M,M,M,M,M,M,M,76.82,KSBD 050534Z AUTO 26006KT 10SM CLR 25/15 A2989 RMK AO2 T02490148,M
SBD,2016-08-05 05:54,76.28,59.36,55.81,250.00,6.00,0.00,29.89,M,10.00,M,CLR,M,M,M,M,M,M,M,M,M,M,M,M,M,M,76.28,KSBD 050554Z AUTO 25006KT 10SM CLR 25/15 A2989 RMK AO2 T02460152,M
SBD,2016-08-05 06:14,75.74,59.90,57.93,250.00,5.00,0.00,29.89,M,10.00,M,CLR,M,M,M,M,M,M,M,M,M,M,M,M,M,M,75.74,KSBD 050614Z AUTO 25005KT 10SM CLR 24/16 A2989 RMK AO2 T02430155,M
SBD,2016-08-05 06:33,75.02,59.90,59.34,250.00,4.00,0.00,29.89,M,10.00,M,CLR,M,M,M,M,M,M,M,M,M,M,M,M,M,M,75.02,KSBD 050633Z AUTO 25004KT 10SM CLR 24/16 A2989 RMK AO2 T02390155,M
SBD,2016-08-05 06:54,74.12,59.90,61.16,250.00,6.00,0.00,29.89,M,10.00,M,CLR,M,M,M,M,M,M,M,M,M,M,M,M,M,M,74.12,KSBD 050654Z AUTO 25006KT 10SM CLR 23/16 A2989 RMK AO2 T02340155,M
SBD,2016-08-05 08:14,71.60,60.08,67.01,260.00,6.00,0.00,29.89,M,10.00,M,CLR,M,M,M,M,M,M,M,M,M,M,M,M,M,M,71.60,KSBD 050814Z AUTO 26006KT 10SM CLR 22/16 A2989 RMK AO2 T02200156,M
SBD,2016-08-05 08:33,70.88,60.26,69.11,260.00,5.00,0.00,29.89,M,10.00,M,CLR,M,M,M,M,M,M,M,M,M,M,M,M,M,M,70.88,KSBD 050833Z AUTO 26005KT 10SM CLR 22/16 A2989 RMK AO2 T02160157,M
SBD,2016-08-05 08:54,70.34,60.26,70.39,250.00,4.00,0.00,29.89,M,10.00,M,CLR,M,M,M,M,M,M,M,M,M,M,M,M,M,M,70.34,KSBD 050854Z AUTO 25004KT 10SM CLR 21/16 A2989 RMK AO2 T02130157,M
SBD,2016-08-05 09:14,70.16,60.44,71.28,260.00,5.00,0.00,29.89,M,10.00,M,CLR,M,M,M,M,M,M,M,M,M,M,M,M,M,M,70.16,KSBD 050914Z AUTO 26005KT 10SM CLR 21/16 A2989 RMK AO2 T02120158,M
SBD,2016-08-05 09:33,69.80,60.80,73.09,260.00,4.00,0.00,29.89,M,10.00,M,CLR,M,M,M,M,M,M,M,M,M,M,M,M,M,M,69.80,KSBD 050933Z AUTO 26004KT 10SM CLR 21/16 A2989 RMK AO2 T02100160,M
SBD,2016-08-05 09:54,69.26,60.44,73.51,260.00,4.00,0.00,29.89,M,10.00,M,CLR,M,M,M,M,M,M,M,M,M,M,M,M,M,M,69.26,KSBD 050954Z AUTO 26004KT 10SM CLR 21/16 A2989 RMK AO2 T02070158,M
SBD,2016-08-05 10:14,68.90,60.62,74.90,250.00,4.00,0.00,29.89,M,10.00,M,CLR,M,M,M,M,M,M,M,M,M,M,M,M,M,M,68.90,KSBD 051014Z AUTO 25004KT 10SM CLR 21/16 A2989 RMK AO2 T02050159,M
SBD,2016-08-05 10:33,68.54,60.80,76.32,250.00,3.00,0.00,29.88,M,10.00,M,CLR,M,M,M,M,M,M,M,M,M,M,M,M,M,M,68.54,KSBD 051033Z AUTO 25003KT 10SM CLR 20/16 A2988 RMK AO2 T02030160,M
SBD,2016-08-05 10:54,68.18,60.80,77.27,260.00,4.00,0.00,29.88,M,10.00,M,CLR,M,M,M,M,M,M,M,M,M,M,M,M,M,M,68.18,KSBD 051054Z AUTO 26004KT 10SM CLR 20/16 A2988 RMK AO2 T02010160,M
SBD,2016-08-05 11:14,68.18,60.62,76.78,260.00,3.00,0.00,29.88,M,10.00,M,CLR,M,M,M,M,M,M,M,M,M,M,M,M,M,M,68.18,KSBD 051114Z AUTO 26003KT 10SM CLR 20/16 A2988 RMK AO2 T02010159,M
SBD,2016-08-05 11:33,68.00,60.80,77.75,260.00,4.00,0.00,29.89,M,10.00,M,CLR,M,M,M,M,M,M,M,M,M,M,M,M,M,M,68.00,KSBD 051133Z AUTO 26004KT 10SM CLR 20/16 A2989 RMK AO2 T02000160,M
SBD,2016-08-05 11:54,67.28,60.80,79.70,260.00,3.00,0.00,29.89,M,10.00,M,CLR,M,M,M,M,M,M,M,M,M,M,M,M,M,M,67.28,KSBD 051154Z AUTO 26003KT 10SM CLR 20/16 A2989 RMK AO2 T01960160,M
SBD,2016-08-05 12:14,67.28,60.80,79.70,270.00,3.00,0.00,29.90,M,10.00,M,CLR,M,M,M,M,M,M,M,M,M,M,M,M,M,M,67.28,KSBD 051214Z AUTO 27003KT 10SM CLR 20/16 A2990 RMK AO2 T01960160,M
SBD,2016-08-05 12:34,66.74,60.80,81.20,260.00,4.00,0.00,29.90,M,10.00,M,CLR,M,M,M,M,M,M,M,M,M,M,M,M,M,M,66.74,KSBD 051234Z AUTO 26004KT 10SM CLR 19/16 A2990 RMK AO2 T01930160,M
SBD,2016-08-05 12:54,66.74,60.98,81.72,250.00,4.00,0.00,29.90,M,7.00,M,CLR,M,M,M,M,M,M,M,M,M,M,M,M,M,M,66.74,KSBD 051254Z AUTO 25004KT 7SM CLR 19/16 A2990 RMK AO2 T01930161,M
SBD,2016-08-05 13:14,66.74,61.16,82.25,250.00,4.00,0.00,29.90,M,7.00,M,CLR,M,M,M,M,M,M,M,M,M,M,M,M,M,M,66.74,KSBD 051314Z AUTO 25004KT 7SM CLR 19/16 A2990 RMK AO2 T01930162,M
SBD,2016-08-05 13:34,66.56,60.98,82.24,260.00,3.00,0.00,29.91,M,7.00,M,CLR,M,M,M,M,M,M,M,M,M,M,M,M,M,M,66.56,KSBD 051334Z AUTO 26003KT 7SM CLR 19/16 A2991 RMK AO2 T01920161,M
SBD,2016-08-05 14:00,66.20,62.60,88.18,230.00,4.00,0.00,29.91,M,3.00,M,CLR,M,M,M,M,M,M,M,HZ,M,M,M,M,M,M,66.20,KSBD 051400Z 23004KT 3SM HZ SKC 19/17 A2991,M
SBD,2016-08-05 14:45,69.80,62.60,77.90,250.00,3.00,0.00,29.91,M,3.00,M,CLR,M,M,M,M,M,M,M,HZ,M,M,M,M,M,M,69.80,KSBD 051445Z 25003KT 3SM HZ SKC 21/17 A2991,M
SBD,2016-08-05 15:45,71.60,62.60,73.27,0.00,0.00,0.00,29.91,M,3.00,M,CLR,M,M,M,M,M,M,M,HZ,M,M,M,M,M,M,71.60,KSBD 051545Z 00000KT 3SM HZ SKC 22/17 A2991,M
SBD,2016-08-05 16:46,75.20,62.60,64.91,0.00,0.00,0.00,29.91,M,3.00,M,CLR,M,M,M,M,M,M,M,HZ,M,M,M,M,M,M,75.20,KSBD 051646Z 00000KT 3SM HZ SKC 24/17 A2991,M
SBD,2016-08-05 17:48,82.40,55.40,39.58,310.00,3.00,0.00,29.91,M,3.00,M,CLR,M,M,M,M,M,M,M,HZ,M,M,M,M,M,M,82.40,KSBD 051748Z 31003KT 3SM HZ SKC 28/13 A2991,M
SBD,2016-08-05 18:47,84.20,57.20,39.86,0.00,0.00,0.00,29.89,M,4.00,M,CLR,M,M,M,M,M,M,M,HZ,M,M,M,M,M,M,84.20,KSBD 051847Z 00000KT 4SM HZ SKC 29/14 A2989,M
SBD,2016-08-05 20:50,91.40,57.20,31.72,280.00,7.00,0.00,29.85,M,4.00,M,CLR,M,M,M,M,M,M,M,HZ,M,M,M,M,M,M,90.06,KSBD 052050Z 28007KT 04SM HZ SKC 33/14 A2985,M
SBD,2016-08-05 21:50,93.20,55.40,28.10,260.00,6.00,0.00,29.83,M,4.00,M,FEW,M,M,M,6000.00,M,M,M,HZ,M,M,M,M,M,M,91.35,KSBD 052150Z 26006KT 04SM HZ FEW060 34/13 A2983,M
SBD,2016-08-05 23:50,95.00,55.40,26.58,260.00,9.00,0.00,29.81,M,5.00,M,FEW,M,M,M,6000.00,M,M,M,HZ,M,M,M,M,M,M,93.22,KSBD 052350Z 26009KT 5SM HZ FEW060 35/13 A2981,M
SBD,2016-08-06 00:50,91.40,55.40,29.72,240.00,10.00,0.00,29.80,M,7.00,M,CLR,M,M,M,M,M,M,M,M,M,M,M,M,M,M,89.53,KSBD 060050Z 24010KT 07SM SKC 33/13 A2980,M
SBD,2016-08-06 01:55,84.20,59.00,42.52,240.00,12.00,0.00,29.82,M,7.00,M,CLR,M,M,M,M,M,M,M,M,M,M,M,M,M,M,83.92,KSBD 060155Z 24012KT 07SM SKC 29/15 A2982,M
SBD,2016-08-06 02:48,82.40,59.00,45.07,240.00,10.00,0.00,29.84,M,7.00,M,CLR,M,M,M,M,M,M,M,M,M,M,M,M,M,M,82.46,KSBD 060248Z 24010KT 07SM SKC 28/15 A2984,M
SBD,2016-08-06 03:48,78.80,60.80,54.05,230.00,6.00,0.00,29.86,M,7.00,M,CLR,M,M,M,M,M,M,M,M,M,M,M,M,M,M,78.80,KSBD 060348Z 23006KT 07SM SKC 26/16 A2986 RMK LAST,M
SBD,2016-08-06 04:14,77.90,60.80,55.68,240.00,6.00,0.00,29.87,M,10.00,M,CLR,M,M,M,M,M,M,M,M,M,M,M,M,M,M,77.90,KSBD 060414Z AUTO 24006KT 10SM CLR 26/16 A2987 RMK AO2 T02550160,M
SBD,2016-08-06 04:33,77.00,60.80,57.36,240.00,7.00,0.00,29.87,M,10.00,M,CLR,M,M,M,M,M,M,M,M,M,M,M,M,M,M,77.00,KSBD 060433Z AUTO 24007KT 10SM CLR 25/16 A2987 RMK AO2 T02500160,M
SBD,2016-08-06 04:54,76.10,61.16,59.86,240.00,6.00,0.00,29.87,M,10.00,M,CLR,M,M,M,M,M,M,M,M,M,M,M,M,M,M,76.10,KSBD 060454Z AUTO 24006KT 10SM CLR 25/16 A2987 RMK AO2 T02450162,M
SBD,2016-08-06 05:14,75.38,61.70,62.50,250.00,5.00,0.00,29.87,M,10.00,M,CLR,M,M,M,M,M,M,M,M,M,M,M,M,M,M,75.38,KSBD 060514Z AUTO 25005KT 10SM CLR 24/17 A2987 RMK AO2 T02410165,M
SBD,2016-08-06 05:34,74.48,61.70,64.41,250.00,7.00,0.00,29.87,M,10.00,M,CLR,M,M,M,M,M,M,M,M,M,M,M,M,M,M,74.48,KSBD 060534Z AUTO 25007KT 10SM CLR 24/17 A2987 RMK AO2 T02360165,M
SBD,2016-08-06 05:54,74.30,61.70,64.80,250.00,5.00,0.00,29.87,M,10.00,M,CLR,M,M,M,M,M,M,M,M,M,M,M,M,M,M,74.30,KSBD 060554Z AUTO 25005KT 10SM CLR 24/17 A2987 RMK AO2 T02350165,M
SBD,2016-08-06 06:14,73.40,61.70,66.79,250.00,5.00,0.00,29.87,M,10.00,M,CLR,M,M,M,M,M,M,M,M,M,M,M,M,M,M,73.40,KSBD 060614Z AUTO 25005KT 10SM CLR 23/17 A2987 RMK AO2 T02300165,M
SBD,2016-08-06 06:34,72.50,61.70,68.85,250.00,6.00,0.00,29.88,M,10.00,M,CLR,M,M,M,M,M,M,M,M,M,M,M,M,M,M,72.50,KSBD 060634Z AUTO 25006KT 10SM CLR 23/17 A2988 RMK AO2 T02250165,M
SBD,2016-08-06 06:54,72.50,61.70,68.85,250.00,5.00,0.00,29.88,M,10.00,M,CLR,M,M,M,M,M,M,M,M,M,M,M,M,M,M,72.50,KSBD 060654Z AUTO 25005KT 10SM CLR 23/17 A2988 RMK AO2 T02250165,M
SBD,2016-08-06 07:14,71.78,61.70,70.55,250.00,4.00,0.00,29.88,M,10.00,M,CLR,M,M,M,M,M,M,M,M,M,M,M,M,M,M,71.78,KSBD 060714Z AUTO 25004KT 10SM CLR 22/17 A2988 RMK AO2 T02210165,M
SBD,2016-08-06 07:34,71.60,61.88,71.43,250.00,4.00,0.00,29.88,M,10.00,M,CLR,M,M,M,M,M,M,M,M,M,M,M,M,M,M,71.60,KSBD 060734Z AUTO 25004KT 10SM CLR 22/17 A2988 RMK AO2 T02200166,M
SBD,2016-08-06 07:54,71.24,61.70,71.85,250.00,4.00,0.00,29.89,M,10.00,M,CLR,M,M,M,M,M,M,M,M,M,M,M,M,M,M,71.24,KSBD 060754Z AUTO 25004KT 10SM CLR 22/17 A2989 RMK AO2 T02180165,M
SBD,2016-08-06 08:14,70.34,61.70,74.08,260.00,3.00,0.00,29.89,M,10.00,M,CLR,M,M,M,M,M,M,M,M,M,M,M,M,M,M,70.34,KSBD 060814Z AUTO 26003KT 10SM CLR 21/17 A2989 RMK AO2 T02130165,M
SBD,2016-08-06 08:34,70.34,61.70,74.08,250.00,5.00,0.00,29.89,M,10.00,M,CLR,M,M,M,M,M,M,M,M,M,M,M,M,M,M,70.34,KSBD 060834Z AUTO 25005KT 10SM CLR 21/17 A2989 RMK AO2 T02130165,M
SBD,2016-08-06 08:54,69.80,61.70,75.46,260.00,4.00,0.00,29.89,M,10.00,M,CLR,M,M,M,M,M,M,M,M,M,M,M,M,M,M,69.80,KSBD 060854Z AUTO 26004KT 10SM CLR 21/17 A2989 RMK AO2 T02100165,M
SBD,2016-08-06 09:14,69.26,61.70,76.87,260.00,6.00,0.00,29.89,M,10.00,M,CLR,M,M,M,M,M,M,M,M,M,M,M,M,M,M,69.26,KSBD 060914Z AUTO 26006KT 10SM CLR 21/17 A2989 RMK AO2 T02070165,M
SBD,2016-08-06 09:34,68.90,61.70,77.82,260.00,4.00,0.00,29.88,M,10.00,M,CLR,M,M,M,M,M,M,M,M,M,M,M,M,M,M,68.90,KSBD 060934Z AUTO 26004KT 10SM CLR 21/17 A2988 RMK AO2 T02050165,M
SBD,2016-08-06 09:54,68.36,61.34,78.28,250.00,4.00,0.00,29.88,M,10.00,M,CLR,M,M,M,M,M,M,M,M,M,M,M,M,M,M,68.36,KSBD 060954Z AUTO 25004KT 10SM CLR 20/16 A2988 RMK AO2 T02020163,M
SBD,2016-08-06 10:14,68.36,61.34,78.28,260.00,3.00,0.00,29.89,M,10.00,M,CLR,M,M,M,M,M,M,M,M,M,M,M,M,M,M,68.36,KSBD 061014Z AUTO 26003KT 10SM CLR 20/16 A2989 RMK AO2 T02020163,M
SBD,2016-08-06 10:34,68.00,61.16,78.75,260.00,4.00,0.00,29.88,M,10.00,M,CLR,M,M,M,M,M,M,M,M,M,M,M,M,M,M,68.00,KSBD 061034Z AUTO 26004KT 10SM CLR 20/16 A2988 RMK AO2 T02000162,M
SBD,2016-08-06 10:54,67.46,61.16,80.23,250.00,3.00,0.00,29.88,M,10.00,M,CLR,M,M,M,M,M,M,M,M,M,M,M,M,M,M,67.46,KSBD 061054Z AUTO 25003KT 10SM CLR 20/16 A2988 RMK AO2 T01970162,M
SBD,2016-08-06 11:14,67.10,60.80,80.20,260.00,4.00,0.00,29.88,M,7.00,M,CLR,M,M,M,M,M,M,M,M,M,M,M,M,M,M,67.10,KSBD 061114Z AUTO 26004KT 7SM CLR 20/16 A2988 RMK AO2 T01950160,M
SBD,2016-08-06 11:34,66.74,60.80,81.20,260.00,3.00,0.00,29.88,M,7.00,M,CLR,M,M,M,M,M,M,M,M,M,M,M,M,M,M,66.74,KSBD 061134Z AUTO 26003KT 7SM CLR 19/16 A2988 RMK AO2 T01930160,M
SBD,2016-08-06 11:54,66.56,60.80,81.71,260.00,3.00,0.00,29.88,M,7.00,M,CLR,M,M,M,M,M,M,M,M,M,M,M,M,M,M,66.56,KSBD 061154Z AUTO 26003KT 7SM CLR 19/16 A2988 RMK AO2 T01920160,M
SBD,2016-08-06 12:14,66.20,60.44,81.69,260.00,3.00,0.00,29.88,M,7.00,M,CLR,M,M,M,M,M,M,M,M,M,M,M,M,M,M,66.20,KSBD 061214Z AUTO 26003KT 7SM CLR 19/16 A2988 RMK AO2 T01900158,M
SBD,2016-08-06 12:33,65.84,60.44,82.71,260.00,3.00,0.00,29.89,M,7.00,M,CLR,M,M,M,M,M,M,M,M,M,M,M,M,M,M,65.84,KSBD 061233Z AUTO 26003KT 7SM CLR 19/16 A2989 RMK AO2 T01880158,M
SBD,2016-08-06 12:54,65.48,60.26,83.22,260.00,4.00,0.00,29.89,M,7.00,M,CLR,M,M,M,M,M,M,M,M,M,M,M,M,M,M,65.48,KSBD 061254Z AUTO 26004KT 7SM CLR 19/16 A2989 RMK AO2 T01860157,M
SBD,2016-08-06 13:14,65.66,60.80,84.30,250.00,3.00,0.00,29.89,M,7.00,M,CLR,M,M,M,M,M,M,M,M,M,M,M,M,M,M,65.66,KSBD 061314Z AUTO 25003KT 7SM CLR 19/16 A2989 RMK AO2 T01870160,M
SBD,2016-08-06 13:33,65.48,60.44,83.76,250.00,4.00,0.00,29.89,M,7.00,M,SCT,SCT,M,M,1500.00,1900.00,M,M,M,M,M,M,M,M,M,65.48,KSBD 061333Z AUTO 25004KT 7SM SCT015 SCT019 19/16 A2989 RMK AO2 T01860158,M
SBD,2016-08-06 13:54,66.02,60.80,83.26,0.00,0.00,0.00,29.89,M,7.00,M,BKN,BKN,M,M,1500.00,1900.00,M,M,M,M,M,M,M,M,M,66.02,KSBD 061354Z AUTO 00000KT 7SM BKN015 BKN019 19/16 A2989 RMK AO2 T01890160,M
SBD,2016-08-06 14:50,68.00,60.80,77.75,0.00,0.00,0.00,29.90,M,3.00,M,BKN,M,M,M,1300.00,M,M,M,HZ,M,M,M,M,M,M,68.00,KSBD 061450Z 00000KT 3SM HZ BKN013 20/16 A2990,M
SBD,2016-08-06 15:50,M,M,M,300.00,3.00,0.00,29.98,M,3.00,M,SCT,M,M,M,1300.00,M,M,M,HZ,M,M,M,M,M,M,M,KSBD 061550Z 30003KT 3SM HZ SCT013 A2998,M
SBD,2016-08-06 16:50,77.00,60.80,57.36,0.00,0.00,0.00,29.89,M,3.00,M,FEW,M,M,M,1300.00,M,M,M,HZ,M,M,M,M,M,M,77.00,KSBD 061650Z 00000KT 3SM HZ FEW013 25/16 A2989,M
SBD,2016-08-06 17:48,80.60,59.00,47.79,0.00,0.00,0.00,29.88,M,4.00,M,CLR,M,M,M,M,M,M,M,HZ,M,M,M,M,M,M,81.11,KSBD 061748Z 00000KT 4SM HZ SKC 27/15 A2988,M
SBD,2016-08-06 18:48,84.20,57.20,39.86,240.00,4.00,0.00,29.87,M,4.00,M,CLR,M,M,M,M,M,M,M,HZ,M,M,M,M,M,M,84.20,KSBD 061848Z 24004KT 04SM HZ SKC 29/14 A2987,M
SBD,2016-08-06 19:50,89.60,57.20,33.56,230.00,5.00,0.00,29.84,M,4.00,M,CLR,M,M,M,M,M,M,M,HZ,M,M,M,M,M,M,88.28,KSBD 061950Z 23005KT 04SM HZ SKC 32/14 A2984,M
SBD,2016-08-06 20:47,91.40,57.20,31.72,270.00,4.00,0.00,29.82,M,4.00,M,CLR,M,M,M,M,M,M,M,HZ,M,M,M,M,M,M,90.06,KSBD 062047Z 27004KT 04SM HZ SKC 33/14 A2982,M
SBD,2016-08-06 21:48,93.20,55.40,28.10,270.00,6.00,0.00,29.80,M,4.00,M,CLR,M,M,M,M,M,M,M,HZ,M,M,M,M,M,M,91.35,KSBD 062148Z 27006KT 4SM HZ SKC 34/13 A2980,M
SBD,2016-08-06 22:50,95.00,55.40,26.58,270.00,8.00,0.00,29.78,M,5.00,M,CLR,M,M,M,M,M,M,M,HZ,M,M,M,M,M,M,93.22,KSBD 062250Z 27008KT 5SM HZ SKC 35/13 A2978,M
SBD,2016-08-06 23:48,95.00,55.40,26.58,260.00,11.00,0.00,29.78,M,5.00,M,CLR,M,M,M,M,M,M,M,HZ,M,M,M,M,M,M,93.22,KSBD 062348Z 26011KT 05SM HZ SKC 35/13 A2978,M
SBD,2016-08-07 01:47,87.80,57.20,35.53,250.00,12.00,0.00,29.78,M,5.00,M,CLR,M,M,M,M,M,M,M,HZ,M,M,M,M,M,M,86.58,KSBD 070147Z 25012KT 05SM HZ SKC 31/14 A2978,M
SBD,2016-08-07 02:50,80.60,59.00,47.79,230.00,9.00,0.00,29.80,M,5.00,M,CLR,M,M,M,M,M,M,M,HZ,M,M,M,M,M,M,81.11,KSBD 070250Z 23009KT 05SM HZ SKC 27/15 A2980,M
SBD,2016-08-07 03:48,77.00,60.80,57.36,230.00,6.00,0.00,29.82,M,5.00,M,CLR,M,M,M,M,M,M,M,HZ,M,M,M,M,M,M,77.00,KSBD 070348Z 23006KT 05SM HZ SKC 25/16 A2982 RMK LAST,M
SBD,2016-08-07 04:14,77.18,60.80,57.02,250.00,5.00,0.00,29.83,M,10.00,M,CLR,M,M,M,M,M,M,M,M,M,M,M,M,M,M,77.18,KSBD 070414Z AUTO 25005KT 10SM CLR 25/16 A2983 RMK AO2 T02510160,M
SBD,2016-08-07 04:33,76.28,60.80,58.75,240.00,6.00,0.00,29.84,M,10.00,M,CLR,M,M,M,M,M,M,M,M,M,M,M,M,M,M,76.28,KSBD 070433Z AUTO 24006KT 10SM CLR 25/16 A2984 RMK AO2 T02460160,M
SBD,2016-08-07 04:54,75.20,60.80,60.90,240.00,6.00,0.00,29.84,M,10.00,M,CLR,M,M,M,M,M,M,M,M,M,M,M,M,M,M,75.20,KSBD 070454Z AUTO 24006KT 10SM CLR 24/16 A2984 RMK AO2 T02400160,M
SBD,2016-08-07 05:14,73.94,60.80,63.53,250.00,6.00,0.00,29.84,M,10.00,M,CLR,M,M,M,M,M,M,M,M,M,M,M,M,M,M,73.94,KSBD 070514Z AUTO 25006KT 10SM CLR 23/16 A2984 RMK AO2 T02330160,M
SBD,2016-08-07 05:33,73.40,60.80,64.69,260.00,5.00,0.00,29.85,M,10.00,M,CLR,M,M,M,M,M,M,M,M,M,M,M,M,M,M,73.40,KSBD 070533Z AUTO 26005KT 10SM CLR 23/16 A2985 RMK AO2 T02300160,M
SBD,2016-08-07 05:54,72.50,60.80,66.69,260.00,6.00,0.00,29.85,M,10.00,M,CLR,M,M,M,M,M,M,M,M,M,M,M,M,M,M,72.50,KSBD 070554Z AUTO 26006KT 10SM CLR 23/16 A2985 RMK AO2 T02250160,M
SBD,2016-08-07 06:14,71.78,60.80,68.33,260.00,5.00,0.00,29.85,M,10.00,M,CLR,M,M,M,M,M,M,M,M,M,M,M,M,M,M,71.78,KSBD 070614Z AUTO 26005KT 10SM CLR 22/16 A2985 RMK AO2 T02210160,M
SBD,2016-08-07 06:34,71.06,60.80,70.02,260.00,6.00,0.00,29.86,M,10.00,M,CLR,M,M,M,M,M,M,M,M,M,M,M,M,M,M,71.06,KSBD 070634Z AUTO 26006KT 10SM CLR 22/16 A2986 RMK AO2 T02170160,M
SBD,2016-08-07 06:54,70.70,60.62,70.43,260.00,7.00,0.00,29.86,M,10.00,M,CLR,M,M,M,M,M,M,M,M,M,M,M,M,M,M,70.70,KSBD 070654Z AUTO 26007KT 10SM CLR 22/16 A2986 RMK AO2 T02150159,M
SBD,2016-08-07 07:14,69.98,60.44,71.72,260.00,5.00,0.00,29.87,M,10.00,M,CLR,M,M,M,M,M,M,M,M,M,M,M,M,M,M,69.98,KSBD 070714Z AUTO 26005KT 10SM CLR 21/16 A2987 RMK AO2 T02110158,M
SBD,2016-08-07 07:33,69.80,60.44,72.16,260.00,5.00,0.00,29.87,M,10.00,M,CLR,M,M,M,M,M,M,M,M,M,M,M,M,M,M,69.80,KSBD 070733Z AUTO 26005KT 10SM CLR 21/16 A2987 RMK AO2 T02100158,M
SBD,2016-08-07 07:54,69.44,60.62,73.53,260.00,4.00,0.00,29.87,M,10.00,M,CLR,M,M,M,M,M,M,M,M,M,M,M,M,M,M,69.44,KSBD 070754Z AUTO 26004KT 10SM CLR 21/16 A2987 RMK AO2 T02080159,M
SBD,2016-08-07 08:14,68.90,60.26,73.95,260.00,6.00,0.00,29.87,M,10.00,M,CLR,M,M,M,M,M,M,M,M,M,M,M,M,M,M,68.90,KSBD 070814Z AUTO 26006KT 10SM CLR 21/16 A2987 RMK AO2 T02050157,M
SBD,2016-08-07 08:34,68.36,60.26,75.33,260.00,6.00,0.00,29.87,M,10.00,M,CLR,M,M,M,M,M,M,M,M,M,M,M,M,M,M,68.36,KSBD 070834Z AUTO 26006KT 10SM CLR 20/16 A2987 RMK AO2 T02020157,M
SBD,2016-08-07 08:54,68.18,60.26,75.80,260.00,5.00,0.00,29.86,M,10.00,M,CLR,M,M,M,M,M,M,M,M,M,M,M,M,M,M,68.18,KSBD 070854Z AUTO 26005KT 10SM CLR 20/16 A2986 RMK AO2 T02010157,M
SBD,2016-08-07 09:14,68.00,60.08,75.78,260.00,4.00,0.00,29.86,M,10.00,M,CLR,M,M,M,M,M,M,M,M,M,M,M,M,M,M,68.00,KSBD 070914Z AUTO 26004KT 10SM CLR 20/16 A2986 RMK AO2 T02000156,M
SBD,2016-08-07 09:34,67.82,60.26,76.74,250.00,4.00,0.00,29.86,M,10.00,M,CLR,M,M,M,M,M,M,M,M,M,M,M,M,M,M,67.82,KSBD 070934Z AUTO 25004KT 10SM CLR 20/16 A2986 RMK AO2 T01990157,M
SBD,2016-08-07 09:54,67.28,60.08,77.69,250.00,3.00,0.00,29.85,M,10.00,M,CLR,M,M,M,M,M,M,M,M,M,M,M,M,M,M,67.28,KSBD 070954Z AUTO 25003KT 10SM CLR 20/16 A2985 RMK AO2 T01960156,M
SBD,2016-08-07 10:14,66.92,60.08,78.66,260.00,3.00,0.00,29.85,M,10.00,M,CLR,M,M,M,M,M,M,M,M,M,M,M,M,M,M,66.92,KSBD 071014Z AUTO 26003KT 10SM CLR 19/16 A2985 RMK AO2 T01940156,M
SBD,2016-08-07 10:34,66.56,59.90,79.14,260.00,3.00,0.00,29.85,M,10.00,M,CLR,M,M,M,M,M,M,M,M,M,M,M,M,M,M,66.56,KSBD 071034Z AUTO 26003KT 10SM CLR 19/16 A2985 RMK AO2 T01920155,M
SBD,2016-08-07 10:54,66.38,59.90,79.63,260.00,3.00,0.00,29.85,M,10.00,M,CLR,M,M,M,M,M,M,M,M,M,M,M,M,M,M,66.38,KSBD 071054Z AUTO 26003KT 10SM CLR 19/16 A2985 RMK AO2 T01910155,M
SBD,2016-08-07 11:14,66.20,59.90,80.13,240.00,3.00,0.00,29.84,M,10.00,M,CLR,M,M,M,M,M,M,M,M,M,M,M,M,M,M,66.20,KSBD 071114Z AUTO 24003KT 10SM CLR 19/16 A2984 RMK AO2 T01900155,M
SBD,2016-08-07 11:34,66.20,59.90,80.13,260.00,3.00,0.00,29.84,M,7.00,M,CLR,M,M,M,M,M,M,M,M,M,M,M,M,M,M,66.20,KSBD 071134Z AUTO 26003KT 7SM CLR 19/16 A2984 RMK AO2 T01900155,M
SBD,2016-08-07 11:54,65.48,59.90,82.16,260.00,4.00,0.00,29.84,M,7.00,M,CLR,M,M,M,M,M,M,M,M,M,M,M,M,M,M,65.48,KSBD 071154Z AUTO 26004KT 7SM CLR 19/16 A2984 RMK AO2 T01860155,M
SBD,2016-08-07 12:14,65.66,60.08,82.17,250.00,4.00,0.00,29.84,M,7.00,M,CLR,M,M,M,M,M,M,M,M,M,M,M,M,M,M,65.66,KSBD 071214Z AUTO 25004KT 7SM CLR 19/16 A2984 RMK AO2 T01870156,M
SBD,2016-08-07 12:34,65.30,59.90,82.68,250.00,3.00,0.00,29.84,M,7.00,M,CLR,M,M,M,M,M,M,M,M,M,M,M,M,M,M,65.30,KSBD 071234Z AUTO 25003KT 7SM CLR 19/16 A2984 RMK AO2 T01850155,M
SBD,2016-08-07 12:54,64.94,59.90,83.72,260.00,4.00,0.00,29.84,M,7.00,M,CLR,M,M,M,M,M,M,M,M,M,M,M,M,M,M,64.94,KSBD 071254Z AUTO 26004KT 7SM CLR 18/16 A2984 RMK AO2 T01830155,M
SBD,2016-08-07 13:14,64.76,59.90,84.25,250.00,3.00,0.00,29.84,M,7.00,M,SCT,M,M,M,1200.00,M,M,M,M,M,M,M,M,M,M,64.76,KSBD 071314Z AUTO 25003KT 7SM SCT012 18/16 A2984 RMK AO2 T01820155,M
SBD,2016-08-07 13:34,64.76,59.90,84.25,260.00,3.00,0.00,29.85,M,7.00,M,SCT,M,M,M,1200.00,M,M,M,M,M,M,M,M,M,M,64.76,KSBD 071334Z AUTO 26003KT 7SM SCT012 18/16 A2985 RMK AO2 T01820155,M
SBD,2016-08-07 13:54,65.48,60.44,83.76,260.00,3.00,0.00,29.85,M,7.00,M,SCT,M,M,M,1200.00,M,M,M,M,M,M,M,M,M,M,65.48,KSBD 071354Z AUTO 26003KT 7SM SCT012 19/16 A2985 RMK AO2 T01860158,M
SBD,2016-08-07 14:50,68.00,60.80,77.75,0.00,0.00,0.00,29.86,M,3.00,M,FEW,M,M,M,1200.00,M,M,M,HZ,M,M,M,M,M,M,68.00,KSBD 071450Z 00000KT 3SM HZ FEW012 20/16 A2986,M
SBD,2016-08-07 15:50,71.60,60.80,68.75,0.00,0.00,0.00,M,M,3.00,M,CLR,M,M,M,M,M,M,M,HZ,M,M,M,M,M,M,71.60,KSBD 071550Z 00000KT 3SM HZ SKC 22/16 A298,M
SBD,2016-08-07 16:48,75.20,59.00,57.12,0.00,0.00,0.00,29.85,M,3.00,M,CLR,M,M,M,M,M,M,M,HZ,M,M,M,M,M,M,75.20,KSBD 071648Z 00000KT 3SM HZ SKC 24/15 A2985,M
SBD,2016-08-07 17:50,80.60,59.00,47.79,0.00,0.00,0.00,29.84,M,4.00,M,CLR,M,M,M,M,M,M,M,HZ,M,M,M,M,M,M,81.11,KSBD 071750Z 00000KT 4SM HZ SKC 27/15 A2984,M
SBD,2016-08-07 18:47,86.00,57.20,37.62,220.00,3.00,0.00,29.83,M,4.00,M,CLR,M,M,M,M,M,M,M,HZ,M,M,M,M,M,M,84.97,KSBD 071847Z 22003KT 04SM HZ SKC 30/14 A2983,M
SBD,2016-08-07 19:55,89.60,57.20,33.56,240.00,7.00,0.00,29.81,M,4.00,M,CLR,M,M,M,M,M,M,M,HZ,M,M,M,M,M,M,88.28,KSBD 071955Z 24007KT 04SM HZ SKC 32/14 A2981,M
SBD,2016-08-07 20:47,93.20,55.40,28.10,270.00,10.00,0.00,29.79,M,5.00,M,CLR,M,M,M,M,M,M,M,HZ,M,M,M,M,M,M,91.35,KSBD 072047Z 27010KT 5SM HZ SKC 34/13 A2979,M
SBD,2016-08-07 21:48,95.00,55.40,26.58,240.00,12.00,0.00,29.79,M,7.00,M,CLR,M,M,M,M,M,M,M,M,M,M,M,M,M,M,93.22,KSBD 072148Z 24012KT 7SM SKC 35/13 A2979,M
SBD,2016-08-07 22:47,95.00,53.60,24.89,270.00,10.00,0.00,29.77,M,7.00,M,CLR,M,M,M,M,M,M,M,M,M,M,M,M,M,M,92.71,KSBD 072247Z 27010KT 7SM SKC 35/12 A2977,M
SBD,2016-08-08 00:48,91.40,55.40,29.72,250.00,10.00,0.00,29.77,M,7.00,M,CLR,M,M,M,M,M,M,M,M,M,M,M,M,M,M,89.53,KSBD 080048Z 25010KT 07SM SKC 33/13 A2977,M
SBD,2016-08-08 01:48,86.00,57.20,37.62,240.00,12.00,0.00,29.78,M,7.00,M,CLR,M,M,M,M,M,M,M,M,M,M,M,M,M,M,84.97,KSBD 080148Z 24012KT 07SM SKC 30/14 A2978,M
SBD,2016-08-08 02:48,80.60,59.00,47.79,250.00,9.00,0.00,29.79,M,7.00,M,CLR,M,M,M,M,M,M,M,M,M,M,M,M,M,M,81.11,KSBD 080248Z 25009KT 07SM SKC 27/15 A2979,M
SBD,2016-08-08 03:48,77.00,59.00,53.80,250.00,6.00,0.00,29.81,M,7.00,M,CLR,M,M,M,M,M,M,M,M,M,M,M,M,M,M,77.00,KSBD 080348Z 25006KT 07SM SKC 25/15 A2981 RMK LAST,M
SBD,2016-08-08 04:13,77.18,60.26,55.94,270.00,6.00,0.00,29.82,M,10.00,M,CLR,M,M,M,M,M,M,M,M,M,M,M,M,M,M,77.18,KSBD 080413Z AUTO 27006KT 10SM CLR 25/16 A2982 RMK AO2 T02510157,M
SBD,2016-08-08 04:34,76.10,60.44,58.35,260.00,6.00,0.00,29.82,M,10.00,M,CLR,M,M,M,M,M,M,M,M,M,M,M,M,M,M,76.10,KSBD 080434Z AUTO 26006KT 10SM CLR 25/16 A2982 RMK AO2 T02450158,M
SBD,2016-08-08 04:54,75.38,60.44,59.77,250.00,6.00,0.00,29.82,M,10.00,M,CLR,M,M,M,M,M,M,M,M,M,M,M,M,M,M,75.38,KSBD 080454Z AUTO 25006KT 10SM CLR 24/16 A2982 RMK AO2 T02410158,M
SBD,2016-08-08 05:13,75.20,60.44,60.13,260.00,4.00,0.00,29.82,M,10.00,M,CLR,M,M,M,M,M,M,M,M,M,M,M,M,M,M,75.20,KSBD 080513Z AUTO 26004KT 10SM CLR 24/16 A2982 RMK AO2 T02400158,M
SBD,2016-08-08 05:34,74.48,60.62,61.99,240.00,4.00,0.00,29.83,M,10.00,M,CLR,M,M,M,M,M,M,M,M,M,M,M,M,M,M,74.48,KSBD 080534Z AUTO 24004KT 10SM CLR 24/16 A2983 RMK AO2 T02360159,M
SBD,2016-08-08 05:54,74.12,60.80,63.15,250.00,4.00,0.00,29.83,M,10.00,M,CLR,M,M,M,M,M,M,M,M,M,M,M,M,M,M,74.12,KSBD 080554Z AUTO 25004KT 10SM CLR 23/16 A2983 RMK AO2 T02340160,M
SBD,2016-08-08 06:13,73.04,60.44,64.65,260.00,5.00,0.00,29.83,M,10.00,M,CLR,M,M,M,M,M,M,M,M,M,M,M,M,M,M,73.04,KSBD 080613Z AUTO 26005KT 10SM CLR 23/16 A2983 RMK AO2 T02280158,M
SBD,2016-08-08 06:34,72.50,60.44,65.84,250.00,5.00,0.00,29.83,M,10.00,M,CLR,M,M,M,M,M,M,M,M,M,M,M,M,M,M,72.50,KSBD 080634Z AUTO 25005KT 10SM CLR 23/16 A2983 RMK AO2 T02250158,M
SBD,2016-08-08 06:53,72.32,60.44,66.24,250.00,4.00,0.00,29.84,M,10.00,M,CLR,M,M,M,M,M,M,M,M,M,M,M,M,M,M,72.32,KSBD 080653Z AUTO 25004KT 10SM CLR 22/16 A2984 RMK AO2 T02240158,M
SBD,2016-08-08 07:14,71.24,60.44,68.71,260.00,5.00,0.00,29.84,M,10.00,M,CLR,M,M,M,M,M,M,M,M,M,M,M,M,M,M,71.24,KSBD 080714Z AUTO 26005KT 10SM CLR 22/16 A2984 RMK AO2 T02180158,M
SBD,2016-08-08 07:34,70.88,60.62,70.00,250.00,5.00,0.00,29.84,M,10.00,M,CLR,M,M,M,M,M,M,M,M,M,M,M,M,M,M,70.88,KSBD 080734Z AUTO 25005KT 10SM CLR 22/16 A2984 RMK AO2 T02160159,M
SBD,2016-08-08 07:53,70.52,60.44,70.41,260.00,4.00,0.00,29.84,M,10.00,M,CLR,M,M,M,M,M,M,M,M,M,M,M,M,M,M,70.52,KSBD 080753Z AUTO 26004KT 10SM CLR 21/16 A2984 RMK AO2 T02140158,M
SBD,2016-08-08 08:14,69.44,60.26,72.59,260.00,4.00,0.00,29.84,M,10.00,M,CLR,M,M,M,M,M,M,M,M,M,M,M,M,M,M,69.44,KSBD 080814Z AUTO 26004KT 10SM CLR 21/16 A2984 RMK AO2 T02080157,M
SBD,2016-08-08 08:34,68.90,60.26,73.95,260.00,3.00,0.00,29.84,M,10.00,M,CLR,M,M,M,M,M,M,M,M,M,M,M,M,M,M,68.90,KSBD 080834Z AUTO 26003KT 10SM CLR 21/16 A2984 RMK AO2 T02050157,M
SBD,2016-08-08 08:53,68.54,60.26,74.87,260.00,4.00,0.00,29.84,M,10.00,M,CLR,M,M,M,M,M,M,M,M,M,M,M,M,M,M,68.54,KSBD 080853Z AUTO 26004KT 10SM CLR 20/16 A2984 RMK AO2 T02030157,M
SBD,2016-08-08 09:14,68.00,60.26,76.27,260.00,5.00,0.00,29.84,M,10.00,M,CLR,M,M,M,M,M,M,M,M,M,M,M,M,M,M,68.00,KSBD 080914Z AUTO 26005KT 10SM CLR 20/16 A2984 RMK AO2 T02000157,M
SBD,2016-08-08 09:34,67.64,60.44,77.72,260.00,5.00,0.00,29.84,M,10.00,M,CLR,M,M,M,M,M,M,M,M,M,M,M,M,M,M,67.64,KSBD 080934Z AUTO 26005KT 10SM CLR 20/16 A2984 RMK AO2 T01980158,M
SBD,2016-08-08 09:53,67.10,60.26,78.68,260.00,4.00,0.00,29.84,M,10.00,M,CLR,M,M,M,M,M,M,M,M,M,M,M,M,M,M,67.10,KSBD 080953Z AUTO 26004KT 10SM CLR 20/16 A2984 RMK AO2 T01950157,M
SBD,2016-08-08 10:14,66.92,60.26,79.17,250.00,4.00,0.00,29.83,M,10.00,M,CLR,M,M,M,M,M,M,M,M,M,M,M,M,M,M,66.92,KSBD 081014Z AUTO 25004KT 10SM CLR 19/16 A2983 RMK AO2 T01940157,M
SBD,2016-08-08 10:34,66.20,60.08,80.65,250.00,4.00,0.00,29.82,M,10.00,M,CLR,M,M,M,M,M,M,M,M,M,M,M,M,M,M,66.20,KSBD 081034Z AUTO 25004KT 10SM CLR 19/16 A2982 RMK AO2 T01900156,M
SBD,2016-08-08 10:53,66.20,60.26,81.17,270.00,4.00,0.00,29.82,M,10.00,M,CLR,M,M,M,M,M,M,M,M,M,M,M,M,M,M,66.20,KSBD 081053Z AUTO 27004KT 10SM CLR 19/16 A2982 RMK AO2 T01900157,M
SBD,2016-08-08 11:14,65.66,60.08,82.17,0.00,0.00,0.00,29.82,M,7.00,M,CLR,M,M,M,M,M,M,M,M,M,M,M,M,M,M,65.66,KSBD 081114Z AUTO 00000KT 7SM CLR 19/16 A2982 RMK AO2 T01870156,M
SBD,2016-08-08 11:34,65.66,60.26,82.70,270.00,4.00,0.00,29.82,M,7.00,M,CLR,M,M,M,M,M,M,M,M,M,M,M,M,M,M,65.66,KSBD 081134Z AUTO 27004KT 7SM CLR 19/16 A2982 RMK AO2 T01870157,M
SBD,2016-08-08 11:53,64.94,59.90,83.72,250.00,4.00,0.00,29.82,M,7.00,M,CLR,M,M,M,M,M,M,M,M,M,M,M,M,M,M,64.94,KSBD 081153Z AUTO 25004KT 7SM CLR 18/16 A2982 RMK AO2 T01830155,M
SBD,2016-08-08 12:14,64.94,60.08,84.26,240.00,3.00,0.00,29.82,M,7.00,M,CLR,M,M,M,M,M,M,M,M,M,M,M,M,M,M,64.94,KSBD 081214Z AUTO 24003KT 7SM CLR 18/16 A2982 RMK AO2 T01830156,M
SBD,2016-08-08 12:34,65.30,60.08,83.21,250.00,3.00,0.00,29.82,M,7.00,M,CLR,M,M,M,M,M,M,M,M,M,M,M,M,M,M,65.30,KSBD 081234Z AUTO 25003KT 7SM CLR 19/16 A2982 RMK AO2 T01850156,M
SBD,2016-08-08 12:53,64.58,59.90,84.78,250.00,3.00,0.00,29.83,M,7.00,M,CLR,M,M,M,M,M,M,M,M,M,M,M,M,M,M,64.58,KSBD 081253Z AUTO 25003KT 7SM CLR 18/16 A2983 RMK AO2 T01810155,M
SBD,2016-08-08 13:14,64.58,60.08,85.33,260.00,3.00,0.00,29.83,M,7.00,M,CLR,M,M,M,M,M,M,M,M,M,M,M,M,M,M,64.58,KSBD 081314Z AUTO 26003KT 7SM CLR 18/16 A2983 RMK AO2 T01810156,M
SBD,2016-08-08 13:34,64.40,60.08,85.86,250.00,3.00,0.00,29.83,M,5.00,M,CLR,M,M,M,M,M,M,M,BR,M,M,M,M,M,M,64.40,KSBD 081334Z AUTO 25003KT 5SM BR CLR 18/16 A2983 RMK AO2 T01800156,M
SBD,2016-08-08 13:53,65.12,60.80,85.90,250.00,3.00,0.00,29.83,M,5.00,M,CLR,M,M,M,M,M,M,M,BR,M,M,M,M,M,M,65.12,KSBD 081353Z AUTO 25003KT 5SM BR CLR 18/16 A2983 RMK AO2 T01840160,M
SBD,2016-08-08 14:00,66.20,62.60,88.18,250.00,5.00,0.00,29.83,M,3.00,M,CLR,M,M,M,M,M,M,M,HZ,M,M,M,M,M,M,66.20,KSBD 081400Z 25005KT 3SM HZ SKC 19/17 A2983,M
SBD,2016-08-08 14:45,66.20,62.60,88.18,240.00,5.00,0.00,29.85,M,3.00,M,SCT,M,M,M,3000.00,M,M,M,HZ,M,M,M,M,M,M,66.20,KSBD 081445Z 24005KT 3SM HZ SCT030 19/17 A2985,M
SBD,2016-08-08 15:48,68.00,62.60,82.86,0.00,0.00,0.00,29.86,M,3.00,M,BKN,M,M,M,1100.00,M,M,M,HZ,M,M,M,M,M,M,68.00,KSBD 081548Z 00000KT 3SM HZ BKN011 20/17 A2986,M
SBD,2016-08-08 17:47,75.20,59.00,57.12,230.00,5.00,0.00,29.86,M,3.00,M,CLR,M,M,M,M,M,M,M,HZ,M,M,M,M,M,M,75.20,KSBD 081747Z 23005KT 3SM HZ SKC 24/15 A2986,M
SBD,2016-08-08 18:49,82.40,59.00,45.07,230.00,6.00,0.00,29.84,M,3.00,M,CLR,M,M,M,M,M,M,M,HZ,M,M,M,M,M,M,82.46,KSBD 081849Z 23006KT 03SM HZ SKC 28/15 A2984,M
SBD,2016-08-08 19:49,86.00,57.20,37.62,220.00,5.00,0.00,29.83,M,3.00,M,CLR,M,M,M,M,M,M,M,HZ,M,M,M,M,M,M,84.97,KSBD 081949Z 22005KT 03SM HZ SKC 30/14 A2983,M
SBD,2016-08-08 21:48,93.20,53.60,26.31,260.00,8.00,0.00,29.80,M,3.00,M,CLR,M,M,M,M,M,M,M,HZ,M,M,M,M,M,M,90.86,KSBD 082148Z 26008KT 3SM HZ SKC 34/12 A2980,M
SBD,2016-08-08 22:48,93.20,53.60,26.31,230.00,8.00,0.00,29.79,M,3.00,M,CLR,M,M,M,M,M,M,M,HZ,M,M,M,M,M,M,90.86,KSBD 082248Z 23008KT 3SM HZ SKC 34/12 A2979,M
SBD,2016-08-08 23:55,91.40,53.60,27.83,240.00,8.00,0.00,29.79,M,3.00,M,CLR,M,M,M,M,M,M,M,HZ,M,M,M,M,M,M,89.08,KSBD 082355Z 24008KT 03SM HZ SKC 33/12 A2979,M
SBD,2016-08-09 00:55,89.60,55.40,31.45,240.00,11.00,0.00,29.78,M,5.00,M,CLR,M,M,M,M,M,M,M,HZ,M,M,M,M,M,M,87.78,KSBD 090055Z 24011KT 05SM HZ SKC 32/13 A2978,M
SBD,2016-08-09 01:50,84.20,57.20,39.86,240.00,12.00,0.00,29.79,M,5.00,M,CLR,M,M,M,M,M,M,M,HZ,M,M,M,M,M,M,84.20,KSBD 090150Z 24012KT 05SM HZ SKC 29/14 A2979,M
SBD,2016-08-09 02:50,78.80,59.00,50.69,250.00,12.00,0.00,29.81,M,5.00,M,CLR,M,M,M,M,M,M,M,HZ,M,M,M,M,M,M,78.80,KSBD 090250Z 25012KT 05SM HZ SKC 26/15 A2981,M
SBD,2016-08-09 03:48,75.20,59.00,57.12,240.00,7.00,0.00,29.83,M,5.00,M,CLR,M,M,M,M,M,M,M,HZ,M,M,M,M,M,M,75.20,KSBD 090348Z 24007KT 05SM HZ SKC 24/15 A2983 RMK LAST,M
SBD,2016-08-09 04:14,74.48,60.44,61.60,240.00,7.00,0.00,29.84,M,10.00,M,CLR,M,M,M,M,M,M,M,M,M,M,M,M,M,M,74.48,KSBD 090414Z AUTO 24007KT 10SM CLR 24/16 A2984 RMK AO2 T02360158,M
SBD,2016-08-09 04:34,73.76,60.62,63.51,250.00,7.00,0.00,29.85,M,10.00,M,CLR,M,M,M,M,M,M,M,M,M,M,M,M,M,M,73.76,KSBD 090434Z AUTO 25007KT 10SM CLR 23/16 A2985 RMK AO2 T02320159,M
SBD,2016-08-09 04:54,72.86,60.62,65.46,250.00,7.00,0.00,29.85,M,10.00,M,CLR,M,M,M,M,M,M,M,M,M,M,M,M,M,M,72.86,KSBD 090454Z AUTO 25007KT 10SM CLR 23/16 A2985 RMK AO2 T02270159,M
SBD,2016-08-09 05:14,72.32,60.80,67.09,240.00,5.00,0.00,29.86,M,10.00,M,CLR,M,M,M,M,M,M,M,M,M,M,M,M,M,M,72.32,KSBD 090514Z AUTO 24005KT 10SM CLR 22/16 A2986 RMK AO2 T02240160,M
SBD,2016-08-09 05:34,71.60,60.80,68.75,250.00,6.00,0.00,29.86,M,10.00,M,CLR,M,M,M,M,M,M,M,M,M,M,M,M,M,M,71.60,KSBD 090534Z AUTO 25006KT 10SM CLR 22/16 A2986 RMK AO2 T02200160,M
SBD,2016-08-09 05:54,70.88,60.44,69.56,260.00,6.00,0.00,29.87,M,10.00,M,CLR,M,M,M,M,M,M,M,M,M,M,M,M,M,M,70.88,KSBD 090554Z AUTO 26006KT 10SM CLR 22/16 A2987 RMK AO2 T02160158,M
SBD,2016-08-09 06:14,70.16,60.62,71.74,260.00,6.00,0.00,29.87,M,10.00,M,CLR,M,M,M,M,M,M,M,M,M,M,M,M,M,M,70.16,KSBD 090614Z AUTO 26006KT 10SM CLR 21/16 A2987 RMK AO2 T02120159,M
SBD,2016-08-09 06:34,69.62,60.62,73.08,260.00,4.00,0.00,29.87,M,10.00,M,CLR,M,M,M,M,M,M,M,M,M,M,M,M,M,M,69.62,KSBD 090634Z AUTO 26004KT 10SM CLR 21/16 A2987 RMK AO2 T02090159,M
SBD,2016-08-09 06:54,69.08,60.80,74.92,250.00,5.00,0.00,29.87,M,10.00,M,CLR,M,M,M,M,M,M,M,M,M,M,M,M,M,M,69.08,KSBD 090654Z AUTO 25005KT 10SM CLR 21/16 A2987 RMK AO2 T02060160,M
SBD,2016-08-09 07:14,68.72,60.44,74.88,250.00,4.00,0.00,29.87,M,10.00,M,CLR,M,M,M,M,M,M,M,M,M,M,M,M,M,M,68.72,KSBD 090714Z AUTO 25004KT 10SM CLR 20/16 A2987 RMK AO2 T02040158,M
SBD,2016-08-09 07:34,68.00,60.44,76.76,250.00,4.00,0.00,29.87,M,10.00,M,CLR,M,M,M,M,M,M,M,M,M,M,M,M,M,M,68.00,KSBD 090734Z AUTO 25004KT 10SM CLR 20/16 A2987 RMK AO2 T02000158,M
SBD,2016-08-09 07:54,68.00,60.44,76.76,250.00,5.00,0.00,29.87,M,10.00,M,CLR,M,M,M,M,M,M,M,M,M,M,M,M,M,M,68.00,KSBD 090754Z AUTO 25005KT 10SM CLR 20/16 A2987 RMK AO2 T02000158,M
SBD,2016-08-09 08:14,67.28,60.26,78.19,260.00,4.00,0.00,29.87,M,10.00,M,CLR,M,M,M,M,M,M,M,M,M,M,M,M,M,M,67.28,KSBD 090814Z AUTO 26004KT 10SM CLR 20/16 A2987 RMK AO2 T01960157,M
SBD,2016-08-09 08:34,67.10,60.62,79.69,250.00,5.00,0.00,29.87,M,10.00,M,CLR,M,M,M,M,M,M,M,M,M,M,M,M,M,M,67.10,KSBD 090834Z AUTO 25005KT 10SM CLR 20/16 A2987 RMK AO2 T01950159,M
SBD,2016-08-09 08:54,66.74,60.44,80.17,250.00,5.00,0.00,29.87,M,10.00,M,CLR,M,M,M,M,M,M,M,M,M,M,M,M,M,M,66.74,KSBD 090854Z AUTO 25005KT 10SM CLR 19/16 A2987 RMK AO2 T01930158,M
SBD,2016-08-09 09:14,66.20,60.44,81.69,250.00,4.00,0.00,29.87,M,7.00,M,CLR,M,M,M,M,M,M,M,M,M,M,M,M,M,M,66.20,KSBD 090914Z AUTO 25004KT 7SM CLR 19/16 A2987 RMK AO2 T01900158,M
SBD,2016-08-09 09:34,66.20,60.26,81.17,240.00,4.00,0.00,29.86,M,7.00,M,CLR,M,M,M,M,M,M,M,M,M,M,M,M,M,M,66.20,KSBD 090934Z AUTO 24004KT 7SM CLR 19/16 A2986 RMK AO2 T01900157,M
SBD,2016-08-09 09:54,65.66,60.08,82.17,260.00,4.00,0.00,29.86,M,7.00,M,SCT,M,M,M,1400.00,M,M,M,M,M,M,M,M,M,M,65.66,KSBD 090954Z AUTO 26004KT 7SM SCT014 19/16 A2986 RMK AO2 T01870156,M
SBD,2016-08-09 10:14,65.48,60.62,84.29,260.00,4.00,0.00,29.86,M,7.00,M,OVC,M,M,M,1400.00,M,M,M,M,M,M,M,M,M,M,65.48,KSBD 091014Z AUTO 26004KT 7SM OVC014 19/16 A2986 RMK AO2 T01860159,M
SBD,2016-08-09 10:34,66.20,60.98,83.27,250.00,4.00,0.00,29.87,M,7.00,M,OVC,M,M,M,1400.00,M,M,M,M,M,M,M,M,M,M,66.20,KSBD 091034Z AUTO 25004KT 7SM OVC014 19/16 A2987 RMK AO2 T01900161,M
SBD,2016-08-09 10:54,66.38,60.80,82.22,260.00,3.00,0.00,29.87,M,7.00,M,OVC,M,M,M,1400.00,M,M,M,M,M,M,M,M,M,M,66.38,KSBD 091054Z AUTO 26003KT 7SM OVC014 19/16 A2987 RMK AO2 T01910160,M
SBD,2016-08-09 11:14,66.38,60.80,82.22,0.00,0.00,0.00,29.87,M,5.00,M,OVC,M,M,M,1400.00,M,M,M,HZ,M,M,M,M,M,M,66.38,KSBD 091114Z AUTO 00000KT 5SM HZ OVC014 19/16 A2987 RMK AO2 T01910160,M
SBD,2016-08-09 11:34,66.38,60.80,82.22,0.00,0.00,0.00,29.86,M,5.00,M,OVC,M,M,M,1000.00,M,M,M,HZ,M,M,M,M,M,M,66.38,KSBD 091134Z AUTO 00000KT 5SM HZ OVC010 19/16 A2986 RMK AO2 T01910160,M
SBD,2016-08-09 11:54,66.92,60.98,81.22,0.00,0.00,0.00,29.86,M,5.00,M,OVC,M,M,M,1000.00,M,M,M,HZ,M,M,M,M,M,M,66.92,KSBD 091154Z AUTO 00000KT 5SM HZ OVC010 19/16 A2986 RMK AO2 T01940161,M
SBD,2016-08-09 12:14,67.10,60.80,80.20,0.00,0.00,0.00,29.86,M,5.00,M,OVC,M,M,M,1000.00,M,M,M,HZ,M,M,M,M,M,M,67.10,KSBD 091214Z AUTO 00000KT 5SM HZ OVC010 20/16 A2986 RMK AO2 T01950160,M
SBD,2016-08-09 12:34,67.10,60.80,80.20,0.00,0.00,0.00,29.87,M,5.00,M,OVC,M,M,M,1000.00,M,M,M,HZ,M,M,M,M,M,M,67.10,KSBD 091234Z AUTO 00000KT 5SM HZ OVC010 20/16 A2987 RMK AO2 T01950160,M
SBD,2016-08-09 12:54,67.10,60.80,80.20,0.00,0.00,0.00,29.87,M,5.00,M,OVC,M,M,M,1000.00,M,M,M,HZ,M,M,M,M,M,M,67.10,KSBD 091254Z AUTO 00000KT 5SM HZ OVC010 20/16 A2987 RMK AO2 T01950160,M
SBD,2016-08-09 13:14,67.10,60.80,80.20,0.00,0.00,0.00,29.87,M,5.00,M,OVC,M,M,M,1000.00,M,M,M,HZ,M,M,M,M,M,M,67.10,KSBD 091314Z AUTO 00000KT 5SM HZ OVC010 20/16 A2987 RMK AO2 T01950160,M
SBD,2016-08-09 13:34,67.10,60.80,80.20,70.00,4.00,0.00,29.87,M,5.00,M,OVC,M,M,M,1000.00,M,M,M,HZ,M,M,M,M,M,M,67.10,KSBD 091334Z AUTO 07004KT 5SM HZ OVC010 20/16 A2987 RMK AO2 T01950160,M
SBD,2016-08-09 13:53,67.10,60.80,80.20,0.00,0.00,0.00,29.87,M,5.00,M,OVC,M,M,M,1000.00,M,M,M,HZ,M,M,M,M,M,M,67.10,KSBD 091353Z AUTO 00000KT 5SM HZ OVC010 20/16 A2987 RMK AO2 T01950160,M
SBD,2016-08-09 14:00,66.20,60.80,82.74,0.00,0.00,0.00,29.88,M,3.00,M,BKN,M,M,M,1000.00,M,M,M,HZ,M,M,M,M,M,M,66.20,KSBD 091400Z 00000KT 3SM HZ BKN010 19/16 A2988,M
SBD,2016-08-09 14:48,69.80,62.60,77.90,0.00,0.00,0.00,29.89,M,3.00,M,BKN,M,M,M,1200.00,M,M,M,HZ,M,M,M,M,M,M,69.80,KSBD 091448Z 00000KT 3SM HZ BKN012 21/17 A2989,M
SBD,2016-08-09 15:50,69.80,59.00,68.55,0.00,0.00,0.00,29.90,M,3.00,M,SCT,M,M,M,1400.00,M,M,M,HZ,M,M,M,M,M,M,69.80,KSBD 091550Z 00000KT 3SM HZ SCT014 21/15 A2990,M
SBD,2016-08-09 16:46,75.20,59.00,57.12,280.00,6.00,0.00,29.90,M,3.00,M,CLR,M,M,M,M,M,M,M,HZ,M,M,M,M,M,M,75.20,KSBD 091646Z 28006KT 3SM HZ SKC 24/15 A2990,M
SBD,2016-08-09 17:47,78.80,64.40,61.36,280.00,6.00,0.00,29.89,M,3.00,M,CLR,M,M,M,M,M,M,M,HZ,M,M,M,M,M,M,80.56,KSBD 091747Z 28006KT 3SM HZ SKC 26/18 A2989,M
SBD,2016-08-09 18:50,84.20,53.60,34.97,250.00,5.00,0.00,29.89,M,3.00,M,CLR,M,M,M,M,M,M,M,HZ,M,M,M,M,M,M,82.76,KSBD 091850Z 25005KT 03SM HZ SKC 29/12 A2989,M
SBD,2016-08-09 19:48,86.00,46.40,25.26,260.00,4.00,0.00,29.88,M,4.00,M,CLR,M,M,M,M,M,M,M,HZ,M,M,M,M,M,M,83.22,KSBD 091948Z 26004KT 4SM HZ SKC 30/08 A2988,M
SBD,2016-08-09 22:48,93.20,59.00,31.99,240.00,11.00,0.00,29.82,M,6.00,M,CLR,M,M,M,M,M,M,M,HZ,M,M,M,M,M,M,93.20,KSBD 092248Z 24011KT 6SM HZ SKC 34/15 A2982,M
SBD,2016-08-09 23:50,93.20,46.40,20.13,230.00,11.00,0.00,29.81,M,7.00,M,CLR,M,M,M,M,M,M,M,M,M,M,M,M,M,M,89.55,KSBD 092350Z 23011KT 07SM SKC 34/08 A2981,M
SBD,2016-08-10 00:49,91.40,48.20,22.78,240.00,12.00,0.00,29.81,M,7.00,M,CLR,M,M,M,M,M,M,M,M,M,M,M,M,M,M,88.09,KSBD 100049Z 24012KT 07SM SKC 33/09 A2981,M
SBD,2016-08-10 01:50,86.00,50.00,28.90,240.00,11.00,0.00,29.82,M,7.00,M,CLR,M,M,M,M,M,M,M,M,M,M,M,M,M,M,83.62,KSBD 100150Z 24011KT 07SM SKC 30/10 A2982,M
SBD,2016-08-10 02:48,80.60,55.40,41.97,240.00,9.00,0.00,29.83,M,7.00,M,CLR,M,M,M,M,M,M,M,M,M,M,M,M,M,M,80.53,KSBD 100248Z 24009KT 07SM SKC 27/13 A2983,M
SBD,2016-08-10 03:47,77.00,55.40,47.25,240.00,6.00,0.00,29.86,M,7.00,M,CLR,M,M,M,M,M,M,M,M,M,M,M,M,M,M,77.00,KSBD 100347Z 24006KT 07SM SKC 25/13 A2986,M
SBD,2016-08-10 04:14,75.74,55.58,49.60,250.00,6.00,0.00,29.87,M,10.00,M,CLR,M,M,M,M,M,M,M,M,M,M,M,M,M,M,75.74,KSBD 100414Z AUTO 25006KT 10SM CLR 24/13 A2987 RMK AO2 T02430131,M
SBD,2016-08-10 04:34,75.20,55.40,50.17,250.00,6.00,0.00,29.88,M,10.00,M,CLR,M,M,M,M,M,M,M,M,M,M,M,M,M,M,75.20,KSBD 100434Z AUTO 25006KT 10SM CLR 24/13 A2988 RMK AO2 T02400130,M
SBD,2016-08-10 04:54,74.48,55.40,51.39,250.00,3.00,0.00,29.89,M,10.00,M,CLR,M,M,M,M,M,M,M,M,M,M,M,M,M,M,74.48,KSBD 100454Z AUTO 25003KT 10SM CLR 24/13 A2989 RMK AO2 T02360130,M
SBD,2016-08-10 05:14,73.40,55.58,53.64,250.00,5.00,0.00,29.89,M,10.00,M,CLR,M,M,M,M,M,M,M,M,M,M,M,M,M,M,73.40,KSBD 100514Z AUTO 25005KT 10SM CLR 23/13 A2989 RMK AO2 T02300131,M
SBD,2016-08-10 05:34,72.86,55.94,55.34,250.00,5.00,0.00,29.90,M,10.00,M,CLR,M,M,M,M,M,M,M,M,M,M,M,M,M,M,72.86,KSBD 100534Z AUTO 25005KT 10SM CLR 23/13 A2990 RMK AO2 T02270133,M
SBD,2016-08-10 05:54,72.14,56.30,57.45,250.00,5.00,0.00,29.90,M,10.00,M,CLR,M,M,M,M,M,M,M,M,M,M,M,M,M,M,72.14,KSBD 100554Z AUTO 25005KT 10SM CLR 22/14 A2990 RMK AO2 T02230135,M
SBD,2016-08-10 06:14,71.60,56.66,59.28,240.00,4.00,0.00,29.90,M,10.00,M,CLR,M,M,M,M,M,M,M,M,M,M,M,M,M,M,71.60,KSBD 100614Z AUTO 24004KT 10SM CLR 22/14 A2990 RMK AO2 T02200137,M
SBD,2016-08-10 06:34,71.06,57.02,61.16,250.00,4.00,0.00,29.90,M,10.00,M,CLR,M,M,M,M,M,M,M,M,M,M,M,M,M,M,71.06,KSBD 100634Z AUTO 25004KT 10SM CLR 22/14 A2990 RMK AO2 T02170139,M
SBD,2016-08-10 06:54,70.34,57.20,63.09,260.00,4.00,0.00,29.91,M,10.00,M,CLR,M,M,M,M,M,M,M,M,M,M,M,M,M,M,70.34,KSBD 100654Z AUTO 26004KT 10SM CLR 21/14 A2991 RMK AO2 T02130140,M
SBD,2016-08-10 07:14,70.16,57.92,65.14,250.00,5.00,0.00,29.91,M,10.00,M,CLR,M,M,M,M,M,M,M,M,M,M,M,M,M,M,70.16,KSBD 100714Z AUTO 25005KT 10SM CLR 21/14 A2991 RMK AO2 T02120144,M
SBD,2016-08-10 07:34,69.08,57.56,66.72,250.00,3.00,0.00,29.90,M,10.00,M,CLR,M,M,M,M,M,M,M,M,M,M,M,M,M,M,69.08,KSBD 100734Z AUTO 25003KT 10SM CLR 21/14 A2990 RMK AO2 T02060142,M
SBD,2016-08-10 07:54,68.36,58.10,69.73,260.00,4.00,0.00,29.90,M,10.00,M,CLR,M,M,M,M,M,M,M,M,M,M,M,M,M,M,68.36,KSBD 100754Z AUTO 26004KT 10SM CLR 20/15 A2990 RMK AO2 T02020145,M
SBD,2016-08-10 08:14,68.00,57.92,70.15,260.00,4.00,0.00,29.90,M,10.00,M,CLR,M,M,M,M,M,M,M,M,M,M,M,M,M,M,68.00,KSBD 100814Z AUTO 26004KT 10SM CLR 20/14 A2990 RMK AO2 T02000144,M
SBD,2016-08-10 08:34,67.64,58.10,71.48,260.00,4.00,0.00,29.91,M,10.00,M,CLR,M,M,M,M,M,M,M,M,M,M,M,M,M,M,67.64,KSBD 100834Z AUTO 26004KT 10SM CLR 20/15 A2991 RMK AO2 T01980145,M
SBD,2016-08-10 08:54,67.46,58.28,72.40,250.00,3.00,0.00,29.91,M,10.00,M,CLR,M,M,M,M,M,M,M,M,M,M,M,M,M,M,67.46,KSBD 100854Z AUTO 25003KT 10SM CLR 20/15 A2991 RMK AO2 T01970146,M
SBD,2016-08-10 09:14,67.10,58.64,74.25,240.00,3.00,0.00,29.91,M,10.00,M,CLR,M,M,M,M,M,M,M,M,M,M,M,M,M,M,67.10,KSBD 100914Z AUTO 24003KT 10SM CLR 20/15 A2991 RMK AO2 T01950148,M
SBD,2016-08-10 09:34,66.56,58.64,75.65,260.00,3.00,0.00,29.90,M,10.00,M,CLR,M,M,M,M,M,M,M,M,M,M,M,M,M,M,66.56,KSBD 100934Z AUTO 26003KT 10SM CLR 19/15 A2990 RMK AO2 T01920148,M
SBD,2016-08-10 09:54,66.56,59.00,76.64,0.00,0.00,0.00,29.90,M,10.00,M,CLR,M,M,M,M,M,M,M,M,M,M,M,M,M,M,66.56,KSBD 100954Z AUTO 00000KT 10SM CLR 19/15 A2990 RMK AO2 T01920150,M
SBD,2016-08-10 10:14,66.20,58.64,76.60,240.00,3.00,0.00,29.89,M,10.00,M,CLR,M,M,M,M,M,M,M,M,M,M,M,M,M,M,66.20,KSBD 101014Z AUTO 24003KT 10SM CLR 19/15 A2989 RMK AO2 T01900148,M
SBD,2016-08-10 10:34,65.66,59.00,79.07,0.00,0.00,0.00,29.89,M,10.00,M,CLR,M,M,M,M,M,M,M,M,M,M,M,M,M,M,65.66,KSBD 101034Z AUTO 00000KT 10SM CLR 19/15 A2989 RMK AO2 T01870150,M
SBD,2016-08-10 10:54,65.48,59.00,79.56,0.00,0.00,0.00,29.89,M,10.00,M,CLR,M,M,M,M,M,M,M,M,M,M,M,M,M,M,65.48,KSBD 101054Z AUTO 00000KT 10SM CLR 19/15 A2989 RMK AO2 T01860150,M
SBD,2016-08-10 11:14,65.30,55.76,71.24,160.00,3.00,0.00,29.89,M,10.00,M,CLR,M,M,M,M,M,M,M,M,M,M,M,M,M,M,65.30,KSBD 101114Z AUTO 16003KT 10SM CLR 19/13 A2989 RMK AO2 T01850132,M
SBD,2016-08-10 11:34,65.30,55.76,71.24,0.00,0.00,0.00,29.89,M,10.00,M,CLR,M,M,M,M,M,M,M,M,M,M,M,M,M,M,65.30,KSBD 101134Z AUTO 00000KT 10SM CLR 19/13 A2989 RMK AO2 T01850132,M
SBD,2016-08-10 11:54,61.70,53.78,75.21,90.00,3.00,0.00,29.89,M,10.00,M,CLR,M,M,M,M,M,M,M,M,M,M,M,M,M,M,61.70,KSBD 101154Z AUTO 09003KT 10SM CLR 17/12 A2989 RMK AO2 T01650121,M
SBD,2016-08-10 12:14,63.14,53.60,71.02,0.00,0.00,0.00,29.90,M,10.00,M,CLR,M,M,M,M,M,M,M,M,M,M,M,M,M,M,63.14,KSBD 101214Z AUTO 00000KT 10SM CLR 17/12 A2990 RMK AO2 T01730120,M
SBD,2016-08-10 12:34,63.14,53.78,71.49,0.00,0.00,0.00,29.91,M,10.00,M,CLR,M,M,M,M,M,M,M,M,M,M,M,M,M,M,63.14,KSBD 101234Z AUTO 00000KT 10SM CLR 17/12 A2991 RMK AO2 T01730121,M
SBD,2016-08-10 12:54,62.96,53.96,72.42,0.00,0.00,0.00,29.91,M,10.00,M,CLR,M,M,M,M,M,M,M,M,M,M,M,M,M,M,62.96,KSBD 101254Z AUTO 00000KT 10SM CLR 17/12 A2991 RMK AO2 T01720122,M
SBD,2016-08-10 13:14,62.78,53.78,72.40,90.00,3.00,0.00,29.92,M,10.00,M,CLR,M,M,M,M,M,M,M,M,M,M,M,M,M,M,62.78,KSBD 101314Z AUTO 09003KT 10SM CLR 17/12 A2992 RMK AO2 T01710121,M
SBD,2016-08-10 13:34,60.08,52.34,75.56,0.00,0.00,0.00,29.92,M,10.00,M,CLR,M,M,M,M,M,M,M,M,M,M,M,M,M,M,60.08,KSBD 101334Z AUTO 00000KT 10SM CLR 16/11 A2992 RMK AO2 T01560113,M
SBD,2016-08-10 13:54,63.14,54.32,72.91,0.00,0.00,0.00,29.93,M,10.00,M,CLR,M,M,M,M,M,M,M,M,M,M,M,M,M,M,63.14,KSBD 101354Z AUTO 00000KT 10SM CLR 17/12 A2993 RMK AO2 T01730124,M
SBD,2016-08-10 14:00,62.60,59.00,88.00,0.00,0.00,0.00,29.92,M,5.00,M,CLR,M,M,M,M,M,M,M,HZ,M,M,M,M,M,M,62.60,KSBD 101400Z 00000KT 5SM HZ SKC 17/15 A2992,M
SBD,2016-08-10 14:48,66.20,62.60,88.18,0.00,0.00,0.00,29.94,M,6.00,M,CLR,M,M,M,M,M,M,M,HZ,M,M,M,M,M,M,66.20,KSBD 101448Z 00000KT 6SM HZ SKC 19/17 A2994,M
SBD,2016-08-10 16:46,75.20,59.00,57.12,0.00,0.00,0.00,29.96,M,6.00,M,CLR,M,M,M,M,M,M,M,HZ,M,M,M,M,M,M,75.20,KSBD 101646Z 00000KT 6SM HZ SKC 24/15 A2996,M
SBD,2016-08-10 18:52,87.80,41.00,19.40,300.00,5.00,0.00,29.94,M,7.00,M,CLR,M,M,M,M,M,M,M,M,M,M,M,M,M,M,84.30,KSBD 101852Z 30005KT 7SM SKC 31/05 A2994,M
SBD,2016-08-10 19:50,91.40,41.00,17.32,270.00,5.00,0.00,29.92,M,7.00,M,CLR,M,M,M,M,M,M,M,M,M,M,M,M,M,M,87.40,KSBD 101950Z 27005KT 7SM SKC 33/05 A2992,M
SBD,2016-08-10 20:48,93.20,39.20,15.27,310.00,7.00,0.00,29.90,M,7.00,M,CLR,M,M,M,M,M,M,M,M,M,M,M,M,M,M,88.92,KSBD 102048Z 31007KT 7SM SKC 34/04 A2990,M
SBD,2016-08-10 21:45,95.00,39.20,14.44,270.00,8.00,0.00,29.90,M,7.00,M,CLR,M,M,M,M,M,M,M,M,M,M,M,M,M,M,90.57,KSBD 102145Z 27008KT 7SM SKC 35/04 A2990,M
SBD,2016-08-10 22:50,96.80,37.40,12.73,0.00,0.00,0.00,29.86,M,7.00,M,CLR,M,M,M,M,M,M,M,M,M,M,M,M,M,M,92.04,KSBD 102250Z 00000KT 7SM SKC 36/03 A2986,M
SBD,2016-08-10 23:47,95.00,39.20,14.44,240.00,10.00,0.00,29.85,M,7.00,M,CLR,M,M,M,M,M,M,M,M,M,M,M,M,M,M,90.57,KSBD 102347Z 24010KT 7SM SKC 35/04 A2985,M
SBD,2016-08-11 00:50,91.40,48.20,22.78,250.00,12.00,0.00,29.85,M,7.00,M,CLR,M,M,M,M,M,M,M,M,M,M,M,M,M,M,88.09,KSBD 110050Z 25012KT 7SM SKC 33/09 A2985,M
SBD,2016-08-11 01:28,86.00,51.80,30.90,250.00,12.00,0.00,29.87,M,7.00,M,CLR,M,M,M,M,M,M,M,M,M,M,M,M,M,M,83.87,KSBD 110128Z 25012KT 7SM SKC 30/11 A2987,M
SBD,2016-08-11 02:47,80.60,53.60,39.30,240.00,11.00,0.00,29.89,M,7.00,M,CLR,M,M,M,M,M,M,M,M,M,M,M,M,M,M,80.60,KSBD 110247Z 24011KT 7SM SKC 27/12 A2989,M
SBD,2016-08-11 03:47,75.20,55.40,50.17,240.00,8.00,0.00,29.93,M,7.00,M,CLR,M,M,M,M,M,M,M,M,M,M,M,M,M,M,75.20,KSBD 110347Z 24008KT 7SM SKC 24/13 A2993,M
SBD,2016-08-11 04:13,75.56,54.86,48.60,240.00,5.00,0.00,29.94,M,10.00,M,CLR,M,M,M,M,M,M,M,M,M,M,M,M,M,M,75.56,KSBD 110413Z AUTO 24005KT 10SM CLR 24/13 A2994 RMK AO2 T02420127,M
SBD,2016-08-11 04:34,74.84,54.68,49.46,240.00,5.00,0.00,29.96,M,10.00,M,CLR,M,M,M,M,M,M,M,M,M,M,M,M,M,M,74.84,KSBD 110434Z AUTO 24005KT 10SM CLR 24/13 A2996 RMK AO2 T02380126,M
SBD,2016-08-11 04:54,73.94,54.50,50.64,240.00,6.00,0.00,29.96,M,10.00,M,CLR,M,M,M,M,M,M,M,M,M,M,M,M,M,M,73.94,KSBD 110454Z AUTO 24006KT 10SM CLR 23/13 A2996 RMK AO2 T02330125,M
SBD,2016-08-11 05:13,73.58,54.86,51.94,230.00,5.00,0.00,29.97,M,10.00,M,CLR,M,M,M,M,M,M,M,M,M,M,M,M,M,M,73.58,KSBD 110513Z AUTO 23005KT 10SM CLR 23/13 A2997 RMK AO2 T02310127,M
SBD,2016-08-11 05:34,73.22,54.86,52.57,240.00,4.00,0.00,29.97,M,10.00,M,CLR,M,M,M,M,M,M,M,M,M,M,M,M,M,M,73.22,KSBD 110534Z AUTO 24004KT 10SM CLR 23/13 A2997 RMK AO2 T02290127,M
SBD,2016-08-11 05:54,72.50,55.40,54.93,240.00,3.00,0.00,29.97,M,10.00,M,CLR,M,M,M,M,M,M,M,M,M,M,M,M,M,M,72.50,KSBD 110554Z AUTO 24003KT 10SM CLR 23/13 A2997 RMK AO2 T02250130,M
SBD,2016-08-11 06:13,71.60,55.40,56.63,240.00,3.00,0.00,29.98,M,10.00,M,CLR,M,M,M,M,M,M,M,M,M,M,M,M,M,M,71.60,KSBD 110613Z AUTO 24003KT 10SM CLR 22/13 A2998 RMK AO2 T02200130,M
SBD,2016-08-11 06:34,70.88,55.40,58.03,250.00,3.00,0.00,29.98,M,10.00,M,CLR,M,M,M,M,M,M,M,M,M,M,M,M,M,M,70.88,KSBD 110634Z AUTO 25003KT 10SM CLR 22/13 A2998 RMK AO2 T02160130,M
SBD,2016-08-11 06:54,69.80,55.40,60.21,260.00,4.00,0.00,29.99,M,10.00,M,CLR,M,M,M,M,M,M,M,M,M,M,M,M,M,M,69.80,KSBD 110654Z AUTO 26004KT 10SM CLR 21/13 A2999 RMK AO2 T02100130,M
SBD,2016-08-11 07:14,68.90,55.76,62.91,260.00,4.00,0.00,29.99,M,10.00,M,CLR,M,M,M,M,M,M,M,M,M,M,M,M,M,M,68.90,KSBD 110714Z AUTO 26004KT 10SM CLR 21/13 A2999 RMK AO2 T02050132,M
SBD,2016-08-11 07:34,68.18,55.94,64.91,250.00,3.00,0.00,29.99,M,10.00,M,CLR,M,M,M,M,M,M,M,M,M,M,M,M,M,M,68.18,KSBD 110734Z AUTO 25003KT 10SM CLR 20/13 A2999 RMK AO2 T02010133,M
SBD,2016-08-11 07:54,67.82,56.30,66.58,250.00,4.00,0.00,29.98,M,10.00,M,CLR,M,M,M,M,M,M,M,M,M,M,M,M,M,M,67.82,KSBD 110754Z AUTO 25004KT 10SM CLR 20/14 A2998 RMK AO2 T01990135,M
SBD,2016-08-11 08:14,67.10,56.30,68.25,260.00,3.00,0.00,29.98,M,10.00,M,CLR,M,M,M,M,M,M,M,M,M,M,M,M,M,M,67.10,KSBD 110814Z AUTO 26003KT 10SM CLR 20/14 A2998 RMK AO2 T01950135,M
SBD,2016-08-11 08:34,67.10,56.30,68.25,0.00,0.00,0.00,29.98,M,10.00,M,CLR,M,M,M,M,M,M,M,M,M,M,M,M,M,M,67.10,KSBD 110834Z AUTO 00000KT 10SM CLR 20/14 A2998 RMK AO2 T01950135,M
SBD,2016-08-11 08:54,67.10,56.84,69.60,0.00,0.00,0.00,29.98,M,10.00,M,CLR,M,M,M,M,M,M,M,M,M,M,M,M,M,M,67.10,KSBD 110854Z AUTO 00000KT 10SM CLR 20/14 A2998 RMK AO2 T01950138,M
SBD,2016-08-11 09:14,66.38,56.66,70.89,260.00,3.00,0.00,29.98,M,10.00,M,CLR,M,M,M,M,M,M,M,M,M,M,M,M,M,M,66.38,KSBD 110914Z AUTO 26003KT 10SM CLR 19/14 A2998 RMK AO2 T01910137,M
SBD,2016-08-11 09:34,66.02,56.66,71.78,0.00,0.00,0.00,29.98,M,10.00,M,CLR,M,M,M,M,M,M,M,M,M,M,M,M,M,M,66.02,KSBD 110934Z AUTO 00000KT 10SM CLR 19/14 A2998 RMK AO2 T01890137,M
SBD,2016-08-11 09:54,65.66,53.78,65.46,0.00,0.00,0.00,29.99,M,10.00,M,CLR,M,M,M,M,M,M,M,M,M,M,M,M,M,M,65.66,KSBD 110954Z AUTO 00000KT 10SM CLR 19/12 A2999 RMK AO2 T01870121,M
SBD,2016-08-11 10:14,65.12,50.54,59.20,0.00,0.00,0.00,29.99,M,10.00,M,CLR,M,M,M,M,M,M,M,M,M,M,M,M,M,M,65.12,KSBD 111014Z AUTO 00000KT 10SM CLR 18/10 A2999 RMK AO2 T01840103,M
SBD,2016-08-11 10:34,64.04,48.20,56.33,190.00,3.00,0.00,29.99,M,10.00,M,CLR,M,M,M,M,M,M,M,M,M,M,M,M,M,M,64.04,KSBD 111034Z AUTO 19003KT 10SM CLR 18/09 A2999 RMK AO2 T01780090,M
SBD,2016-08-11 10:54,64.04,49.10,58.26,180.00,3.00,0.00,29.99,M,10.00,M,CLR,M,M,M,M,M,M,M,M,M,M,M,M,M,M,64.04,KSBD 111054Z AUTO 18003KT 10SM CLR 18/10 A2999 RMK AO2 T01780095,M
SBD,2016-08-11 11:13,64.04,49.28,58.66,170.00,3.00,0.00,29.98,M,10.00,M,CLR,M,M,M,M,M,M,M,M,M,M,M,M,M,M,64.04,KSBD 111113Z AUTO 17003KT 10SM CLR 18/10 A2998 RMK AO2 T01780096,M
SBD,2016-08-11 11:34,63.50,49.28,59.78,150.00,3.00,0.00,29.98,M,10.00,M,CLR,M,M,M,M,M,M,M,M,M,M,M,M,M,M,63.50,KSBD 111134Z AUTO 15003KT 10SM CLR 18/10 A2998 RMK AO2 T01750096,M
SBD,2016-08-11 11:54,63.14,50.00,62.18,0.00,0.00,0.00,29.98,M,10.00,M,CLR,M,M,M,M,M,M,M,M,M,M,M,M,M,M,63.14,KSBD 111154Z AUTO 00000KT 10SM CLR 17/10 A2998 RMK AO2 T01730100,M
SBD,2016-08-11 12:13,61.16,48.56,63.20,0.00,0.00,0.00,29.99,M,10.00,M,CLR,M,M,M,M,M,M,M,M,M,M,M,M,M,M,61.16,KSBD 111213Z AUTO 00000KT 10SM CLR 16/09 A2999 RMK AO2 T01620092,M
SBD,2016-08-11 12:34,60.44,49.10,66.15,0.00,0.00,0.00,30.00,M,10.00,M,CLR,M,M,M,M,M,M,M,M,M,M,M,M,M,M,60.44,KSBD 111234Z AUTO 00000KT 10SM CLR 16/10 A3000 RMK AO2 T01580095,M
SBD,2016-08-11 12:54,60.44,48.92,65.71,0.00,0.00,0.00,30.00,M,10.00,M,CLR,M,M,M,M,M,M,M,M,M,M,M,M,M,M,60.44,KSBD 111254Z AUTO 00000KT 10SM CLR 16/09 A3000 RMK AO2 T01580094,M
SBD,2016-08-11 13:14,60.26,48.74,65.69,0.00,0.00,0.00,30.00,M,10.00,M,CLR,M,M,M,M,M,M,M,M,M,M,M,M,M,M,60.26,KSBD 111314Z AUTO 00000KT 10SM CLR 16/09 A3000 RMK AO2 T01570093,M
SBD,2016-08-11 13:34,61.70,49.82,64.98,0.00,0.00,0.00,30.01,M,10.00,M,CLR,M,M,M,M,M,M,M,M,M,M,M,M,M,M,61.70,KSBD 111334Z AUTO 00000KT 10SM CLR 17/10 A3001 RMK AO2 T01650099,M
SBD,2016-08-11 14:00,57.20,44.60,62.69,0.00,0.00,0.00,30.01,M,6.00,M,CLR,M,M,M,M,M,M,M,HZ,M,M,M,M,M,M,57.20,KSBD 111400Z 00000KT 6SM HZ SKC 14/07 A3001,M
SBD,2016-08-11 15:45,69.80,53.60,56.38,0.00,0.00,0.00,30.02,M,7.00,M,CLR,M,M,M,M,M,M,M,M,M,M,M,M,M,M,69.80,KSBD 111545Z 00000KT 7SM SKC 21/12 A3002,M
SBD,2016-08-11 16:46,75.20,53.60,46.98,280.00,6.00,0.00,30.03,M,7.00,M,CLR,M,M,M,M,M,M,M,M,M,M,M,M,M,M,75.20,KSBD 111646Z 28006KT 7SM SKC 24/12 A3003,M
SBD,2016-08-11 17:47,80.60,55.40,41.97,0.00,0.00,0.00,30.03,M,7.00,M,CLR,M,M,M,M,M,M,M,M,M,M,M,M,M,M,80.53,KSBD 111747Z 00000KT 7SM SKC 27/13 A3003,M
SBD,2016-08-11 18:48,84.20,53.60,34.97,270.00,4.00,0.00,30.02,M,7.00,M,CLR,M,M,M,M,M,M,M,M,M,M,M,M,M,M,82.76,KSBD 111848Z 27004KT 7SM SKC 29/12 A3002,M
SBD,2016-08-11 19:49,89.60,50.00,25.79,270.00,7.00,0.00,30.01,M,7.00,M,CLR,M,M,M,M,M,M,M,M,M,M,M,M,M,M,86.70,KSBD 111949Z 27007KT 7SM SKC 32/10 A3001,M
SBD,2016-08-11 20:48,93.20,41.00,16.37,220.00,8.00,0.00,29.99,M,7.00,M,CLR,M,M,M,M,M,M,M,M,M,M,M,M,M,M,89.03,KSBD 112048Z 22008KT 7SM SKC 34/05 A2999,M
SBD,2016-08-11 21:48,93.20,41.00,16.37,250.00,8.00,0.00,29.97,M,7.00,M,CLR,M,M,M,M,M,M,M,M,M,M,M,M,M,M,89.03,KSBD 112148Z 25008KT 7SM SKC 34/05 A2997,M
SBD,2016-08-11 22:47,93.20,41.00,16.37,280.00,6.00,0.00,29.96,M,7.00,M,CLR,M,M,M,M,M,M,M,M,M,M,M,M,M,M,89.03,KSBD 112247Z 28006KT 7SM SKC 34/05 A2996,M
SBD,2016-08-11 23:47,95.00,48.20,20.38,250.00,9.00,0.00,29.94,M,7.00,M,CLR,M,M,M,M,M,M,M,M,M,M,M,M,M,M,91.56,KSBD 112347Z 25009KT 7SM SKC 35/09 A2994,M
SBD,2016-08-12 00:50,89.60,53.60,29.45,250.00,14.00,0.00,29.94,M,7.00,M,CLR,M,M,M,M,M,M,M,M,M,M,M,M,M,M,87.36,KSBD 120050Z 25014KT 7SM SKC 32/12 A2994,M
SBD,2016-08-12 01:50,86.00,53.60,33.01,240.00,12.00,0.00,29.94,M,7.00,M,CLR,M,M,M,M,M,M,M,M,M,M,M,M,M,M,84.18,KSBD 120150Z 24012KT 7SM SKC 30/12 A2994,M
SBD,2016-08-12 02:50,80.60,55.40,41.97,240.00,8.00,0.00,29.96,M,7.00,M,CLR,M,M,M,M,M,M,M,M,M,M,M,M,M,M,80.53,KSBD 120250Z 24008KT 7SM SKC 27/13 A2996,M
SBD,2016-08-12 03:48,77.00,57.20,50.43,250.00,8.00,0.00,29.99,M,7.00,M,CLR,M,M,M,M,M,M,M,M,M,M,M,M,M,M,77.00,KSBD 120348Z 25008KT 7SM SKC 25/14 A2999,M
SBD,2016-08-12 04:14,76.46,56.66,50.35,270.00,7.00,0.00,30.01,M,10.00,M,CLR,M,M,M,M,M,M,M,M,M,M,M,M,M,M,76.46,KSBD 120414Z AUTO 27007KT 10SM CLR 25/14 A3001 RMK AO2 T02470137,M
SBD,2016-08-12 04:34,75.74,57.02,52.25,270.00,6.00,0.00,30.01,M,10.00,M,CLR,M,M,M,M,M,M,M,M,M,M,M,M,M,M,75.74,KSBD 120434Z AUTO 27006KT 10SM CLR 24/14 A3001 RMK AO2 T02430139,M
SBD,2016-08-12 04:54,75.20,57.20,53.55,250.00,6.00,0.00,30.02,M,10.00,M,CLR,M,M,M,M,M,M,M,M,M,M,M,M,M,M,75.20,KSBD 120454Z AUTO 25006KT 10SM CLR 24/14 A3002 RMK AO2 T02400140,M
SBD,2016-08-12 05:14,74.30,57.38,55.54,250.00,7.00,0.00,30.03,M,10.00,M,CLR,M,M,M,M,M,M,M,M,M,M,M,M,M,M,74.30,KSBD 120514Z AUTO 25007KT 10SM CLR 24/14 A3003 RMK AO2 T02350141,M
SBD,2016-08-12 05:34,73.58,57.74,57.64,250.00,7.00,0.00,30.03,M,10.00,M,CLR,M,M,M,M,M,M,M,M,M,M,M,M,M,M,73.58,KSBD 120534Z AUTO 25007KT 10SM CLR 23/14 A3003 RMK AO2 T02310143,M
SBD,2016-08-12 05:54,72.86,57.92,59.44,250.00,5.00,0.00,30.03,M,10.00,M,CLR,M,M,M,M,M,M,M,M,M,M,M,M,M,M,72.86,KSBD 120554Z AUTO 25005KT 10SM CLR 23/14 A3003 RMK AO2 T02270144,M
SBD,2016-08-12 06:14,72.50,58.10,60.56,250.00,5.00,0.00,30.03,M,10.00,M,CLR,M,M,M,M,M,M,M,M,M,M,M,M,M,M,72.50,KSBD 120614Z AUTO 25005KT 10SM CLR 23/15 A3003 RMK AO2 T02250145,M
SBD,2016-08-12 06:34,71.96,58.10,61.67,250.00,5.00,0.00,30.04,M,10.00,M,CLR,M,M,M,M,M,M,M,M,M,M,M,M,M,M,71.96,KSBD 120634Z AUTO 25005KT 10SM CLR 22/15 A3004 RMK AO2 T02220145,M
SBD,2016-08-12 06:54,71.24,58.10,63.20,250.00,5.00,0.00,30.04,M,10.00,M,CLR,M,M,M,M,M,M,M,M,M,M,M,M,M,M,71.24,KSBD 120654Z AUTO 25005KT 10SM CLR 22/15 A3004 RMK AO2 T02180145,M
SBD,2016-08-12 07:14,71.06,58.46,64.41,250.00,4.00,0.00,30.04,M,10.00,M,CLR,M,M,M,M,M,M,M,M,M,M,M,M,M,M,71.06,KSBD 120714Z AUTO 25004KT 10SM CLR 22/15 A3004 RMK AO2 T02170147,M
SBD,2016-08-12 07:34,70.70,58.46,65.21,260.00,5.00,0.00,30.04,M,10.00,M,CLR,M,M,M,M,M,M,M,M,M,M,M,M,M,M,70.70,KSBD 120734Z AUTO 26005KT 10SM CLR 22/15 A3004 RMK AO2 T02150147,M
SBD,2016-08-12 07:54,70.16,58.64,66.85,260.00,5.00,0.00,30.04,M,10.00,M,CLR,M,M,M,M,M,M,M,M,M,M,M,M,M,M,70.16,KSBD 120754Z AUTO 26005KT 10SM CLR 21/15 A3004 RMK AO2 T02120148,M
SBD,2016-08-12 08:14,69.80,58.64,67.67,250.00,3.00,0.00,30.03,M,10.00,M,CLR,M,M,M,M,M,M,M,M,M,M,M,M,M,M,69.80,KSBD 120814Z AUTO 25003KT 10SM CLR 21/15 A3003 RMK AO2 T02100148,M
SBD,2016-08-12 08:34,69.62,58.82,68.53,260.00,5.00,0.00,30.03,M,10.00,M,CLR,M,M,M,M,M,M,M,M,M,M,M,M,M,M,69.62,KSBD 120834Z AUTO 26005KT 10SM CLR 21/15 A3003 RMK AO2 T02090149,M
SBD,2016-08-12 08:54,68.90,58.64,69.79,260.00,3.00,0.00,30.03,M,10.00,M,CLR,M,M,M,M,M,M,M,M,M,M,M,M,M,M,68.90,KSBD 120854Z AUTO 26003KT 10SM CLR 21/15 A3003 RMK AO2 T02050148,M
SBD,2016-08-12 09:14,68.54,58.64,70.66,0.00,0.00,0.00,30.03,M,10.00,M,CLR,M,M,M,M,M,M,M,M,M,M,M,M,M,M,68.54,KSBD 120914Z AUTO 00000KT 10SM CLR 20/15 A3003 RMK AO2 T02030148,M
SBD,2016-08-12 09:34,68.36,58.82,71.56,260.00,3.00,0.00,30.03,M,10.00,M,CLR,M,M,M,M,M,M,M,M,M,M,M,M,M,M,68.36,KSBD 120934Z AUTO 26003KT 10SM CLR 20/15 A3003 RMK AO2 T02020149,M
SBD,2016-08-12 09:54,68.00,58.82,72.45,260.00,3.00,0.00,30.03,M,10.00,M,CLR,M,M,M,M,M,M,M,M,M,M,M,M,M,M,68.00,KSBD 120954Z AUTO 26003KT 10SM CLR 20/15 A3003 RMK AO2 T02000149,M
SBD,2016-08-12 10:14,68.00,59.00,72.92,0.00,0.00,0.00,30.02,M,10.00,M,CLR,M,M,M,M,M,M,M,M,M,M,M,M,M,M,68.00,KSBD 121014Z AUTO 00000KT 10SM CLR 20/15 A3002 RMK AO2 T02000150,M
SBD,2016-08-12 10:34,67.46,58.82,73.81,260.00,3.00,0.00,30.02,M,10.00,M,CLR,M,M,M,M,M,M,M,M,M,M,M,M,M,M,67.46,KSBD 121034Z AUTO 26003KT 10SM CLR 20/15 A3002 RMK AO2 T01970149,M
SBD,2016-08-12 10:54,67.10,59.00,75.22,260.00,3.00,0.00,30.02,M,10.00,M,CLR,M,M,M,M,M,M,M,M,M,M,M,M,M,M,67.10,KSBD 121054Z AUTO 26003KT 10SM CLR 20/15 A3002 RMK AO2 T01950150,M
SBD,2016-08-12 11:14,67.28,59.00,74.75,0.00,0.00,0.00,30.02,M,10.00,M,CLR,M,M,M,M,M,M,M,M,M,M,M,M,M,M,67.28,KSBD 121114Z AUTO 00000KT 10SM CLR 20/15 A3002 RMK AO2 T01960150,M
SBD,2016-08-12 11:34,67.28,59.18,75.23,0.00,0.00,0.00,30.01,M,10.00,M,CLR,M,M,M,M,M,M,M,M,M,M,M,M,M,M,67.28,KSBD 121134Z AUTO 00000KT 10SM CLR 20/15 A3001 RMK AO2 T01960151,M
SBD,2016-08-12 11:54,67.10,59.18,75.70,0.00,0.00,0.00,30.01,M,10.00,M,CLR,M,M,M,M,M,M,M,M,M,M,M,M,M,M,67.10,KSBD 121154Z AUTO 00000KT 10SM CLR 20/15 A3001 RMK AO2 T01950151,M
SBD,2016-08-12 12:13,67.64,59.36,74.78,0.00,0.00,0.00,30.01,M,10.00,M,CLR,M,M,M,M,M,M,M,M,M,M,M,M,M,M,67.64,KSBD 121213Z AUTO 00000KT 10SM CLR 20/15 A3001 RMK AO2 T01980152,M
SBD,2016-08-12 12:34,67.64,59.36,74.78,0.00,0.00,0.00,30.01,M,10.00,M,CLR,M,M,M,M,M,M,M,M,M,M,M,M,M,M,67.64,KSBD 121234Z AUTO 00000KT 10SM CLR 20/15 A3001 RMK AO2 T01980152,M
SBD,2016-08-12 12:54,67.46,59.36,75.25,0.00,0.00,0.00,30.02,M,10.00,M,CLR,M,M,M,M,M,M,M,M,M,M,M,M,M,M,67.46,KSBD 121254Z AUTO 00000KT 10SM CLR 20/15 A3002 RMK AO2 T01970152,M
SBD,2016-08-12 13:13,67.46,59.36,75.25,0.00,0.00,0.00,30.02,M,10.00,M,CLR,M,M,M,M,M,M,M,M,M,M,M,M,M,M,67.46,KSBD 121313Z AUTO 00000KT 10SM CLR 20/15 A3002 RMK AO2 T01970152,M
SBD,2016-08-12 13:34,66.92,59.00,75.69,270.00,3.00,0.00,30.03,M,10.00,M,CLR,M,M,M,M,M,M,M,M,M,M,M,M,M,M,66.92,KSBD 121334Z AUTO 27003KT 10SM CLR 19/15 A3003 RMK AO2 T01940150,M
SBD,2016-08-12 13:54,67.64,59.36,74.78,260.00,4.00,0.00,30.04,M,10.00,M,CLR,M,M,M,M,M,M,M,M,M,M,M,M,M,M,67.64,KSBD 121354Z AUTO 26004KT 10SM CLR 20/15 A3004 RMK AO2 T01980152,M
SBD,2016-08-12 14:00,66.20,57.20,72.74,250.00,5.00,0.00,30.04,M,5.00,M,CLR,M,M,M,M,M,M,M,HZ,M,M,M,M,M,M,66.20,KSBD 121400Z 25005KT 5SM HZ SKC 19/14 A3004,M
SBD,2016-08-12 14:49,69.80,62.60,77.90,250.00,6.00,0.00,30.05,M,5.00,M,CLR,M,M,M,M,M,M,M,HZ,M,M,M,M,M,M,69.80,KSBD 121449Z 25006KT 5SM HZ SKC 21/17 A3005,M
SBD,2016-08-12 15:45,69.80,62.60,77.90,0.00,0.00,0.00,30.05,M,6.00,M,CLR,M,M,M,M,M,M,M,HZ,M,M,M,M,M,M,69.80,KSBD 121545Z 00000KT 6SM HZ SKC 21/17 A3005,M
SBD,2016-08-12 16:46,77.00,59.00,53.80,250.00,8.00,0.00,30.05,M,6.00,M,CLR,M,M,M,M,M,M,M,HZ,M,M,M,M,M,M,77.00,KSBD 121646Z 25008KT 6SM HZ SKC 25/15 A3005,M
SBD,2016-08-12 17:47,82.40,57.20,42.25,270.00,5.00,0.00,30.05,M,5.00,M,CLR,M,M,M,M,M,M,M,HZ,M,M,M,M,M,M,82.08,KSBD 121747Z 27005KT 5SM HZ SKC 28/14 A3005,M
SBD,2016-08-12 18:48,84.20,57.20,39.86,0.00,0.00,0.00,30.03,M,6.00,M,FEW,M,M,M,10000.00,M,M,M,HZ,M,M,M,M,M,M,84.20,KSBD 121848Z 00000KT 6SM HZ FEW100 29/14 A3003,M
SBD,2016-08-12 19:50,89.60,53.60,29.45,230.00,5.00,0.00,30.00,M,5.00,M,CLR,M,M,M,M,M,M,M,HZ,M,M,M,M,M,M,87.36,KSBD 121950Z 23005KT 5SM HZ SKC 32/12 A3000,M
SBD,2016-08-12 20:46,93.20,53.60,26.31,260.00,7.00,0.00,29.98,M,5.00,M,FEW,M,M,M,6000.00,M,M,M,HZ,M,M,M,M,M,M,90.86,KSBD 122046Z 26007KT 05SM HZ FEW060 34/12 A2998,M
SBD,2016-08-12 21:49,95.00,51.80,23.30,220.00,7.00,0.00,29.95,M,5.00,M,FEW,M,M,M,6000.00,M,M,M,HZ,M,M,M,M,M,M,92.26,KSBD 122149Z 22007KT 05SM HZ FEW060 35/11 A2995,M
SBD,2016-08-12 22:50,96.80,53.60,23.55,250.00,10.00,0.00,29.93,M,7.00,M,FEW,M,M,M,6000.00,M,M,M,M,M,M,M,M,M,M,94.59,KSBD 122250Z 25010KT 7SM FEW060 36/12 A2993,M
SBD,2016-08-12 23:49,95.00,53.60,24.89,240.00,10.00,0.00,29.91,M,7.00,M,FEW,M,M,M,6000.00,M,M,M,M,M,M,M,M,M,M,92.71,KSBD 122349Z 24010KT 7SM FEW060 35/12 A2991,M
SBD,2016-08-13 00:47,93.20,55.40,28.10,260.00,9.00,0.00,29.90,M,7.00,M,FEW,M,M,M,6000.00,M,M,M,M,M,M,M,M,M,M,91.35,KSBD 130047Z 26009KT 07SM FEW060 34/13 A2990,M
SBD,2016-08-13 01:52,89.60,55.40,31.45,230.00,10.00,0.00,29.91,M,7.00,M,FEW,M,M,M,6000.00,M,M,M,M,M,M,M,M,M,M,87.78,KSBD 130152Z 23010KT 07SM FEW060 32/13 A2991,M
SBD,2016-08-13 02:48,84.20,53.60,34.97,230.00,9.00,0.00,29.93,M,7.00,M,FEW,M,M,M,6000.00,M,M,M,M,M,M,M,M,M,M,82.76,KSBD 130248Z 23009KT 07SM FEW060 29/12 A2993,M
SBD,2016-08-13 03:49,82.40,55.40,39.58,230.00,6.00,0.00,29.96,M,7.00,M,CLR,M,M,M,M,M,M,M,M,M,M,M,M,M,M,82.40,KSBD 130349Z 23006KT 07SM SKC 28/13 A2996 RMK LAST,M
SBD,2016-08-13 04:14,80.60,55.22,41.70,250.00,6.00,0.00,29.97,M,10.00,M,CLR,M,M,M,M,M,M,M,M,M,M,M,M,M,M,80.51,KSBD 130414Z AUTO 25006KT 10SM CLR 27/13 A2997 RMK AO2 T02700129,M
SBD,2016-08-13 04:34,79.88,54.86,42.14,250.00,7.00,0.00,29.98,M,10.00,M,CLR,M,M,M,M,M,M,M,M,M,M,M,M,M,M,79.88,KSBD 130434Z AUTO 25007KT 10SM CLR 27/13 A2998 RMK AO2 T02660127,M
SBD,2016-08-13 04:53,78.98,54.50,42.83,250.00,4.00,0.00,29.99,M,10.00,M,CLR,M,M,M,M,M,M,M,M,M,M,M,M,M,M,78.98,KSBD 130453Z AUTO 25004KT 10SM CLR 26/13 A2999 RMK AO2 T02610125,M
SBD,2016-08-13 05:14,78.44,53.60,42.19,260.00,5.00,0.00,29.99,M,10.00,M,CLR,M,M,M,M,M,M,M,M,M,M,M,M,M,M,78.44,KSBD 130514Z AUTO 26005KT 10SM CLR 26/12 A2999 RMK AO2 T02580120,M
SBD,2016-08-13 05:34,77.72,53.60,43.21,240.00,6.00,0.00,29.98,M,10.00,M,CLR,M,M,M,M,M,M,M,M,M,M,M,M,M,M,77.72,KSBD 130534Z AUTO 24006KT 10SM CLR 25/12 A2998 RMK AO2 T02540120,M
SBD,2016-08-13 05:53,76.82,53.24,43.93,250.00,5.00,0.00,29.98,M,10.00,M,CLR,M,M,M,M,M,M,M,M,M,M,M,M,M,M,76.82,KSBD 130553Z AUTO 25005KT 10SM CLR 25/12 A2998 RMK AO2 T02490118,M
SBD,2016-08-13 06:14,76.28,53.78,45.62,250.00,5.00,0.00,29.98,M,10.00,M,CLR,M,M,M,M,M,M,M,M,M,M,M,M,M,M,76.28,KSBD 130614Z AUTO 25005KT 10SM CLR 25/12 A2998 RMK AO2 T02460121,M
SBD,2016-08-13 06:34,76.10,54.50,47.12,240.00,3.00,0.00,29.99,M,10.00,M,CLR,M,M,M,M,M,M,M,M,M,M,M,M,M,M,76.10,KSBD 130634Z AUTO 24003KT 10SM CLR 25/13 A2999 RMK AO2 T02450125,M
SBD,2016-08-13 06:54,75.92,54.86,48.03,240.00,3.00,0.00,29.99,M,10.00,M,CLR,M,M,M,M,M,M,M,M,M,M,M,M,M,M,75.92,KSBD 130654Z AUTO 24003KT 10SM CLR 24/13 A2999 RMK AO2 T02440127,M
SBD,2016-08-13 07:14,75.20,55.40,50.17,0.00,0.00,0.00,29.99,M,10.00,M,CLR,M,M,M,M,M,M,M,M,M,M,M,M,M,M,75.20,KSBD 130714Z AUTO 00000KT 10SM CLR 24/13 A2999 RMK AO2 T02400130,M
SBD,2016-08-13 07:33,75.38,55.76,50.52,0.00,0.00,0.00,29.99,M,10.00,M,CLR,M,M,M,M,M,M,M,M,M,M,M,M,M,M,75.38,KSBD 130733Z AUTO 00000KT 10SM CLR 24/13 A2999 RMK AO2 T02410132,M
SBD,2016-08-13 07:54,74.84,55.58,51.11,270.00,3.00,0.00,29.98,M,10.00,M,CLR,M,M,M,M,M,M,M,M,M,M,M,M,M,M,74.84,KSBD 130754Z AUTO 27003KT 10SM CLR 24/13 A2998 RMK AO2 T02380131,M
SBD,2016-08-13 08:14,74.48,55.94,52.41,0.00,0.00,0.00,29.97,M,10.00,M,CLR,M,M,M,M,M,M,M,M,M,M,M,M,M,M,74.48,KSBD 130814Z AUTO 00000KT 10SM CLR 24/13 A2997 RMK AO2 T02360133,M
SBD,2016-08-13 08:33,74.30,56.30,53.42,270.00,3.00,0.00,29.97,M,10.00,M,CLR,M,M,M,M,M,M,M,M,M,M,M,M,M,M,74.30,KSBD 130833Z AUTO 27003KT 10SM CLR 24/14 A2997 RMK AO2 T02350135,M
SBD,2016-08-13 08:54,72.86,55.76,54.98,250.00,3.00,0.00,29.96,M,10.00,M,CLR,M,M,M,M,M,M,M,M,M,M,M,M,M,M,72.86,KSBD 130854Z AUTO 25003KT 10SM CLR 23/13 A2996 RMK AO2 T02270132,M
SBD,2016-08-13 09:14,73.40,56.66,55.78,240.00,3.00,0.00,29.96,M,10.00,M,CLR,M,M,M,M,M,M,M,M,M,M,M,M,M,M,73.40,KSBD 130914Z AUTO 24003KT 10SM CLR 23/14 A2996 RMK AO2 T02300137,M
SBD,2016-08-13 09:34,72.50,57.02,58.25,0.00,0.00,0.00,29.96,M,10.00,M,CLR,M,M,M,M,M,M,M,M,M,M,M,M,M,M,72.50,KSBD 130934Z AUTO 00000KT 10SM CLR 23/14 A2996 RMK AO2 T02250139,M
SBD,2016-08-13 09:53,72.50,57.56,59.39,0.00,0.00,0.00,29.96,M,10.00,M,CLR,M,M,M,M,M,M,M,M,M,M,M,M,M,M,72.50,KSBD 130953Z AUTO 00000KT 10SM CLR 23/14 A2996 RMK AO2 T02250142,M
SBD,2016-08-13 10:14,71.78,58.10,62.05,0.00,0.00,0.00,29.96,M,10.00,M,CLR,M,M,M,M,M,M,M,M,M,M,M,M,M,M,71.78,KSBD 131014Z AUTO 00000KT 10SM CLR 22/15 A2996 RMK AO2 T02210145,M
SBD,2016-08-13 10:34,71.78,58.28,62.45,0.00,0.00,0.00,29.96,M,10.00,M,CLR,M,M,M,M,M,M,M,M,M,M,M,M,M,M,71.78,KSBD 131034Z AUTO 00000KT 10SM CLR 22/15 A2996 RMK AO2 T02210146,M
SBD,2016-08-13 10:54,71.60,58.28,62.84,0.00,0.00,0.00,29.96,M,10.00,M,CLR,M,M,M,M,M,M,M,M,M,M,M,M,M,M,71.60,KSBD 131054Z AUTO 00000KT 10SM CLR 22/15 A2996 RMK AO2 T02200146,M
SBD,2016-08-13 11:14,70.70,58.10,64.37,0.00,0.00,0.00,29.95,M,10.00,M,CLR,M,M,M,M,M,M,M,M,M,M,M,M,M,M,70.70,KSBD 131114Z AUTO 00000KT 10SM CLR 22/15 A2995 RMK AO2 T02150145,M
SBD,2016-08-13 11:34,70.70,58.46,65.21,0.00,0.00,0.00,29.96,M,10.00,M,CLR,M,M,M,M,M,M,M,M,M,M,M,M,M,M,70.70,KSBD 131134Z AUTO 00000KT 10SM CLR 22/15 A2996 RMK AO2 T02150147,M
SBD,2016-08-13 11:54,70.88,58.64,65.23,0.00,0.00,0.00,29.95,M,10.00,M,CLR,M,M,M,M,M,M,M,M,M,M,M,M,M,M,70.88,KSBD 131154Z AUTO 00000KT 10SM CLR 22/15 A2995 RMK AO2 T02160148,M
SBD,2016-08-13 12:14,70.70,57.38,62.72,0.00,0.00,0.00,29.95,M,10.00,M,CLR,M,M,M,M,M,M,M,M,M,M,M,M,M,M,70.70,KSBD 131214Z AUTO 00000KT 10SM CLR 22/14 A2995 RMK AO2 T02150141,M
SBD,2016-08-13 12:34,69.80,57.20,64.26,0.00,0.00,0.00,29.95,M,10.00,M,CLR,M,M,M,M,M,M,M,M,M,M,M,M,M,M,69.80,KSBD 131234Z AUTO 00000KT 10SM CLR 21/14 A2995 RMK AO2 T02100140,M
SBD,2016-08-13 12:54,69.80,56.12,61.80,0.00,0.00,0.00,29.95,M,10.00,M,CLR,M,M,M,M,M,M,M,M,M,M,M,M,M,M,69.80,KSBD 131254Z AUTO 00000KT 10SM CLR 21/13 A2995 RMK AO2 T02100134,M
SBD,2016-08-13 13:14,69.44,55.94,62.16,0.00,0.00,0.00,29.96,M,10.00,M,CLR,M,M,M,M,M,M,M,M,M,M,M,M,M,M,69.44,KSBD 131314Z AUTO 00000KT 10SM CLR 21/13 A2996 RMK AO2 T02080133,M
SBD,2016-08-13 13:34,68.90,55.40,62.09,0.00,0.00,0.00,29.96,M,10.00,M,CLR,M,M,M,M,M,M,M,M,M,M,M,M,M,M,68.90,KSBD 131334Z AUTO 00000KT 10SM CLR 21/13 A2996 RMK AO2 T02050130,M
SBD,2016-08-13 13:54,69.80,55.40,60.21,0.00,0.00,0.00,29.97,M,10.00,M,CLR,M,M,M,M,M,M,M,M,M,M,M,M,M,M,69.80,KSBD 131354Z AUTO 00000KT 10SM CLR 21/13 A2997 RMK AO2 T02100130,M
SBD,2016-08-13 14:00,69.80,57.20,64.26,0.00,0.00,0.00,29.97,M,7.00,M,CLR,M,M,M,M,M,M,M,M,M,M,M,M,M,M,69.80,KSBD 131400Z 00000KT 7SM SKC 21/14 A2997,M
SBD,2016-08-13 14:45,73.40,55.40,53.29,0.00,0.00,0.00,29.97,M,7.00,M,CLR,M,M,M,M,M,M,M,M,M,M,M,M,M,M,73.40,KSBD 131445Z 00000KT 7SM SKC 23/13 A2997,M
SBD,2016-08-13 15:45,78.80,57.20,47.52,0.00,0.00,0.00,29.98,M,7.00,M,CLR,M,M,M,M,M,M,M,M,M,M,M,M,M,M,78.80,KSBD 131545Z 00000KT 7SM SKC 26/14 A2998,M
SBD,2016-08-13 16:46,82.40,55.40,39.58,0.00,0.00,0.00,29.97,M,7.00,M,CLR,M,M,M,M,M,M,M,M,M,M,M,M,M,M,82.40,KSBD 131646Z 00000KT 7SM SKC 28/13 A2997,M
SBD,2016-08-13 17:47,87.80,55.40,33.29,280.00,6.00,0.00,29.96,M,7.00,M,CLR,M,M,M,M,M,M,M,M,M,M,M,M,M,M,86.11,KSBD 131747Z 28006KT 7SM SKC 31/13 A2996,M
SBD,2016-08-13 18:46,93.20,51.80,24.63,230.00,5.00,0.00,29.95,M,7.00,M,FEW,M,M,M,6000.00,M,M,M,M,M,M,M,M,M,M,90.45,KSBD 131846Z 23005KT 07SM FEW060 34/11 A2995,M
SBD,2016-08-13 19:54,95.00,53.60,24.89,270.00,7.00,0.00,29.92,M,7.00,M,FEW,M,M,M,6000.00,M,M,M,M,M,M,M,M,M,M,92.71,KSBD 131954Z 27007KT 07SM FEW060 35/12 A2992,M
SBD,2016-08-13 21:48,100.40,46.40,16.15,280.00,5.00,0.00,29.88,M,7.00,M,FEW,M,M,M,10000.00,M,M,M,M,M,M,M,M,M,M,96.63,KSBD 132148Z 28005KT 7SM FEW100 38/08 A2988,M
SBD,2016-08-13 22:48,93.20,41.00,16.37,240.00,14.00,0.00,29.86,M,7.00,M,FEW,M,M,M,10000.00,M,M,M,M,M,M,M,M,M,M,89.03,KSBD 132248Z 24014KT 7SM FEW100 34/05 A2986,M
SBD,2016-08-13 23:50,102.20,48.20,16.37,270.00,8.00,0.00,29.85,M,7.00,M,FEW,M,M,M,6000.00,M,M,M,M,M,M,M,M,M,M,98.83,KSBD 132350Z 27008KT 07SM FEW060 39/09 A2985,M
SBD,2016-08-14 00:50,98.60,53.60,22.29,240.00,8.00,0.00,29.84,M,7.00,M,FEW,M,M,M,6000.00,M,M,M,M,M,M,M,M,M,M,96.51,KSBD 140050Z 24008KT 07SM FEW060 37/12 A2984,M
SBD,2016-08-14 01:51,95.00,53.60,24.89,240.00,8.00,0.00,29.84,M,7.00,M,CLR,M,M,M,M,M,M,M,M,M,M,M,M,M,M,92.71,KSBD 140151Z 24008KT 07SM SKC 35/12 A2984,M
SBD,2016-08-14 02:49,89.60,53.60,29.45,230.00,8.00,0.00,29.86,M,7.00,M,CLR,M,M,M,M,M,M,M,M,M,M,M,M,M,M,87.36,KSBD 140249Z 23008KT 07SM SKC 32/12 A2986,M
SBD,2016-08-14 03:48,86.00,53.60,33.01,240.00,6.00,0.00,29.98,M,7.00,M,CLR,M,M,M,M,M,M,M,M,M,M,M,M,M,M,84.18,KSBD 140348Z 24006KT 07SM SKC 30/12 A2998 RMK LAST,M
SBD,2016-08-14 04:14,85.10,53.06,33.31,270.00,4.00,0.00,29.89,M,10.00,M,CLR,M,M,M,M,M,M,M,M,M,M,M,M,M,M,83.36,KSBD 140414Z AUTO 27004KT 10SM CLR 30/12 A2989 RMK AO2 T02950117,M
SBD,2016-08-14 04:34,84.38,53.60,34.77,270.00,5.00,0.00,29.89,M,10.00,M,CLR,M,M,M,M,M,M,M,M,M,M,M,M,M,M,82.89,KSBD 140434Z AUTO 27005KT 10SM CLR 29/12 A2989 RMK AO2 T02910120,M
SBD,2016-08-14 04:53,83.48,53.06,35.09,250.00,4.00,0.00,29.90,M,10.00,M,CLR,M,M,M,M,M,M,M,M,M,M,M,M,M,M,82.13,KSBD 140453Z AUTO 25004KT 10SM CLR 29/12 A2990 RMK AO2 T02860117,M
SBD,2016-08-14 05:14,82.94,52.16,34.55,250.00,6.00,0.00,29.91,M,10.00,M,CLR,M,M,M,M,M,M,M,M,M,M,M,M,M,M,81.62,KSBD 140514Z AUTO 25006KT 10SM CLR 28/11 A2991 RMK AO2 T02830112,M
SBD,2016-08-14 05:34,82.22,51.44,34.44,240.00,5.00,0.00,29.91,M,10.00,M,CLR,M,M,M,M,M,M,M,M,M,M,M,M,M,M,81.04,KSBD 140534Z AUTO 24005KT 10SM CLR 28/11 A2991 RMK AO2 T02790108,M
SBD,2016-08-14 05:53,81.14,50.90,34.96,260.00,4.00,0.00,29.91,M,10.00,M,CLR,M,M,M,M,M,M,M,M,M,M,M,M,M,M,81.14,KSBD 140553Z AUTO 26004KT 10SM CLR 27/11 A2991 RMK AO2 T02730105,M
SBD,2016-08-14 06:14,80.24,50.54,35.53,250.00,5.00,0.00,29.91,M,10.00,M,CLR,M,M,M,M,M,M,M,M,M,M,M,M,M,M,80.24,KSBD 140614Z AUTO 25005KT 10SM CLR 27/10 A2991 RMK AO2 T02680103,M
SBD,2016-08-14 06:33,79.70,50.36,35.92,260.00,4.00,0.00,29.91,M,10.00,M,CLR,M,M,M,M,M,M,M,M,M,M,M,M,M,M,79.70,KSBD 140633Z AUTO 26004KT 10SM CLR 27/10 A2991 RMK AO2 T02650102,M
SBD,2016-08-14 06:54,79.16,50.90,37.30,280.00,4.00,0.00,29.91,M,10.00,M,CLR,M,M,M,M,M,M,M,M,M,M,M,M,M,M,79.16,KSBD 140654Z AUTO 28004KT 10SM CLR 26/11 A2991 RMK AO2 T02620105,M
SBD,2016-08-14 07:14,79.16,51.80,38.57,280.00,3.00,0.00,29.91,M,10.00,M,CLR,M,M,M,M,M,M,M,M,M,M,M,M,M,M,79.16,KSBD 140714Z AUTO 28003KT 10SM CLR 26/11 A2991 RMK AO2 T02620110,M
SBD,2016-08-14 07:34,78.62,52.70,40.58,260.00,4.00,0.00,29.91,M,10.00,M,CLR,M,M,M,M,M,M,M,M,M,M,M,M,M,M,78.62,KSBD 140734Z AUTO 26004KT 10SM CLR 26/12 A2991 RMK AO2 T02590115,M
SBD,2016-08-14 07:54,77.72,53.06,42.36,270.00,3.00,0.00,29.91,M,10.00,M,CLR,M,M,M,M,M,M,M,M,M,M,M,M,M,M,77.72,KSBD 140754Z AUTO 27003KT 10SM CLR 25/12 A2991 RMK AO2 T02540117,M
SBD,2016-08-14 08:14,76.82,53.42,44.22,250.00,4.00,0.00,29.90,M,10.00,M,CLR,M,M,M,M,M,M,M,M,M,M,M,M,M,M,76.82,KSBD 140814Z AUTO 25004KT 10SM CLR 25/12 A2990 RMK AO2 T02490119,M
SBD,2016-08-14 08:34,76.28,53.78,45.62,250.00,4.00,0.00,29.90,M,10.00,M,CLR,M,M,M,M,M,M,M,M,M,M,M,M,M,M,76.28,KSBD 140834Z AUTO 25004KT 10SM CLR 25/12 A2990 RMK AO2 T02460121,M
SBD,2016-08-14 08:54,77.00,54.50,45.73,0.00,0.00,0.00,29.89,M,10.00,M,CLR,M,M,M,M,M,M,M,M,M,M,M,M,M,M,77.00,KSBD 140854Z AUTO 00000KT 10SM CLR 25/13 A2989 RMK AO2 T02500125,M
SBD,2016-08-14 09:14,76.64,54.50,46.28,0.00,0.00,0.00,29.89,M,10.00,M,CLR,M,M,M,M,M,M,M,M,M,M,M,M,M,M,76.64,KSBD 140914Z AUTO 00000KT 10SM CLR 25/13 A2989 RMK AO2 T02480125,M
SBD,2016-08-14 09:34,76.82,53.96,45.10,0.00,0.00,0.00,29.89,M,10.00,M,CLR,M,M,M,M,M,M,M,M,M,M,M,M,M,M,76.82,KSBD 140934Z AUTO 00000KT 10SM CLR 25/12 A2989 RMK AO2 T02490122,M
SBD,2016-08-14 09:54,76.10,54.14,46.50,0.00,0.00,0.00,29.89,M,10.00,M,CLR,M,M,M,M,M,M,M,M,M,M,M,M,M,M,76.10,KSBD 140954Z AUTO 00000KT 10SM CLR 25/12 A2989 RMK AO2 T02450123,M
SBD,2016-08-14 10:14,76.10,53.60,45.59,0.00,0.00,0.00,29.89,M,10.00,M,CLR,M,M,M,M,M,M,M,M,M,M,M,M,M,M,76.10,KSBD 141014Z AUTO 00000KT 10SM CLR 25/12 A2989 RMK AO2 T02450120,M
SBD,2016-08-14 10:33,74.48,53.96,48.76,0.00,0.00,0.00,29.89,M,10.00,M,CLR,M,M,M,M,M,M,M,M,M,M,M,M,M,M,74.48,KSBD 141033Z AUTO 00000KT 10SM CLR 24/12 A2989 RMK AO2 T02360122,M
SBD,2016-08-14 10:54,73.94,55.04,51.65,0.00,0.00,0.00,29.89,M,10.00,M,CLR,M,M,M,M,M,M,M,M,M,M,M,M,M,M,73.94,KSBD 141054Z AUTO 00000KT 10SM CLR 23/13 A2989 RMK AO2 T02330128,M
SBD,2016-08-14 11:14,74.30,53.06,47.47,0.00,0.00,0.00,29.89,M,10.00,M,CLR,M,M,M,M,M,M,M,M,M,M,M,M,M,M,74.30,KSBD 141114Z AUTO 00000KT 10SM CLR 24/12 A2989 RMK AO2 T02350117,M
SBD,2016-08-14 11:33,73.58,53.06,48.63,0.00,0.00,0.00,29.89,M,10.00,M,CLR,M,M,M,M,M,M,M,M,M,M,M,M,M,M,73.58,KSBD 141133Z AUTO 00000KT 10SM CLR 23/12 A2989 RMK AO2 T02310117,M
SBD,2016-08-14 11:54,73.40,53.06,48.92,0.00,0.00,0.00,29.89,M,10.00,M,CLR,M,M,M,M,M,M,M,M,M,M,M,M,M,M,73.40,KSBD 141154Z AUTO 00000KT 10SM CLR 23/12 A2989 RMK AO2 T02300117,M
SBD,2016-08-14 12:14,73.40,54.14,50.90,0.00,0.00,0.00,29.89,M,10.00,M,CLR,M,M,M,M,M,M,M,M,M,M,M,M,M,M,73.40,KSBD 141214Z AUTO 00000KT 10SM CLR 23/12 A2989 RMK AO2 T02300123,M
SBD,2016-08-14 12:33,71.24,54.32,55.12,0.00,0.00,0.00,29.90,M,10.00,M,CLR,M,M,M,M,M,M,M,M,M,M,M,M,M,M,71.24,KSBD 141233Z AUTO 00000KT 10SM CLR 22/12 A2990 RMK AO2 T02180124,M
SBD,2016-08-14 12:54,72.14,55.22,55.24,0.00,0.00,0.00,29.91,M,10.00,M,CLR,M,M,M,M,M,M,M,M,M,M,M,M,M,M,72.14,KSBD 141254Z AUTO 00000KT 10SM CLR 22/13 A2991 RMK AO2 T02230129,M
SBD,2016-08-14 13:14,72.32,55.22,54.91,0.00,0.00,0.00,29.91,M,10.00,M,CLR,M,M,M,M,M,M,M,M,M,M,M,M,M,M,72.32,KSBD 141314Z AUTO 00000KT 10SM CLR 22/13 A2991 RMK AO2 T02240129,M
SBD,2016-08-14 13:33,71.60,54.86,55.53,0.00,0.00,0.00,29.92,M,10.00,M,CLR,M,M,M,M,M,M,M,M,M,M,M,M,M,M,71.60,KSBD 141333Z AUTO 00000KT 10SM CLR 22/13 A2992 RMK AO2 T02200127,M
SBD,2016-08-14 13:54,72.68,55.22,54.24,0.00,0.00,0.00,29.92,M,10.00,M,CLR,M,M,M,M,M,M,M,M,M,M,M,M,M,M,72.68,KSBD 141354Z AUTO 00000KT 10SM CLR 23/13 A2992 RMK AO2 T02260129,M
SBD,2016-08-14 14:47,57.20,53.60,87.74,0.00,0.00,0.00,29.93,M,7.00,M,CLR,M,M,M,M,M,M,M,M,M,M,M,M,M,M,57.20,KSBD 141447Z 00000KT 7SM SKC 14/12 A2993,M
SBD,2016-08-14 15:47,80.60,53.60,39.30,0.00,0.00,0.00,29.94,M,7.00,M,CLR,M,M,M,M,M,M,M,M,M,M,M,M,M,M,80.60,KSBD 141547Z 00000KT 7SM SKC 27/12 A2994,M
SBD,2016-08-14 16:49,86.00,53.60,33.01,0.00,0.00,0.00,29.93,M,7.00,M,CLR,M,M,M,M,M,M,M,M,M,M,M,M,M,M,84.18,KSBD 141649Z 00000KT 7SM SKC 30/12 A2993,M
SBD,2016-08-14 17:47,93.20,51.80,24.63,0.00,0.00,0.00,29.92,M,10.00,M,FEW,M,M,M,6000.00,M,M,M,M,M,M,M,M,M,M,90.45,KSBD 141747Z 00000KT 10SM FEW060 34/11 A2992,M
SBD,2016-08-14 18:47,95.00,50.00,21.79,300.00,3.00,0.00,29.91,M,10.00,M,FEW,M,M,M,6000.00,M,M,M,M,M,M,M,M,M,M,91.89,KSBD 141847Z 30003KT 10SM FEW060 35/10 2991,M
SBD,2016-08-14 19:50,100.40,51.80,19.76,290.00,5.00,0.00,29.89,M,10.00,M,FEW,M,M,M,6000.00,M,M,M,M,M,M,M,M,M,M,97.90,KSBD 141950Z 29005KT 10SM FEW060 38/11 A2989,M
SBD,2016-08-14 20:49,102.20,50.00,17.51,250.00,5.00,0.00,29.88,M,10.00,M,FEW,M,M,M,6000.00,M,M,M,M,M,M,M,M,M,M,99.28,KSBD 142049Z 25005KT 10SM FEW060 39/10 A2988,M
SBD,2016-08-14 21:50,104.00,48.20,15.52,270.00,9.00,0.00,29.85,M,10.00,M,FEW,M,M,M,9000.00,M,M,M,M,M,M,M,M,M,M,100.65,KSBD 142150Z 27009KT 10SM FEW090 40/09 A2985,M
SBD,2016-08-14 22:48,104.00,48.20,15.52,270.00,9.00,0.00,29.84,M,10.00,M,FEW,M,M,M,6000.00,M,M,M,M,M,M,M,M,M,M,100.65,KSBD 142248Z 27009KT 10SM FEW060 40/09 A2984,M
SBD,2016-08-14 23:49,102.20,55.40,21.36,250.00,11.00,0.00,29.84,M,10.00,M,CLR,M,M,M,M,M,M,M,M,M,M,M,M,M,M,101.04,KSBD 142349Z 25011KT 10SM SKC 39/13 A2984,M
SBD,2016-08-15 02:50,91.40,57.20,31.72,220.00,4.00,0.00,29.86,M,10.00,M,CLR,M,M,M,M,M,M,M,M,M,M,M,M,M,M,90.06,KSBD 150250Z 22004KT 10SM SKC 33/14 A2986,M
SBD,2016-08-15 03:48,87.80,55.40,33.29,250.00,4.00,0.00,29.87,M,10.00,M,CLR,M,M,M,M,M,M,M,M,M,M,M,M,M,M,86.11,KSBD 150348Z 25004KT 10SM SKC 31/13 A2987,M
SBD,2016-08-15 04:14,87.44,53.96,31.95,250.00,4.00,0.00,29.89,M,10.00,M,CLR,M,M,M,M,M,M,M,M,M,M,M,M,M,M,85.48,KSBD 150414Z AUTO 25004KT 10SM CLR 31/12 A2989 RMK AO2 T03080122,M
SBD,2016-08-15 04:33,86.54,52.70,31.39,250.00,5.00,0.00,29.89,M,10.00,M,CLR,M,M,M,M,M,M,M,M,M,M,M,M,M,M,84.47,KSBD 150433Z AUTO 25005KT 10SM CLR 30/12 A2989 RMK AO2 T03030115,M
SBD,2016-08-15 04:54,85.46,52.88,32.71,260.00,5.00,0.00,29.89,M,10.00,M,CLR,M,M,M,M,M,M,M,M,M,M,M,M,M,M,83.62,KSBD 150454Z AUTO 26005KT 10SM CLR 30/12 A2989 RMK AO2 T02970116,M
SBD,2016-08-15 05:14,84.38,53.24,34.32,270.00,4.00,0.00,29.90,M,10.00,M,CLR,M,M,M,M,M,M,M,M,M,M,M,M,M,M,82.83,KSBD 150514Z AUTO 27004KT 10SM CLR 29/12 A2990 RMK AO2 T02910118,M
SBD,2016-08-15 05:33,84.74,53.42,34.15,270.00,3.00,0.00,29.90,M,10.00,M,CLR,M,M,M,M,M,M,M,M,M,M,M,M,M,M,83.14,KSBD 150533Z AUTO 27003KT 10SM CLR 29/12 A2990 RMK AO2 T02930119,M
SBD,2016-08-15 05:54,84.38,53.60,34.77,0.00,0.00,0.00,29.90,M,10.00,M,CLR,M,M,M,M,M,M,M,M,M,M,M,M,M,M,82.89,KSBD 150554Z AUTO 00000KT 10SM CLR 29/12 A2990 RMK AO2 T02910120,M
SBD,2016-08-15 06:14,84.38,53.78,35.00,0.00,0.00,0.00,29.90,M,10.00,M,CLR,M,M,M,M,M,M,M,M,M,M,M,M,M,M,82.92,KSBD 150614Z AUTO 00000KT 10SM CLR 29/12 A2990 RMK AO2 T02910121,M
SBD,2016-08-15 06:33,84.02,53.78,35.41,0.00,0.00,0.00,29.91,M,10.00,M,CLR,M,M,M,M,M,M,M,M,M,M,M,M,M,M,82.65,KSBD 150633Z AUTO 00000KT 10SM CLR 29/12 A2991 RMK AO2 T02890121,M
SBD,2016-08-15 06:54,84.02,53.60,35.18,0.00,0.00,0.00,29.91,M,10.00,M,CLR,M,M,M,M,M,M,M,M,M,M,M,M,M,M,82.62,KSBD 150654Z AUTO 00000KT 10SM CLR 29/12 A2991 RMK AO2 T02890120,M
SBD,2016-08-15 07:14,83.66,53.60,35.59,0.00,0.00,0.00,29.91,M,10.00,M,CLR,M,M,M,M,M,M,M,M,M,M,M,M,M,M,82.35,KSBD 150714Z AUTO 00000KT 10SM CLR 29/12 A2991 RMK AO2 T02870120,M
SBD,2016-08-15 07:33,82.58,53.78,37.10,0.00,0.00,0.00,29.91,M,10.00,M,CLR,M,M,M,M,M,M,M,M,M,M,M,M,M,M,82.58,KSBD 150733Z AUTO 00000KT 10SM CLR 28/12 A2991 RMK AO2 T02810121,M
SBD,2016-08-15 07:54,80.42,54.86,41.40,0.00,0.00,0.00,29.91,M,10.00,M,CLR,M,M,M,M,M,M,M,M,M,M,M,M,M,M,80.35,KSBD 150754Z AUTO 00000KT 10SM CLR 27/13 A2991 RMK AO2 T02690127,M
SBD,2016-08-15 08:14,79.88,54.86,42.14,0.00,0.00,0.00,29.91,M,10.00,M,CLR,M,M,M,M,M,M,M,M,M,M,M,M,M,M,79.88,KSBD 150814Z AUTO 00000KT 10SM CLR 27/13 A2991 RMK AO2 T02660127,M
SBD,2016-08-15 08:34,80.24,55.40,42.47,0.00,0.00,0.00,29.91,M,10.00,M,CLR,M,M,M,M,M,M,M,M,M,M,M,M,M,M,80.31,KSBD 150834Z AUTO 00000KT 10SM CLR 27/13 A2991 RMK AO2 T02680130,M
SBD,2016-08-15 08:54,79.16,55.76,44.58,0.00,0.00,0.00,29.90,M,10.00,M,CLR,M,M,M,M,M,M,M,M,M,M,M,M,M,M,79.16,KSBD 150854Z AUTO 00000KT 10SM CLR 26/13 A2990 RMK AO2 T02620132,M
SBD,2016-08-15 09:14,78.98,56.30,45.73,90.00,3.00,0.00,29.90,M,10.00,M,CLR,M,M,M,M,M,M,M,M,M,M,M,M,M,M,78.98,KSBD 150914Z AUTO 09003KT 10SM CLR 26/14 A2990 RMK AO2 T02610135,M
SBD,2016-08-15 09:34,79.34,56.30,45.19,0.00,0.00,0.00,29.90,M,10.00,M,CLR,M,M,M,M,M,M,M,M,M,M,M,M,M,M,79.34,KSBD 150934Z AUTO 00000KT 10SM CLR 26/14 A2990 RMK AO2 T02630135,M
SBD,2016-08-15 09:54,77.54,56.84,48.90,0.00,0.00,0.00,29.90,M,10.00,M,CLR,M,M,M,M,M,M,M,M,M,M,M,M,M,M,77.54,KSBD 150954Z AUTO 00000KT 10SM CLR 25/14 A2990 RMK AO2 T02530138,M
SBD,2016-08-15 10:14,77.00,55.94,48.19,0.00,0.00,0.00,29.90,M,10.00,M,CLR,M,M,M,M,M,M,M,M,M,M,M,M,M,M,77.00,KSBD 151014Z AUTO 00000KT 10SM CLR 25/13 A2990 RMK AO2 T02500133,M
SBD,2016-08-15 10:34,77.18,56.12,48.21,0.00,0.00,0.00,29.89,M,10.00,M,CLR,M,M,M,M,M,M,M,M,M,M,M,M,M,M,77.18,KSBD 151034Z AUTO 00000KT 10SM CLR 25/13 A2989 RMK AO2 T02510134,M
SBD,2016-08-15 10:54,75.38,56.30,51.52,0.00,0.00,0.00,29.89,M,10.00,M,CLR,M,M,M,M,M,M,M,M,M,M,M,M,M,M,75.38,KSBD 151054Z AUTO 00000KT 10SM CLR 24/14 A2989 RMK AO2 T02410135,M
SBD,2016-08-15 11:14,76.10,55.76,49.33,0.00,0.00,0.00,29.90,M,10.00,M,CLR,M,M,M,M,M,M,M,M,M,M,M,M,M,M,76.10,KSBD 151114Z AUTO 00000KT 10SM CLR 25/13 A2990 RMK AO2 T02450132,M
SBD,2016-08-15 11:34,75.38,53.78,47.01,0.00,0.00,0.00,29.90,M,10.00,M,CLR,M,M,M,M,M,M,M,M,M,M,M,M,M,M,75.38,KSBD 151134Z AUTO 00000KT 10SM CLR 24/12 A2990 RMK AO2 T02410121,M
SBD,2016-08-15 11:54,75.56,53.42,46.11,0.00,0.00,0.00,29.90,M,10.00,M,CLR,M,M,M,M,M,M,M,M,M,M,M,M,M,M,75.56,KSBD 151154Z AUTO 00000KT 10SM CLR 24/12 A2990 RMK AO2 T02420119,M
SBD,2016-08-15 12:14,75.56,53.06,45.51,0.00,0.00,0.00,29.90,M,10.00,M,CLR,M,M,M,M,M,M,M,M,M,M,M,M,M,M,75.56,KSBD 151214Z AUTO 00000KT 10SM CLR 24/12 A2990 RMK AO2 T02420117,M
SBD,2016-08-15 12:34,75.56,54.50,47.97,0.00,0.00,0.00,29.90,M,10.00,M,CLR,M,M,M,M,M,M,M,M,M,M,M,M,M,M,75.56,KSBD 151234Z AUTO 00000KT 10SM CLR 24/13 A2990 RMK AO2 T02420125,M
SBD,2016-08-15 12:53,74.66,54.14,48.79,0.00,0.00,0.00,29.91,M,10.00,M,CLR,M,M,M,M,M,M,M,M,M,M,M,M,M,M,74.66,KSBD 151253Z AUTO 00000KT 10SM CLR 24/12 A2991 RMK AO2 T02370123,M
SBD,2016-08-15 13:14,73.58,52.34,47.36,0.00,0.00,0.00,29.92,M,10.00,M,CLR,M,M,M,M,M,M,M,M,M,M,M,M,M,M,73.58,KSBD 151314Z AUTO 00000KT 10SM CLR 23/11 A2992 RMK AO2 T02310113,M
SBD,2016-08-15 13:34,73.94,51.44,45.26,0.00,0.00,0.00,29.92,M,10.00,M,CLR,M,M,M,M,M,M,M,M,M,M,M,M,M,M,73.94,KSBD 151334Z AUTO 00000KT 10SM CLR 23/11 A2992 RMK AO2 T02330108,M
SBD,2016-08-15 13:53,74.66,50.00,41.88,0.00,0.00,0.00,29.93,M,10.00,M,CLR,M,M,M,M,M,M,M,M,M,M,M,M,M,M,74.66,KSBD 151353Z AUTO 00000KT 10SM CLR 24/10 A2993 RMK AO2 T02370100,M
SBD,2016-08-15 14:00,75.20,57.20,53.55,0.00,0.00,0.00,29.93,M,7.00,M,CLR,M,M,M,M,M,M,M,M,M,M,M,M,M,M,75.20,KSBD 151400Z 00000KT 7SM SKC 24/14 A2993,M
SBD,2016-08-15 14:55,80.60,50.00,34.41,0.00,0.00,0.00,29.94,M,7.00,M,CLR,M,M,M,M,M,M,M,M,M,M,M,M,M,M,80.60,KSBD 151455Z 00000KT 7SM SKC 27/10 A2994,M
SBD,2016-08-15 15:45,84.20,50.00,30.62,0.00,0.00,0.00,29.94,M,7.00,M,CLR,M,M,M,M,M,M,M,M,M,M,M,M,M,M,82.24,KSBD 151545Z 00000KT 7SM SKC 29/10 A2994,M
SBD,2016-08-15 16:46,91.40,44.60,19.89,0.00,0.00,0.00,29.94,M,7.00,M,CLR,M,M,M,M,M,M,M,M,M,M,M,M,M,M,87.68,KSBD 151646Z 00000KT 7SM SKC 33/07 A2994,M
SBD,2016-08-15 17:50,96.80,44.60,16.83,230.00,3.00,0.00,29.94,M,10.00,M,CLR,M,M,M,M,M,M,M,M,M,M,M,M,M,M,92.79,KSBD 151750Z 23003KT 10SM SKC 36/07 A2994,M
SBD,2016-08-15 18:50,100.40,41.00,13.14,0.00,0.00,0.00,29.92,M,10.00,M,CLR,M,M,M,M,M,M,M,M,M,M,M,M,M,M,95.79,KSBD 151850Z 00000KT 10SM SKC 38/05 A2992,M
SBD,2016-08-15 19:50,102.20,39.20,11.60,0.00,0.00,0.00,29.91,M,10.00,M,CLR,M,M,M,M,M,M,M,M,M,M,M,M,M,M,96.99,KSBD 151950Z 00000KT 10SM SKC 39/04 A2991,M
SBD,2016-08-15 20:50,104.00,33.80,8.88,270.00,5.00,0.00,29.88,M,10.00,M,CLR,M,M,M,M,M,M,M,M,M,M,M,M,M,M,97.55,KSBD 152050Z 27005KT 10SM SKC 40/01 A2988,M
SBD,2016-08-15 21:50,107.60,33.80,7.99,220.00,8.00,0.00,29.87,M,10.00,M,CLR,M,M,M,M,M,M,M,M,M,M,M,M,M,M,100.66,KSBD 152150Z 22008KT 10SM SKC 42/01 A2987,M
SBD,2016-08-15 22:50,107.60,35.60,8.58,220.00,9.00,0.00,29.85,M,10.00,M,CLR,M,M,M,M,M,M,M,M,M,M,M,M,M,M,100.98,KSBD 152250Z 22009KT 10SM SKC 42/02 A2985,M
SBD,2016-08-15 23:50,105.80,39.20,10.43,250.00,11.00,0.00,29.84,M,10.00,M,CLR,M,M,M,M,M,M,M,M,M,M,M,M,M,M,100.14,KSBD 152350Z 25011KT 10SM SKC 41/04 A2984,M
SBD,2016-08-16 00:50,104.00,39.20,11.00,240.00,11.00,0.00,29.83,M,10.00,M,CLR,M,M,M,M,M,M,M,M,M,M,M,M,M,M,98.56,KSBD 160050Z 24011KT 10SM SKC 40/04 A2983,M
SBD,2016-08-16 01:50,100.40,46.40,16.15,270.00,8.00,0.00,29.84,M,10.00,M,CLR,M,M,M,M,M,M,M,M,M,M,M,M,M,M,96.63,KSBD 160150Z 27008KT 10SM SKC 38/08 A2984,M
SBD,2016-08-16 02:50,91.40,35.60,14.02,260.00,7.00,0.00,29.87,M,10.00,M,CLR,M,M,M,M,M,M,M,M,M,M,M,M,M,M,87.17,KSBD 160250Z 26007KT 10SM SKC 33/02 A2987,M
SBD,2016-08-16 03:50,87.80,33.80,14.61,0.00,0.00,0.00,29.89,M,7.00,M,CLR,M,M,M,M,M,M,M,M,M,M,M,M,M,M,84.10,KSBD 160350Z 00000KT 7SM SKC 31/01 A2989 RMK LAST,M
SBD,2016-08-16 04:14,88.16,36.14,15.86,260.00,4.00,0.00,29.90,M,10.00,M,CLR,M,M,M,M,M,M,M,M,M,M,M,M,M,M,84.43,KSBD 160414Z AUTO 26004KT 10SM CLR 31/02 A2990 RMK AO2 T03120023,M
SBD,2016-08-16 04:34,86.54,36.68,17.05,250.00,5.00,0.00,29.90,M,10.00,M,CLR,M,M,M,M,M,M,M,M,M,M,M,M,M,M,83.13,KSBD 160434Z AUTO 25005KT 10SM CLR 30/03 A2990 RMK AO2 T03030026,M
SBD,2016-08-16 04:54,86.90,37.22,17.22,0.00,0.00,0.00,29.91,M,10.00,M,CLR,M,M,M,M,M,M,M,M,M,M,M,M,M,M,83.43,KSBD 160454Z AUTO 00000KT 10SM CLR 31/03 A2991 RMK AO2 T03050029,M
SBD,2016-08-16 05:14,86.18,35.96,16.77,0.00,0.00,0.00,29.91,M,10.00,M,CLR,M,M,M,M,M,M,M,M,M,M,M,M,M,M,82.84,KSBD 160514Z AUTO 00000KT 10SM CLR 30/02 A2991 RMK AO2 T03010022,M
SBD,2016-08-16 05:34,84.92,35.96,17.46,320.00,3.00,0.00,29.90,M,10.00,M,CLR,M,M,M,M,M,M,M,M,M,M,M,M,M,M,81.87,KSBD 160534Z AUTO 32003KT 10SM CLR 29/02 A2990 RMK AO2 T02940022,M
SBD,2016-08-16 05:54,83.84,35.24,17.57,0.00,0.00,0.00,29.90,M,10.00,M,CLR,M,M,M,M,M,M,M,M,M,M,M,M,M,M,81.07,KSBD 160554Z AUTO 00000KT 10SM CLR 29/02 A2990 RMK AO2 T02880018,M
SBD,2016-08-16 06:14,82.76,38.12,20.38,0.00,0.00,0.00,29.90,M,10.00,M,CLR,M,M,M,M,M,M,M,M,M,M,M,M,M,M,80.40,KSBD 160614Z AUTO 00000KT 10SM CLR 28/03 A2990 RMK AO2 T02820034,M
SBD,2016-08-16 06:34,79.16,38.48,23.24,0.00,0.00,0.00,29.90,M,10.00,M,CLR,M,M,M,M,M,M,M,M,M,M,M,M,M,M,77.87,KSBD 160634Z AUTO 00000KT 10SM CLR 26/04 A2990 RMK AO2 T02620036,M
SBD,2016-08-16 06:54,79.52,40.10,24.47,0.00,0.00,0.00,29.89,M,10.00,M,CLR,M,M,M,M,M,M,M,M,M,M,M,M,M,M,78.32,KSBD 160654Z AUTO 00000KT 10SM CLR 26/05 A2989 RMK AO2 T02640045,M
SBD,2016-08-16 07:14,77.36,42.08,28.37,0.00,0.00,0.00,29.89,M,10.00,M,CLR,M,M,M,M,M,M,M,M,M,M,M,M,M,M,76.13,KSBD 160714Z AUTO 00000KT 10SM CLR 25/06 A2989 RMK AO2 T02520056,M
SBD,2016-08-16 07:34,76.28,41.18,28.40,70.00,3.00,0.00,29.89,M,10.00,M,CLR,M,M,M,M,M,M,M,M,M,M,M,M,M,M,74.94,KSBD 160734Z AUTO 07003KT 10SM CLR 25/05 A2989 RMK AO2 T02460051,M
SBD,2016-08-16 07:54,77.90,41.36,27.10,0.00,0.00,0.00,29.89,M,10.00,M,CLR,M,M,M,M,M,M,M,M,M,M,M,M,M,M,76.66,KSBD 160754Z AUTO 00000KT 10SM CLR 26/05 A2989 RMK AO2 T02550052,M
SBD,2016-08-16 08:14,74.30,41.00,30.13,0.00,0.00,0.00,29.89,M,10.00,M,CLR,M,M,M,M,M,M,M,M,M,M,M,M,M,M,72.85,KSBD 160814Z AUTO 00000KT 10SM CLR 24/05 A2989 RMK AO2 T02350050,M
SBD,2016-08-16 08:34,74.66,40.46,29.15,0.00,0.00,0.00,29.89,M,10.00,M,CLR,M,M,M,M,M,M,M,M,M,M,M,M,M,M,73.20,KSBD 160834Z AUTO 00000KT 10SM CLR 24/05 A2989 RMK AO2 T02370047,M
SBD,2016-08-16 08:54,73.76,40.64,30.25,0.00,0.00,0.00,29.89,M,10.00,M,CLR,M,M,M,M,M,M,M,M,M,M,M,M,M,M,72.26,KSBD 160854Z AUTO 00000KT 10SM CLR 23/05 A2989 RMK AO2 T02320048,M
SBD,2016-08-16 09:14,73.22,41.00,31.24,0.00,0.00,0.00,29.89,M,10.00,M,CLR,M,M,M,M,M,M,M,M,M,M,M,M,M,M,71.71,KSBD 160914Z AUTO 00000KT 10SM CLR 23/05 A2989 RMK AO2 T02290050,M
SBD,2016-08-16 09:34,71.78,39.74,31.23,0.00,0.00,0.00,29.89,M,10.00,M,CLR,M,M,M,M,M,M,M,M,M,M,M,M,M,M,70.13,KSBD 160934Z AUTO 00000KT 10SM CLR 22/04 A2989 RMK AO2 T02210043,M
SBD,2016-08-16 09:54,72.68,40.28,30.94,0.00,0.00,0.00,29.89,M,10.00,M,CLR,M,M,M,M,M,M,M,M,M,M,M,M,M,M,71.10,KSBD 160954Z AUTO 00000KT 10SM CLR 23/05 A2989 RMK AO2 T02260046,M
SBD,2016-08-16 10:14,71.42,39.92,31.84,0.00,0.00,0.00,29.89,M,10.00,M,CLR,M,M,M,M,M,M,M,M,M,M,M,M,M,M,69.76,KSBD 161014Z AUTO 00000KT 10SM CLR 22/04 A2989 RMK AO2 T02190044,M
SBD,2016-08-16 10:34,69.44,36.86,30.22,0.00,0.00,0.00,29.89,M,10.00,M,CLR,M,M,M,M,M,M,M,M,M,M,M,M,M,M,69.44,KSBD 161034Z AUTO 00000KT 10SM CLR 21/03 A2989 RMK AO2 T02080027,M
SBD,2016-08-16 10:54,70.16,34.70,27.06,50.00,3.00,0.00,29.88,M,10.00,M,CLR,M,M,M,M,M,M,M,M,M,M,M,M,M,M,68.15,KSBD 161054Z AUTO 05003KT 10SM CLR 21/02 A2988 RMK AO2 T02120015,M
SBD,2016-08-16 11:14,69.26,33.98,27.12,70.00,4.00,0.00,29.88,M,10.00,M,CLR,M,M,M,M,M,M,M,M,M,M,M,M,M,M,69.26,KSBD 161114Z AUTO 07004KT 10SM CLR 21/01 A2988 RMK AO2 T02070011,M
SBD,2016-08-16 11:34,70.52,32.18,24.17,0.00,0.00,0.00,29.88,M,10.00,M,CLR,M,M,M,M,M,M,M,M,M,M,M,M,M,M,68.41,KSBD 161134Z AUTO 00000KT 10SM CLR 21/00 A2988 RMK AO2 T02140001,M
SBD,2016-08-16 11:54,66.92,32.00,27.15,0.00,0.00,0.00,29.88,M,10.00,M,CLR,M,M,M,M,M,M,M,M,M,M,M,M,M,M,66.92,KSBD 161154Z AUTO 00000KT 10SM CLR 19/00 A2988 RMK AO2 T01940000,M
SBD,2016-08-16 12:14,69.44,28.94,21.98,80.00,3.00,0.00,29.88,M,10.00,M,CLR,M,M,M,M,M,M,M,M,M,M,M,M,M,M,69.44,KSBD 161214Z AUTO 08003KT 10SM CLR 21/M02 A2988 RMK AO2 T02081017,M
SBD,2016-08-16 12:34,68.36,30.20,24.02,0.00,0.00,0.00,29.89,M,10.00,M,CLR,M,M,M,M,M,M,M,M,M,M,M,M,M,M,68.36,KSBD 161234Z AUTO 00000KT 10SM CLR 20/M01 A2989 RMK AO2 T02021010,M
SBD,2016-08-16 12:54,67.64,31.64,26.10,0.00,0.00,0.00,29.89,M,10.00,M,CLR,M,M,M,M,M,M,M,M,M,M,M,M,M,M,67.64,KSBD 161254Z AUTO 00000KT 10SM CLR 20/00 A2989 RMK AO2 T01981002,M
SBD,2016-08-16 13:14,67.28,32.00,26.81,0.00,0.00,0.00,29.90,M,10.00,M,CLR,M,M,M,M,M,M,M,M,M,M,M,M,M,M,67.28,KSBD 161314Z AUTO 00000KT 10SM CLR 20/00 A2990 RMK AO2 T01960000,M
SBD,2016-08-16 13:34,67.46,30.74,25.32,0.00,0.00,0.00,29.91,M,10.00,M,CLR,M,M,M,M,M,M,M,M,M,M,M,M,M,M,67.46,KSBD 161334Z AUTO 00000KT 10SM CLR 20/M01 A2991 RMK AO2 T01971007,M
SBD,2016-08-16 14:00,68.00,32.00,26.15,0.00,0.00,0.00,29.91,M,7.00,M,CLR,M,M,M,M,M,M,M,M,M,M,M,M,M,M,68.00,KSBD 161400Z 00000KT 7SM SKC 20/00 A2991,M
SBD,2016-08-16 15:45,82.40,32.00,16.17,0.00,0.00,0.00,29.93,M,7.00,M,CLR,M,M,M,M,M,M,M,M,M,M,M,M,M,M,80.00,KSBD 161545Z 00000KT 7SM SKC 28/00 A2993,M
SBD,2016-08-16 16:46,87.80,39.20,18.09,0.00,0.00,0.00,29.93,M,7.00,M,CLR,M,M,M,M,M,M,M,M,M,M,M,M,M,M,84.22,KSBD 161646Z 00000KT 7SM SKC 31/04 A2993,M
SBD,2016-08-16 17:47,96.80,26.60,8.24,0.00,0.00,0.00,29.92,M,10.00,M,CLR,M,M,M,M,M,M,M,M,M,M,M,M,M,M,90.57,KSBD 161747Z 00000KT 10SM SKC 36/M03 A2992,M
SBD,2016-08-16 18:46,100.40,23.00,6.36,0.00,0.00,0.00,29.90,M,7.00,M,CLR,M,M,M,M,M,M,M,M,M,M,M,M,M,M,93.25,KSBD 161846Z 00000KT 07SM SKC 38/M05 A2990,M
SBD,2016-08-16 19:45,102.20,41.00,12.44,270.00,6.00,0.00,29.88,M,7.00,M,CLR,M,M,M,M,M,M,M,M,M,M,M,M,M,M,97.39,KSBD 161945Z 27006KT 7SM SKC 39/05 A2988,M
SBD,2016-08-16 20:50,104.00,17.60,4.53,230.00,5.00,0.00,29.87,M,7.00,M,CLR,M,M,M,M,M,M,M,M,M,M,M,M,M,M,95.83,KSBD 162050Z 23005KT 7SM SKC 40/M08 A2987,M
SBD,2016-08-16 21:50,104.00,24.80,6.15,210.00,7.00,0.00,29.84,M,7.00,M,CLR,M,M,M,M,M,M,M,M,M,M,M,M,M,M,96.42,KSBD 162150Z 21007KT 07SM SKC 40/M04 A2984,M
SBD,2016-08-16 22:46,104.00,26.60,6.63,190.00,7.00,0.00,29.83,M,7.00,M,CLR,M,M,M,M,M,M,M,M,M,M,M,M,M,M,96.60,KSBD 162246Z 19007KT 07SM SKC 40/M03 A2983,M
SBD,2016-08-16 23:50,104.00,21.20,5.29,240.00,9.00,0.00,29.82,M,7.00,M,CLR,M,M,M,M,M,M,M,M,M,M,M,M,M,M,96.09,KSBD 162350Z 24009KT 07SM SKC 40/M06 A2982,M
SBD,2016-08-17 00:50,102.20,37.40,10.81,220.00,7.00,0.00,29.82,M,7.00,M,CLR,M,M,M,M,M,M,M,M,M,M,M,M,M,M,96.63,KSBD 170050Z 22007KT 07SM SKC 39/03 A2982,M
SBD,2016-08-17 01:50,98.60,39.20,12.94,230.00,8.00,0.00,29.82,M,7.00,M,CLR,M,M,M,M,M,M,M,M,M,M,M,M,M,M,93.89,KSBD 170150Z 23008KT 7SM SKC 37/04 A2982,M
SBD,2016-08-17 02:50,91.40,39.20,16.15,240.00,7.00,0.00,29.84,M,7.00,M,CLR,M,M,M,M,M,M,M,M,M,M,M,M,M,M,87.30,KSBD 170250Z 24007KT 7SM SKC 33/04 A2984,M
SBD,2016-08-17 03:50,87.80,42.80,20.79,0.00,0.00,0.00,29.87,M,7.00,M,CLR,M,M,M,M,M,M,M,M,M,M,M,M,M,M,84.40,KSBD 170350Z 00000KT 7SM SKC 31/06 A2987 RMK LAST,M
SBD,2016-08-17 04:14,87.26,42.44,20.86,260.00,3.00,0.00,29.88,M,10.00,M,CLR,M,M,M,M,M,M,M,M,M,M,M,M,M,M,83.93,KSBD 170414Z AUTO 26003KT 10SM CLR 31/06 A2988 RMK AO2 T03070058,M
SBD,2016-08-17 04:34,86.18,43.70,22.66,240.00,3.00,0.00,29.88,M,10.00,M,CLR,M,M,M,M,M,M,M,M,M,M,M,M,M,M,83.15,KSBD 170434Z AUTO 24003KT 10SM CLR 30/07 A2988 RMK AO2 T03010065,M
SBD,2016-08-17 04:54,84.38,45.14,25.36,250.00,4.00,0.00,29.88,M,10.00,M,CLR,M,M,M,M,M,M,M,M,M,M,M,M,M,M,81.90,KSBD 170454Z AUTO 25004KT 10SM CLR 29/07 A2988 RMK AO2 T02910073,M
SBD,2016-08-17 05:14,82.40,45.86,27.78,260.00,4.00,0.00,29.88,M,10.00,M,CLR,M,M,M,M,M,M,M,M,M,M,M,M,M,M,80.60,KSBD 170514Z AUTO 26004KT 10SM CLR 28/08 A2988 RMK AO2 T02800077,M
SBD,2016-08-17 05:34,80.96,47.30,30.74,260.00,4.00,0.00,29.89,M,10.00,M,CLR,M,M,M,M,M,M,M,M,M,M,M,M,M,M,79.84,KSBD 170534Z AUTO 26004KT 10SM CLR 27/09 A2989 RMK AO2 T02720085,M
SBD,2016-08-17 05:54,80.24,47.84,32.12,240.00,4.00,0.00,29.89,M,10.00,M,CLR,M,M,M,M,M,M,M,M,M,M,M,M,M,M,80.24,KSBD 170554Z AUTO 24004KT 10SM CLR 27/09 A2989 RMK AO2 T02680088,M
SBD,2016-08-17 06:14,78.80,47.66,33.45,240.00,3.00,0.00,29.89,M,10.00,M,CLR,M,M,M,M,M,M,M,M,M,M,M,M,M,M,78.80,KSBD 170614Z AUTO 24003KT 10SM CLR 26/09 A2989 RMK AO2 T02600087,M
SBD,2016-08-17 06:34,79.34,47.48,32.64,260.00,3.00,0.00,29.90,M,10.00,M,CLR,M,M,M,M,M,M,M,M,M,M,M,M,M,M,79.34,KSBD 170634Z AUTO 26003KT 10SM CLR 26/09 A2990 RMK AO2 T02630086,M
SBD,2016-08-17 06:54,78.26,46.58,32.69,280.00,3.00,0.00,29.90,M,10.00,M,CLR,M,M,M,M,M,M,M,M,M,M,M,M,M,M,78.26,KSBD 170654Z AUTO 28003KT 10SM CLR 26/08 A2990 RMK AO2 T02570081,M
SBD,2016-08-17 07:14,77.54,46.58,33.48,0.00,0.00,0.00,29.90,M,10.00,M,CLR,M,M,M,M,M,M,M,M,M,M,M,M,M,M,77.54,KSBD 170714Z AUTO 00000KT 10SM CLR 25/08 A2990 RMK AO2 T02530081,M
SBD,2016-08-17 07:34,77.72,46.40,33.05,270.00,3.00,0.00,29.90,M,10.00,M,CLR,M,M,M,M,M,M,M,M,M,M,M,M,M,M,77.72,KSBD 170734Z AUTO 27003KT 10SM CLR 25/08 A2990 RMK AO2 T02540080,M
SBD,2016-08-17 07:54,76.64,44.06,31.34,0.00,0.00,0.00,29.90,M,10.00,M,CLR,M,M,M,M,M,M,M,M,M,M,M,M,M,M,75.48,KSBD 170754Z AUTO 00000KT 10SM CLR 25/07 A2990 RMK AO2 T02480067,M
SBD,2016-08-17 08:14,75.02,42.26,30.88,0.00,0.00,0.00,29.89,M,10.00,M,CLR,M,M,M,M,M,M,M,M,M,M,M,M,M,M,73.67,KSBD 170814Z AUTO 00000KT 10SM CLR 24/06 A2989 RMK AO2 T02390057,M
SBD,2016-08-17 08:34,72.50,43.88,35.76,0.00,0.00,0.00,29.89,M,10.00,M,CLR,M,M,M,M,M,M,M,M,M,M,M,M,M,M,71.13,KSBD 170834Z AUTO 00000KT 10SM CLR 23/07 A2989 RMK AO2 T02250066,M
SBD,2016-08-17 08:54,71.60,42.26,34.65,90.00,3.00,0.00,29.89,M,10.00,M,CLR,M,M,M,M,M,M,M,M,M,M,M,M,M,M,70.09,KSBD 170854Z AUTO 09003KT 10SM CLR 22/06 A2989 RMK AO2 T02200057,M
SBD,2016-08-17 09:14,71.24,43.52,36.81,0.00,0.00,0.00,29.88,M,10.00,M,CLR,M,M,M,M,M,M,M,M,M,M,M,M,M,M,69.79,KSBD 170914Z AUTO 00000KT 10SM CLR 22/06 A2988 RMK AO2 T02180064,M
SBD,2016-08-17 09:34,69.62,44.96,41.10,0.00,0.00,0.00,29.88,M,10.00,M,CLR,M,M,M,M,M,M,M,M,M,M,M,M,M,M,69.62,KSBD 170934Z AUTO 00000KT 10SM CLR 21/07 A2988 RMK AO2 T02090072,M
SBD,2016-08-17 09:54,69.80,45.32,41.41,0.00,0.00,0.00,29.88,M,10.00,M,CLR,M,M,M,M,M,M,M,M,M,M,M,M,M,M,69.80,KSBD 170954Z AUTO 00000KT 10SM CLR 21/07 A2988 RMK AO2 T02100074,M
SBD,2016-08-17 10:14,70.88,45.50,40.18,0.00,0.00,0.00,29.88,M,10.00,M,CLR,M,M,M,M,M,M,M,M,M,M,M,M,M,M,69.56,KSBD 171014Z AUTO 00000KT 10SM CLR 22/08 A2988 RMK AO2 T02160075,M
SBD,2016-08-17 10:34,68.72,42.62,38.75,0.00,0.00,0.00,29.88,M,10.00,M,CLR,M,M,M,M,M,M,M,M,M,M,M,M,M,M,68.72,KSBD 171034Z AUTO 00000KT 10SM CLR 20/06 A2988 RMK AO2 T02040059,M
SBD,2016-08-17 10:54,68.00,41.18,37.58,60.00,3.00,0.00,29.88,M,10.00,M,CLR,M,M,M,M,M,M,M,M,M,M,M,M,M,M,68.00,KSBD 171054Z AUTO 06003KT 10SM CLR 20/05 A2988 RMK AO2 T02000051,M
SBD,2016-08-17 11:14,69.08,39.92,34.48,90.00,3.00,0.00,29.88,M,10.00,M,CLR,M,M,M,M,M,M,M,M,M,M,M,M,M,M,69.08,KSBD 171114Z AUTO 09003KT 10SM CLR 21/04 A2988 RMK AO2 T02060044,M
SBD,2016-08-17 11:34,69.08,42.62,38.28,0.00,0.00,0.00,29.88,M,10.00,M,CLR,M,M,M,M,M,M,M,M,M,M,M,M,M,M,69.08,KSBD 171134Z AUTO 00000KT 10SM CLR 21/06 A2988 RMK AO2 T02060059,M
SBD,2016-08-17 11:54,69.98,41.18,35.11,0.00,0.00,0.00,29.88,M,10.00,M,CLR,M,M,M,M,M,M,M,M,M,M,M,M,M,M,69.98,KSBD 171154Z AUTO 00000KT 10SM CLR 21/05 A2988 RMK AO2 T02110051,M
SBD,2016-08-17 12:14,68.72,42.80,39.02,0.00,0.00,0.00,29.88,M,10.00,M,CLR,M,M,M,M,M,M,M,M,M,M,M,M,M,M,68.72,KSBD 171214Z AUTO 00000KT 10SM CLR 20/06 A2988 RMK AO2 T02040060,M
SBD,2016-08-17 12:34,68.00,41.90,38.64,0.00,0.00,0.00,29.88,M,10.00,M,CLR,M,M,M,M,M,M,M,M,M,M,M,M,M,M,68.00,KSBD 171234Z AUTO 00000KT 10SM CLR 20/06 A2988 RMK AO2 T02000055,M
SBD,2016-08-17 12:54,66.20,39.20,37.03,70.00,3.00,0.00,29.88,M,10.00,M,CLR,M,M,M,M,M,M,M,M,M,M,M,M,M,M,66.20,KSBD 171254Z AUTO 07003KT 10SM CLR 19/04 A2988 RMK AO2 T01900040,M
SBD,2016-08-17 13:14,65.48,38.66,37.18,0.00,0.00,0.00,29.89,M,10.00,M,CLR,M,M,M,M,M,M,M,M,M,M,M,M,M,M,65.48,KSBD 171314Z AUTO 00000KT 10SM CLR 19/04 A2989 RMK AO2 T01860037,M
SBD,2016-08-17 13:34,67.46,37.58,33.27,80.00,3.00,0.00,29.89,M,10.00,M,CLR,M,M,M,M,M,M,M,M,M,M,M,M,M,M,67.46,KSBD 171334Z AUTO 08003KT 10SM CLR 20/03 A2989 RMK AO2 T01970031,M
SBD,2016-08-17 13:54,66.20,35.42,31.91,90.00,3.00,0.00,29.89,M,10.00,M,CLR,M,M,M,M,M,M,M,M,M,M,M,M,M,M,66.20,KSBD 171354Z AUTO 09003KT 10SM CLR 19/02 A2989 RMK AO2 T01900019,M
SBD,2016-08-17 14:00,66.20,35.60,32.14,0.00,0.00,0.00,29.90,M,7.00,M,CLR,M,M,M,M,M,M,M,M,M,M,M,M,M,M,66.20,KSBD 171400Z 00000KT 7SM SKC 19/02 A2990,M
SBD,2016-08-17 14:45,73.40,41.00,31.05,0.00,0.00,0.00,29.91,M,7.00,M,CLR,M,M,M,M,M,M,M,M,M,M,M,M,M,M,71.90,KSBD 171445Z 00000KT 7SM SKC 23/05 A2991,M
SBD,2016-08-17 15:45,80.60,37.40,21.25,0.00,0.00,0.00,29.90,M,7.00,M,CLR,M,M,M,M,M,M,M,M,M,M,M,M,M,M,79.02,KSBD 171545Z 00000KT 7SM SKC 27/03 A2990,M
SBD,2016-08-17 17:50,95.00,30.20,10.09,0.00,0.00,0.00,29.88,M,7.00,M,CLR,M,M,M,M,M,M,M,M,M,M,M,M,M,M,89.48,KSBD 171750Z 00000KT 7SM SKC 35/M01 2988,M
SBD,2016-08-17 18:50,100.40,28.40,7.95,240.00,5.00,0.00,29.88,M,7.00,M,CLR,M,M,M,M,M,M,M,M,M,M,M,M,M,M,93.77,KSBD 171850Z 24005KT 7SM SKC 38/M02 A2988,M
SBD,2016-08-17 19:50,104.00,24.80,6.15,260.00,6.00,0.00,29.85,M,7.00,M,CLR,M,M,M,M,M,M,M,M,M,M,M,M,M,M,96.42,KSBD 171950Z 26006KT 7SM SKC 40/M04 A2985,M
SBD,2016-08-17 20:50,105.80,28.40,6.77,270.00,23.33,0.00,29.84,M,7.00,M,CLR,M,M,M,M,M,M,M,M,M,M,M,M,M,M,98.33,KSBD 172050Z 27012 7SM SKC 41/-02 A2984,M
SBD,2016-08-17 21:50,105.80,26.60,6.29,270.00,12.00,0.00,29.83,M,7.00,M,CLR,M,M,M,M,M,M,M,M,M,M,M,M,M,M,98.12,KSBD 172150Z 27012KT 7SM SKC 41/-03 A2983,M
SBD,2016-08-17 22:50,104.00,28.40,7.14,250.00,13.00,0.00,29.82,M,7.00,M,CLR,M,M,M,M,M,M,M,M,M,M,M,M,M,M,96.81,KSBD 172250Z 25013KT 7SM SKC 40/M02 A2982,M
SBD,2016-08-17 23:47,102.20,28.40,7.53,260.00,10.00,0.00,29.81,M,7.00,M,CLR,M,M,M,M,M,M,M,M,M,M,M,M,M,M,95.28,KSBD 172347Z 26010KT 7SM SKC 39/-02 A2981,M
SBD,2016-08-18 01:50,95.00,24.80,8.08,240.00,10.00,0.00,29.81,M,7.00,M,CLR,M,M,M,M,M,M,M,M,M,M,M,M,M,M,88.91,KSBD 180150Z 24010KT 7SM SKC 35/-04 A2981,M
SBD,2016-08-18 02:50,91.40,24.80,9.04,240.00,5.00,0.00,29.83,M,7.00,M,CLR,M,M,M,M,M,M,M,M,M,M,M,M,M,M,86.21,KSBD 180250Z 24005KT 7SM SKC 33/-04 A2983,M
SBD,2016-08-18 03:47,89.60,28.40,11.09,230.00,4.00,0.00,29.85,M,7.00,M,CLR,M,M,M,M,M,M,M,M,M,M,M,M,M,M,85.17,KSBD 180347Z 23004KT 7SM SKC 32/-02 A2985,M
SBD,2016-08-18 04:14,87.08,33.80,14.95,240.00,5.00,0.00,29.86,M,10.00,M,CLR,M,M,M,M,M,M,M,M,M,M,M,M,M,M,83.51,KSBD 180414Z AUTO 24005KT 10SM CLR 31/01 A2986 RMK AO2 T03060010,M
SBD,2016-08-18 04:34,86.18,37.22,17.62,0.00,0.00,0.00,29.87,M,10.00,M,CLR,M,M,M,M,M,M,M,M,M,M,M,M,M,M,82.86,KSBD 180434Z AUTO 00000KT 10SM CLR 30/03 A2987 RMK AO2 T03010029,M
SBD,2016-08-18 04:54,86.18,41.18,20.57,0.00,0.00,0.00,29.87,M,10.00,M,CLR,M,M,M,M,M,M,M,M,M,M,M,M,M,M,83.01,KSBD 180454Z AUTO 00000KT 10SM CLR 30/05 A2987 RMK AO2 T03010051,M
SBD,2016-08-18 05:14,84.56,45.14,25.21,260.00,3.00,0.00,29.87,M,10.00,M,CLR,M,M,M,M,M,M,M,M,M,M,M,M,M,M,82.03,KSBD 180514Z AUTO 26003KT 10SM CLR 29/07 A2987 RMK AO2 T02920073,M
SBD,2016-08-18 05:34,82.40,45.32,27.22,0.00,0.00,0.00,29.87,M,10.00,M,CLR,M,M,M,M,M,M,M,M,M,M,M,M,M,M,80.56,KSBD 180534Z AUTO 00000KT 10SM CLR 28/07 A2987 RMK AO2 T02800074,M
SBD,2016-08-18 05:54,83.30,38.48,20.31,0.00,0.00,0.00,29.87,M,10.00,M,CLR,M,M,M,M,M,M,M,M,M,M,M,M,M,M,80.78,KSBD 180554Z AUTO 00000KT 10SM CLR 29/04 A2987 RMK AO2 T02850036,M
SBD,2016-08-18 06:14,80.06,33.08,18.22,0.00,0.00,0.00,29.87,M,10.00,M,CLR,M,M,M,M,M,M,M,M,M,M,M,M,M,M,78.62,KSBD 180614Z AUTO 00000KT 10SM CLR 27/01 A2987 RMK AO2 T02670006,M
SBD,2016-08-18 06:34,79.70,32.00,17.65,0.00,0.00,0.00,29.87,M,10.00,M,CLR,M,M,M,M,M,M,M,M,M,M,M,M,M,M,78.20,KSBD 180634Z AUTO 00000KT 10SM CLR 27/00 A2987 RMK AO2 T02650000,M
SBD,2016-08-18 06:54,79.16,32.00,17.97,0.00,0.00,0.00,29.88,M,10.00,M,CLR,M,M,M,M,M,M,M,M,M,M,M,M,M,M,77.62,KSBD 180654Z AUTO 00000KT 10SM CLR 26/00 A2988 RMK AO2 T02620000,M
SBD,2016-08-18 07:14,76.82,30.20,18.05,0.00,0.00,0.00,29.88,M,10.00,M,CLR,M,M,M,M,M,M,M,M,M,M,M,M,M,M,75.05,KSBD 180714Z AUTO 00000KT 10SM CLR 25/M01 A2988 RMK AO2 T02491010,M
SBD,2016-08-18 07:34,77.72,31.46,18.44,0.00,0.00,0.00,29.88,M,10.00,M,CLR,M,M,M,M,M,M,M,M,M,M,M,M,M,M,76.06,KSBD 180734Z AUTO 00000KT 10SM CLR 25/00 A2988 RMK AO2 T02541003,M
SBD,2016-08-18 07:54,76.64,32.54,19.96,0.00,0.00,0.00,29.88,M,10.00,M,CLR,M,M,M,M,M,M,M,M,M,M,M,M,M,M,74.94,KSBD 180754Z AUTO 00000KT 10SM CLR 25/00 A2988 RMK AO2 T02480003,M
SBD,2016-08-18 08:14,76.82,32.00,19.41,0.00,0.00,0.00,29.89,M,10.00,M,CLR,M,M,M,M,M,M,M,M,M,M,M,M,M,M,75.11,KSBD 180814Z AUTO 00000KT 10SM CLR 25/00 A2989 RMK AO2 T02490000,M
SBD,2016-08-18 08:34,75.56,32.00,20.24,0.00,0.00,0.00,29.88,M,10.00,M,CLR,M,M,M,M,M,M,M,M,M,M,M,M,M,M,73.77,KSBD 180834Z AUTO 00000KT 10SM CLR 24/00 A2988 RMK AO2 T02420000,M
SBD,2016-08-18 08:54,74.48,32.54,21.45,0.00,0.00,0.00,29.88,M,10.00,M,CLR,M,M,M,M,M,M,M,M,M,M,M,M,M,M,72.64,KSBD 180854Z AUTO 00000KT 10SM CLR 24/00 A2988 RMK AO2 T02360003,M
SBD,2016-08-18 09:14,75.02,33.26,21.68,0.00,0.00,0.00,29.88,M,10.00,M,CLR,M,M,M,M,M,M,M,M,M,M,M,M,M,M,73.24,KSBD 180914Z AUTO 00000KT 10SM CLR 24/01 A2988 RMK AO2 T02390007,M
SBD,2016-08-18 09:34,73.94,31.82,21.22,0.00,0.00,0.00,29.88,M,10.00,M,CLR,M,M,M,M,M,M,M,M,M,M,M,M,M,M,72.03,KSBD 180934Z AUTO 00000KT 10SM CLR 23/00 A2988 RMK AO2 T02331001,M
SBD,2016-08-18 09:54,72.86,32.00,22.16,0.00,0.00,0.00,29.88,M,10.00,M,CLR,M,M,M,M,M,M,M,M,M,M,M,M,M,M,70.89,KSBD 180954Z AUTO 00000KT 10SM CLR 23/00 A2988 RMK AO2 T02270000,M
SBD,2016-08-18 10:14,72.86,29.66,20.16,0.00,0.00,0.00,29.88,M,10.00,M,CLR,M,M,M,M,M,M,M,M,M,M,M,M,M,M,70.79,KSBD 181014Z AUTO 00000KT 10SM CLR 23/M01 A2988 RMK AO2 T02271013,M
SBD,2016-08-18 10:34,74.12,32.00,21.24,0.00,0.00,0.00,29.89,M,10.00,M,CLR,M,M,M,M,M,M,M,M,M,M,M,M,M,M,72.23,KSBD 181034Z AUTO 00000KT 10SM CLR 23/00 A2989 RMK AO2 T02340000,M
SBD,2016-08-18 10:54,72.86,34.34,24.34,0.00,0.00,0.00,29.89,M,10.00,M,CLR,M,M,M,M,M,M,M,M,M,M,M,M,M,M,70.99,KSBD 181054Z AUTO 00000KT 10SM CLR 23/01 A2989 RMK AO2 T02270013,M
SBD,2016-08-18 11:14,70.88,32.72,24.40,0.00,0.00,0.00,29.89,M,10.00,M,CLR,M,M,M,M,M,M,M,M,M,M,M,M,M,M,68.81,KSBD 181114Z AUTO 00000KT 10SM CLR 22/00 A2989 RMK AO2 T02160004,M
SBD,2016-08-18 11:34,71.96,34.70,25.46,0.00,0.00,0.00,29.89,M,10.00,M,CLR,M,M,M,M,M,M,M,M,M,M,M,M,M,M,70.05,KSBD 181134Z AUTO 00000KT 10SM CLR 22/02 A2989 RMK AO2 T02220015,M
SBD,2016-08-18 11:54,70.16,34.88,27.26,0.00,0.00,0.00,29.89,M,10.00,M,CLR,M,M,M,M,M,M,M,M,M,M,M,M,M,M,68.16,KSBD 181154Z AUTO 00000KT 10SM CLR 21/02 A2989 RMK AO2 T02120016,M
SBD,2016-08-18 12:14,69.62,33.44,26.21,0.00,0.00,0.00,29.89,M,10.00,M,CLR,M,M,M,M,M,M,M,M,M,M,M,M,M,M,69.62,KSBD 181214Z AUTO 00000KT 10SM CLR 21/01 A2989 RMK AO2 T02090008,M
SBD,2016-08-18 12:34,69.26,33.80,26.92,0.00,0.00,0.00,29.89,M,10.00,M,CLR,M,M,M,M,M,M,M,M,M,M,M,M,M,M,69.26,KSBD 181234Z AUTO 00000KT 10SM CLR 21/01 A2989 RMK AO2 T02070010,M
SBD,2016-08-18 12:54,68.18,34.88,29.17,0.00,0.00,0.00,29.90,M,10.00,M,CLR,M,M,M,M,M,M,M,M,M,M,M,M,M,M,68.18,KSBD 181254Z AUTO 00000KT 10SM CLR 20/02 A2990 RMK AO2 T02010016,M
SBD,2016-08-18 13:14,67.28,35.78,31.18,0.00,0.00,0.00,29.90,M,10.00,M,CLR,M,M,M,M,M,M,M,M,M,M,M,M,M,M,67.28,KSBD 181314Z AUTO 00000KT 10SM CLR 20/02 A2990 RMK AO2 T01960021,M
SBD,2016-08-18 13:34,65.48,34.70,31.80,50.00,3.00,0.00,29.91,M,10.00,M,CLR,M,M,M,M,M,M,M,M,M,M,M,M,M,M,65.48,KSBD 181334Z AUTO 05003KT 10SM CLR 19/02 A2991 RMK AO2 T01860015,M
SBD,2016-08-18 13:54,68.72,35.24,29.05,0.00,0.00,0.00,29.91,M,10.00,M,CLR,M,M,M,M,M,M,M,M,M,M,M,M,M,M,68.72,KSBD 181354Z AUTO 00000KT 10SM CLR 20/02 A2991 RMK AO2 T02040018,M
SBD,2016-08-18 14:50,73.40,35.60,25.13,0.00,0.00,0.00,29.92,M,7.00,M,FEW,M,M,M,12000.00,M,M,M,M,M,M,M,M,M,M,71.62,KSBD 181450Z 00000KT 7SM FEW120 23/02 A2992,M
SBD,2016-08-18 15:50,80.60,39.20,22.81,0.00,0.00,0.00,29.92,M,7.00,M,FEW,M,M,M,12000.00,M,M,M,M,M,M,M,M,M,M,79.10,KSBD 181550Z 00000KT 7SM FEW120 27/04 A2992,M
SBD,2016-08-18 16:50,86.00,35.60,16.63,0.00,0.00,0.00,29.92,M,7.00,M,FEW,M,M,M,12000.00,M,M,M,M,M,M,M,M,M,M,82.69,KSBD 181650Z 00000KT 7SM FEW120 30/02 A2992,M
SBD,2016-08-18 17:50,93.20,32.00,11.48,260.00,3.00,0.00,29.91,M,7.00,M,FEW,M,M,M,12000.00,M,M,M,M,M,M,M,M,M,M,88.31,KSBD 181750Z 26003KT 7SM FEW120 34/00 A2991,M
SBD,2016-08-18 18:50,98.60,28.40,8.40,230.00,5.00,0.00,29.90,M,7.00,M,FEW,M,M,M,12000.00,M,M,M,M,M,M,M,M,M,M,92.25,KSBD 181850Z 23005KT 7SM FEW120 37/-02 A2990,M
SBD,2016-08-18 19:50,102.20,28.40,7.53,210.00,5.00,0.00,29.88,M,7.00,M,FEW,M,M,M,12000.00,M,M,M,M,M,M,M,M,M,M,95.28,KSBD 181950Z 21005KT 7SM FEW120 39/M02 A2988,M
SBD,2016-08-18 20:50,104.00,30.20,7.68,290.00,8.00,0.00,29.86,M,7.00,M,FEW,M,M,M,12000.00,M,M,M,M,M,M,M,M,M,M,97.03,KSBD 182050Z 29008KT 7SM FEW120 40/M01 A2986,M
SBD,2016-08-18 21:50,104.00,32.00,8.27,220.00,5.00,0.00,29.82,M,7.00,M,SCT,M,M,M,12000.00,M,M,M,M,M,M,M,M,M,M,97.28,KSBD 182150Z 22005KT 7SM SCT120 40/00 A2982,M
SBD,2016-08-18 22:50,104.00,35.60,9.54,250.00,12.00,0.00,29.81,M,7.00,M,SCT,M,M,M,12000.00,M,M,M,M,M,M,M,M,M,M,97.85,KSBD 182250Z 25012KT 7SM SCT120 40/02 A2981,M
SBD,2016-08-18 23:47,102.20,39.20,11.60,250.00,14.00,0.00,29.80,M,7.00,M,FEW,M,M,M,12000.00,M,M,M,M,M,M,M,M,M,M,96.99,KSBD 182347Z 25014KT 7SM FEW120 39/04 A2980,M
SBD,2016-08-19 00:50,98.60,37.40,12.05,260.00,12.00,0.00,29.81,M,7.00,M,FEW,M,M,M,12000.00,M,M,M,M,M,M,M,M,M,M,93.54,KSBD 190050Z 26012KT 7SM FEW120 37/03 A2981,M
SBD,2016-08-19 01:50,93.20,32.00,11.48,250.00,10.00,0.00,29.82,M,7.00,M,CLR,M,M,M,M,M,M,M,M,M,M,M,M,M,M,88.31,KSBD 190150Z 25010KT 7SM SKC 34/00 A2982,M
SBD,2016-08-19 02:47,89.60,32.00,12.84,230.00,6.00,0.00,29.85,M,7.00,M,CLR,M,M,M,M,M,M,M,M,M,M,M,M,M,M,85.54,KSBD 190247Z 23006KT 7SM SKC 32/00 A2985,M
SBD,2016-08-19 03:50,84.20,32.00,15.25,230.00,5.00,0.00,29.89,M,7.00,M,CLR,M,M,M,M,M,M,M,M,M,M,M,M,M,M,81.28,KSBD 190350Z 23005KT 7SM SKC 29/00 A2989,M
SBD,2016-08-19 04:14,83.30,37.04,19.19,270.00,3.00,0.00,29.89,M,10.00,M,CLR,M,M,M,M,M,M,M,M,M,M,M,M,M,M,80.73,KSBD 190414Z AUTO 27003KT 10SM CLR 29/03 A2989 RMK AO2 T02850028,M
SBD,2016-08-19 04:34,81.50,43.52,26.17,260.00,4.00,0.00,29.90,M,10.00,M,CLR,M,M,M,M,M,M,M,M,M,M,M,M,M,M,79.87,KSBD 190434Z AUTO 26004KT 10SM CLR 28/06 A2990 RMK AO2 T02750064,M
SBD,2016-08-19 04:54,80.60,44.60,28.08,260.00,4.00,0.00,29.91,M,10.00,M,CLR,M,M,M,M,M,M,M,M,M,M,M,M,M,M,79.42,KSBD 190454Z AUTO 26004KT 10SM CLR 27/07 A2991 RMK AO2 T02700070,M
SBD,2016-08-19 05:14,80.60,46.76,30.48,240.00,5.00,0.00,29.91,M,10.00,M,CLR,M,M,M,M,M,M,M,M,M,M,M,M,M,M,79.59,KSBD 190514Z AUTO 24005KT 10SM CLR 27/08 A2991 RMK AO2 T02700082,M
SBD,2016-08-19 05:34,79.70,49.10,34.27,240.00,6.00,0.00,29.91,M,10.00,M,CLR,M,M,M,M,M,M,M,M,M,M,M,M,M,M,79.70,KSBD 190534Z AUTO 24006KT 10SM CLR 27/10 A2991 RMK AO2 T02650095,M
SBD,2016-08-19 05:54,78.26,50.00,37.16,260.00,5.00,0.00,29.91,M,10.00,M,CLR,M,M,M,M,M,M,M,M,M,M,M,M,M,M,78.26,KSBD 190554Z AUTO 26005KT 10SM CLR 26/10 A2991 RMK AO2 T02570100,M
SBD,2016-08-19 06:14,76.64,50.90,40.54,260.00,5.00,0.00,29.91,M,10.00,M,CLR,M,M,M,M,M,M,M,M,M,M,M,M,M,M,76.64,KSBD 190614Z AUTO 26005KT 10SM CLR 25/11 A2991 RMK AO2 T02480105,M
SBD,2016-08-19 06:34,76.28,51.80,42.42,270.00,5.00,0.00,29.91,M,10.00,M,CLR,M,M,M,M,M,M,M,M,M,M,M,M,M,M,76.28,KSBD 190634Z AUTO 27005KT 10SM CLR 25/11 A2991 RMK AO2 T02460110,M
SBD,2016-08-19 06:54,75.74,53.06,45.24,0.00,0.00,0.00,29.92,M,10.00,M,CLR,M,M,M,M,M,M,M,M,M,M,M,M,M,M,75.74,KSBD 190654Z AUTO 00000KT 10SM CLR 24/12 A2992 RMK AO2 T02430117,M
SBD,2016-08-19 07:14,74.30,53.06,47.47,240.00,6.00,0.00,29.91,M,10.00,M,CLR,M,M,M,M,M,M,M,M,M,M,M,M,M,M,74.30,KSBD 190714Z AUTO 24006KT 10SM CLR 24/12 A2991 RMK AO2 T02350117,M
SBD,2016-08-19 07:34,74.48,53.96,48.76,260.00,4.00,0.00,29.92,M,10.00,M,CLR,M,M,M,M,M,M,M,M,M,M,M,M,M,M,74.48,KSBD 190734Z AUTO 26004KT 10SM CLR 24/12 A2992 RMK AO2 T02360122,M
SBD,2016-08-19 07:54,73.58,55.04,52.28,260.00,4.00,0.00,29.92,M,10.00,M,CLR,M,M,M,M,M,M,M,M,M,M,M,M,M,M,73.58,KSBD 190754Z AUTO 26004KT 10SM CLR 23/13 A2992 RMK AO2 T02310128,M
SBD,2016-08-19 08:14,72.50,56.30,56.75,270.00,5.00,0.00,29.93,M,10.00,M,CLR,M,M,M,M,M,M,M,M,M,M,M,M,M,M,72.50,KSBD 190814Z AUTO 27005KT 10SM CLR 23/14 A2993 RMK AO2 T02250135,M
SBD,2016-08-19 08:34,71.60,56.84,59.66,270.00,5.00,0.00,29.93,M,10.00,M,CLR,M,M,M,M,M,M,M,M,M,M,M,M,M,M,71.60,KSBD 190834Z AUTO 27005KT 10SM CLR 22/14 A2993 RMK AO2 T02200138,M
SBD,2016-08-19 08:54,70.70,57.38,62.72,240.00,6.00,0.00,29.93,M,10.00,M,CLR,M,M,M,M,M,M,M,M,M,M,M,M,M,M,70.70,KSBD 190854Z AUTO 24006KT 10SM CLR 22/14 A2993 RMK AO2 T02150141,M
SBD,2016-08-19 09:14,70.34,57.56,63.91,240.00,4.00,0.00,29.93,M,10.00,M,CLR,M,M,M,M,M,M,M,M,M,M,M,M,M,M,70.34,KSBD 190914Z AUTO 24004KT 10SM CLR 21/14 A2993 RMK AO2 T02130142,M
SBD,2016-08-19 09:34,69.98,57.56,64.70,240.00,5.00,0.00,29.93,M,10.00,M,CLR,M,M,M,M,M,M,M,M,M,M,M,M,M,M,69.98,KSBD 190934Z AUTO 24005KT 10SM CLR 21/14 A2993 RMK AO2 T02110142,M
SBD,2016-08-19 09:54,69.26,57.38,65.89,250.00,4.00,0.00,29.92,M,10.00,M,CLR,M,M,M,M,M,M,M,M,M,M,M,M,M,M,69.26,KSBD 190954Z AUTO 25004KT 10SM CLR 21/14 A2992 RMK AO2 T02070141,M
SBD,2016-08-19 10:14,69.26,57.56,66.31,0.00,0.00,0.00,29.92,M,10.00,M,CLR,M,M,M,M,M,M,M,M,M,M,M,M,M,M,69.26,KSBD 191014Z AUTO 00000KT 10SM CLR 21/14 A2992 RMK AO2 T02070142,M
SBD,2016-08-19 10:34,69.26,57.74,66.74,0.00,0.00,0.00,29.92,M,10.00,M,CLR,M,M,M,M,M,M,M,M,M,M,M,M,M,M,69.26,KSBD 191034Z AUTO 00000KT 10SM CLR 21/14 A2992 RMK AO2 T02070143,M
SBD,2016-08-19 10:54,68.72,57.56,67.55,260.00,3.00,0.00,29.92,M,10.00,M,CLR,M,M,M,M,M,M,M,M,M,M,M,M,M,M,68.72,KSBD 191054Z AUTO 26003KT 10SM CLR 20/14 A2992 RMK AO2 T02040142,M
SBD,2016-08-19 11:14,68.54,57.74,68.41,0.00,0.00,0.00,29.92,M,10.00,M,CLR,M,M,M,M,M,M,M,M,M,M,M,M,M,M,68.54,KSBD 191114Z AUTO 00000KT 10SM CLR 20/14 A2992 RMK AO2 T02030143,M
SBD,2016-08-19 11:34,68.00,57.38,68.80,260.00,3.00,0.00,29.92,M,10.00,M,CLR,M,M,M,M,M,M,M,M,M,M,M,M,M,M,68.00,KSBD 191134Z AUTO 26003KT 10SM CLR 20/14 A2992 RMK AO2 T02000141,M
SBD,2016-08-19 11:54,67.82,57.92,70.58,260.00,3.00,0.00,29.92,M,10.00,M,CLR,M,M,M,M,M,M,M,M,M,M,M,M,M,M,67.82,KSBD 191154Z AUTO 26003KT 10SM CLR 20/14 A2992 RMK AO2 T01990144,M
SBD,2016-08-19 12:14,67.46,57.56,70.55,0.00,0.00,0.00,29.92,M,10.00,M,CLR,M,M,M,M,M,M,M,M,M,M,M,M,M,M,67.46,KSBD 191214Z AUTO 00000KT 10SM CLR 20/14 A2992 RMK AO2 T01970142,M
SBD,2016-08-19 12:34,67.82,58.10,71.04,0.00,0.00,0.00,29.92,M,10.00,M,CLR,M,M,M,M,M,M,M,M,M,M,M,M,M,M,67.82,KSBD 191234Z AUTO 00000KT 10SM CLR 20/15 A2992 RMK AO2 T01990145,M
SBD,2016-08-19 12:54,67.46,53.24,60.30,170.00,3.00,0.00,29.92,M,10.00,M,CLR,M,M,M,M,M,M,M,M,M,M,M,M,M,M,67.46,KSBD 191254Z AUTO 17003KT 10SM CLR 20/12 A2992 RMK AO2 T01970118,M
SBD,2016-08-19 13:14,67.64,51.62,56.46,0.00,0.00,0.00,29.93,M,10.00,M,CLR,M,M,M,M,M,M,M,M,M,M,M,M,M,M,67.64,KSBD 191314Z AUTO 00000KT 10SM CLR 20/11 A2993 RMK AO2 T01980109,M
SBD,2016-08-19 13:34,68.00,51.80,56.13,0.00,0.00,0.00,29.93,M,10.00,M,CLR,M,M,M,M,M,M,M,M,M,M,M,M,M,M,68.00,KSBD 191334Z AUTO 00000KT 10SM CLR 20/11 A2993 RMK AO2 T02000110,M
SBD,2016-08-19 13:54,67.10,52.34,59.07,0.00,0.00,0.00,29.94,M,10.00,M,CLR,M,M,M,M,M,M,M,M,M,M,M,M,M,M,67.10,KSBD 191354Z AUTO 00000KT 10SM CLR 20/11 A2994 RMK AO2 T01950113,M
SBD,2016-08-19 14:49,71.60,53.60,53.03,0.00,0.00,0.00,29.94,M,10.00,M,FEW,M,M,M,6000.00,M,M,M,M,M,M,M,M,M,M,71.60,KSBD 191449Z 00000KT 10SM FEW060 22/12 A2994,M
SBD,2016-08-19 15:55,75.20,55.40,50.17,0.00,0.00,0.00,29.94,M,10.00,M,FEW,M,M,M,6000.00,M,M,M,M,M,M,M,M,M,M,75.20,KSBD 191555Z 00000KT 10SM FEW060 24/13 A2994,M
SBD,2016-08-19 16:50,80.60,53.60,39.30,0.00,0.00,0.00,29.94,M,10.00,M,FEW,M,M,M,6000.00,M,M,M,M,M,M,M,M,M,M,80.60,KSBD 191650Z 00000KT 10SM FEW060 27/12 A2994,M
SBD,2016-08-19 17:48,86.00,50.00,28.90,0.00,0.00,0.00,29.94,M,7.00,M,FEW,M,M,M,6000.00,M,M,M,M,M,M,M,M,M,M,83.62,KSBD 191748Z 00000KT 07SM FEW060 30/10 A2994,M
SBD,2016-08-19 18:47,91.40,44.60,19.89,270.00,4.00,0.00,29.93,M,7.00,M,FEW,M,M,M,6000.00,M,M,M,M,M,M,M,M,M,M,87.68,KSBD 191847Z 27004KT 7SM FEW060 33/07 A2993,M
SBD,2016-08-19 19:50,96.80,41.00,14.66,240.00,6.00,0.00,29.91,M,7.00,M,FEW,M,M,M,6000.00,M,M,M,M,M,M,M,M,M,M,92.39,KSBD 191950Z 24006KT 7SM FEW060 36/05 A2991,M
SBD,2016-08-19 20:47,98.60,39.20,12.94,250.00,10.00,0.00,29.89,M,7.00,M,FEW,M,M,M,6000.00,M,M,M,M,M,M,M,M,M,M,93.89,KSBD 192047Z 25010KT 7SM FEW060 37/04 A2989,M
SBD,2016-08-19 21:47,98.60,46.40,17.05,260.00,10.00,0.00,29.87,M,7.00,M,FEW,M,M,M,6000.00,M,M,M,M,M,M,M,M,M,M,94.84,KSBD 192147Z 26010KT 07SM FEW060 37/08 A2987,M
SBD,2016-08-19 22:50,98.60,41.00,13.87,270.00,11.00,0.00,29.85,M,7.00,M,FEW,M,M,M,6000.00,M,M,M,M,M,M,M,M,M,M,94.09,KSBD 192250Z 27011KT 07SM FEW060 37/05 A2985,M
SBD,2016-08-19 23:47,98.60,44.60,15.93,260.00,12.00,0.00,29.84,M,7.00,M,FEW,M,M,M,6000.00,M,M,M,M,M,M,M,M,M,M,94.55,KSBD 192347Z 26012KT 7SM FEW060 37/07 A2984,M
SBD,2016-08-20 00:50,95.00,39.20,14.44,280.00,12.00,0.00,29.84,M,7.00,M,FEW,M,M,M,6000.00,M,M,M,M,M,M,M,M,M,M,90.57,KSBD 200050Z 28012KT 7SM FEW060 35/04 A2984,M
SBD,2016-08-20 01:48,93.20,35.60,13.25,260.00,7.00,0.00,29.85,M,7.00,M,FEW,M,M,M,6000.00,M,M,M,M,M,M,M,M,M,M,88.76,KSBD 200148Z 26007KT 7SM FEW060 34/02 A2985,M
SBD,2016-08-20 02:50,86.00,46.40,25.26,230.00,7.00,0.00,29.87,M,7.00,M,CLR,M,M,M,M,M,M,M,M,M,M,M,M,M,M,83.22,KSBD 200250Z 23007KT 7SM SKC 30/08 A2987,M
SBD,2016-08-20 03:50,82.40,48.20,30.35,230.00,7.00,0.00,29.91,M,7.00,M,CLR,M,M,M,M,M,M,M,M,M,M,M,M,M,M,80.80,KSBD 200350Z 23007KT 7SM SKC 28/09 A2991,M
SBD,2016-08-20 04:14,80.96,48.02,31.59,240.00,7.00,0.00,29.92,M,10.00,M,CLR,M,M,M,M,M,M,M,M,M,M,M,M,M,M,79.90,KSBD 200414Z AUTO 24007KT 10SM CLR 27/09 A2992 RMK AO2 T02720089,M
SBD,2016-08-20 04:33,80.42,48.20,32.37,240.00,6.00,0.00,29.93,M,10.00,M,CLR,M,M,M,M,M,M,M,M,M,M,M,M,M,M,80.42,KSBD 200433Z AUTO 24006KT 10SM CLR 27/09 A2993 RMK AO2 T02690090,M
SBD,2016-08-20 04:54,79.34,47.48,32.64,250.00,5.00,0.00,29.94,M,10.00,M,CLR,M,M,M,M,M,M,M,M,M,M,M,M,M,M,79.34,KSBD 200454Z AUTO 25005KT 10SM CLR 26/09 A2994 RMK AO2 T02630086,M
SBD,2016-08-20 05:14,77.90,44.78,30.90,260.00,6.00,0.00,29.94,M,10.00,M,CLR,M,M,M,M,M,M,M,M,M,M,M,M,M,M,76.84,KSBD 200514Z AUTO 26006KT 10SM CLR 26/07 A2994 RMK AO2 T02550071,M
SBD,2016-08-20 05:34,76.64,45.50,33.11,260.00,4.00,0.00,29.95,M,10.00,M,CLR,M,M,M,M,M,M,M,M,M,M,M,M,M,M,75.56,KSBD 200534Z AUTO 26004KT 10SM CLR 25/08 A2995 RMK AO2 T02480075,M
SBD,2016-08-20 05:53,76.10,46.40,34.88,250.00,4.00,0.00,29.96,M,10.00,M,CLR,M,M,M,M,M,M,M,M,M,M,M,M,M,M,75.05,KSBD 200553Z AUTO 25004KT 10SM CLR 25/08 A2996 RMK AO2 T02450080,M
SBD,2016-08-20 06:14,75.74,46.76,35.78,250.00,3.00,0.00,29.96,M,10.00,M,CLR,M,M,M,M,M,M,M,M,M,M,M,M,M,M,74.70,KSBD 200614Z AUTO 25003KT 10SM CLR 24/08 A2996 RMK AO2 T02430082,M
SBD,2016-08-20 06:34,75.20,46.40,35.94,250.00,4.00,0.00,29.96,M,10.00,M,CLR,M,M,M,M,M,M,M,M,M,M,M,M,M,M,74.11,KSBD 200634Z AUTO 25004KT 10SM CLR 24/08 A2996 RMK AO2 T02400080,M
SBD,2016-08-20 06:53,74.30,47.30,38.32,250.00,5.00,0.00,29.96,M,10.00,M,CLR,M,M,M,M,M,M,M,M,M,M,M,M,M,M,73.23,KSBD 200653Z AUTO 25005KT 10SM CLR 24/09 A2996 RMK AO2 T02350085,M
SBD,2016-08-20 07:14,72.86,48.20,41.60,240.00,5.00,0.00,29.96,M,10.00,M,CLR,M,M,M,M,M,M,M,M,M,M,M,M,M,M,71.80,KSBD 200714Z AUTO 24005KT 10SM CLR 23/09 A2996 RMK AO2 T02270090,M
SBD,2016-08-20 07:34,71.96,49.28,44.66,270.00,3.00,0.00,29.96,M,10.00,M,CLR,M,M,M,M,M,M,M,M,M,M,M,M,M,M,70.95,KSBD 200734Z AUTO 27003KT 10SM CLR 22/10 A2996 RMK AO2 T02220096,M
SBD,2016-08-20 07:53,71.60,49.82,46.12,270.00,3.00,0.00,29.96,M,10.00,M,CLR,M,M,M,M,M,M,M,M,M,M,M,M,M,M,71.60,KSBD 200753Z AUTO 27003KT 10SM CLR 22/10 A2996 RMK AO2 T02200099,M
SBD,2016-08-20 08:14,71.06,50.36,47.93,270.00,3.00,0.00,29.96,M,10.00,M,CLR,M,M,M,M,M,M,M,M,M,M,M,M,M,M,71.06,KSBD 200814Z AUTO 27003KT 10SM CLR 22/10 A2996 RMK AO2 T02170102,M
SBD,2016-08-20 08:34,70.16,51.80,52.13,250.00,4.00,0.00,29.95,M,10.00,M,CLR,M,M,M,M,M,M,M,M,M,M,M,M,M,M,70.16,KSBD 200834Z AUTO 25004KT 10SM CLR 21/11 A2995 RMK AO2 T02120110,M
SBD,2016-08-20 08:53,70.34,51.98,52.15,0.00,0.00,0.00,29.95,M,10.00,M,CLR,M,M,M,M,M,M,M,M,M,M,M,M,M,M,70.34,KSBD 200853Z AUTO 00000KT 10SM CLR 21/11 A2995 RMK AO2 T02130111,M
SBD,2016-08-20 09:14,70.70,52.34,52.21,0.00,0.00,0.00,29.95,M,10.00,M,CLR,M,M,M,M,M,M,M,M,M,M,M,M,M,M,70.70,KSBD 200914Z AUTO 00000KT 10SM CLR 22/11 A2995 RMK AO2 T02150113,M
SBD,2016-08-20 09:34,70.16,52.16,52.82,0.00,0.00,0.00,29.94,M,10.00,M,CLR,M,M,M,M,M,M,M,M,M,M,M,M,M,M,70.16,KSBD 200934Z AUTO 00000KT 10SM CLR 21/11 A2994 RMK AO2 T02120112,M
SBD,2016-08-20 09:53,70.16,52.88,54.24,0.00,0.00,0.00,29.94,M,10.00,M,CLR,M,M,M,M,M,M,M,M,M,M,M,M,M,M,70.16,KSBD 200953Z AUTO 00000KT 10SM CLR 21/12 A2994 RMK AO2 T02120116,M
SBD,2016-08-20 10:14,69.44,51.80,53.43,0.00,0.00,0.00,29.94,M,10.00,M,CLR,M,M,M,M,M,M,M,M,M,M,M,M,M,M,69.44,KSBD 201014Z AUTO 00000KT 10SM CLR 21/11 A2994 RMK AO2 T02080110,M
SBD,2016-08-20 10:34,69.98,50.90,50.73,0.00,0.00,0.00,29.94,M,10.00,M,CLR,M,M,M,M,M,M,M,M,M,M,M,M,M,M,69.98,KSBD 201034Z AUTO 00000KT 10SM CLR 21/11 A2994 RMK AO2 T02110105,M
SBD,2016-08-20 10:53,69.44,49.46,48.98,0.00,0.00,0.00,29.94,M,10.00,M,CLR,M,M,M,M,M,M,M,M,M,M,M,M,M,M,69.44,KSBD 201053Z AUTO 00000KT 10SM CLR 21/10 A2994 RMK AO2 T02080097,M
SBD,2016-08-20 11:14,68.54,47.66,47.23,0.00,0.00,0.00,29.94,M,10.00,M,CLR,M,M,M,M,M,M,M,M,M,M,M,M,M,M,68.54,KSBD 201114Z AUTO 00000KT 10SM CLR 20/09 A2994 RMK AO2 T02030087,M
SBD,2016-08-20 11:34,68.18,48.20,48.79,0.00,0.00,0.00,29.94,M,10.00,M,CLR,M,M,M,M,M,M,M,M,M,M,M,M,M,M,68.18,KSBD 201134Z AUTO 00000KT 10SM CLR 20/09 A2994 RMK AO2 T02010090,M
SBD,2016-08-20 11:53,67.46,48.02,49.68,0.00,0.00,0.00,29.94,M,10.00,M,CLR,M,M,M,M,M,M,M,M,M,M,M,M,M,M,67.46,KSBD 201153Z AUTO 00000KT 10SM CLR 20/09 A2994 RMK AO2 T01970089,M
SBD,2016-08-20 12:14,66.02,47.48,51.17,0.00,0.00,0.00,29.94,M,10.00,M,CLR,M,M,M,M,M,M,M,M,M,M,M,M,M,M,66.02,KSBD 201214Z AUTO 00000KT 10SM CLR 19/09 A2994 RMK AO2 T01890086,M
SBD,2016-08-20 12:34,67.82,48.56,50.07,0.00,0.00,0.00,29.94,M,10.00,M,CLR,M,M,M,M,M,M,M,M,M,M,M,M,M,M,67.82,KSBD 201234Z AUTO 00000KT 10SM CLR 20/09 A2994 RMK AO2 T01990092,M
SBD,2016-08-20 12:53,65.84,48.02,52.55,0.00,0.00,0.00,29.94,M,10.00,M,CLR,M,M,M,M,M,M,M,M,M,M,M,M,M,M,65.84,KSBD 201253Z AUTO 00000KT 10SM CLR 19/09 A2994 RMK AO2 T01880089,M
SBD,2016-08-20 13:14,67.10,48.20,50.65,0.00,0.00,0.00,29.95,M,10.00,M,CLR,M,M,M,M,M,M,M,M,M,M,M,M,M,M,67.10,KSBD 201314Z AUTO 00000KT 10SM CLR 20/09 A2995 RMK AO2 T01950090,M
SBD,2016-08-20 13:34,66.38,48.92,53.34,0.00,0.00,0.00,29.95,M,10.00,M,CLR,M,M,M,M,M,M,M,M,M,M,M,M,M,M,66.38,KSBD 201334Z AUTO 00000KT 10SM CLR 19/09 A2995 RMK AO2 T01910094,M
SBD,2016-08-20 13:53,66.74,47.84,50.59,0.00,0.00,0.00,29.95,M,10.00,M,CLR,M,M,M,M,M,M,M,M,M,M,M,M,M,M,66.74,KSBD 201353Z AUTO 00000KT 10SM CLR 19/09 A2995 RMK AO2 T01930088,M
SBD,2016-08-20 14:47,69.80,48.20,46.16,0.00,0.00,0.00,29.95,M,10.00,M,FEW,M,M,M,10000.00,M,M,M,M,M,M,M,M,M,M,69.80,KSBD 201447Z 00000KT 10SM FEW100 21/09 A2995,M
SBD,2016-08-20 15:47,75.20,50.00,41.14,0.00,0.00,0.00,29.95,M,10.00,M,FEW,M,M,M,10000.00,M,M,M,M,M,M,M,M,M,M,75.20,KSBD 201547Z 00000KT 10SM FEW100 24/10 A2995,M
SBD,2016-08-20 16:47,82.40,42.80,24.72,220.00,4.00,0.00,29.96,M,10.00,M,FEW,M,M,M,10000.00,M,M,M,M,M,M,M,M,M,M,80.39,KSBD 201647Z 22004KT 10SM FEW100 28/06 A2996,M
SBD,2016-08-20 17:48,86.00,42.80,22.02,260.00,5.00,0.00,29.96,M,10.00,M,FEW,M,M,M,6000.00,M,M,M,M,M,M,M,M,M,M,82.95,KSBD 201748Z 26005KT 10SM FEW060 30/06 A2996,M
SBD,2016-08-20 18:50,89.60,46.40,22.53,210.00,4.00,0.00,29.94,M,10.00,M,FEW,BKN,M,M,6000.00,20000.00,M,M,M,M,M,M,M,M,M,86.24,KSBD 201850Z 21004KT 10SM FEW060 BKN200 32/08 A2994,M
SBD,2016-08-20 19:47,91.40,46.40,M,M,M,0.00,29.92,M,24007.00,M,FEW,BKN,M,M,6000.00,20000.00,M,M,M,M,M,M,M,M,M,M,KSBD 201947Z 24007SM 10SM FEW060 BKN200 33/08 A2992,M
SBD,2016-08-20 20:53,93.20,44.60,18.80,230.00,4.00,0.00,29.91,M,10.00,M,FEW,BKN,M,M,6000.00,20000.00,M,M,M,M,M,M,M,M,M,89.34,KSBD 202053Z 23004KT 10SM FEW060 BKN200 34/07 A2991,M
SBD,2016-08-20 22:52,95.00,46.40,19.04,270.00,8.00,0.00,29.87,M,10.00,M,FEW,BKN,M,M,6000.00,20000.00,M,M,M,M,M,M,M,M,M,91.29,KSBD 202252Z 27008KT 10SM FEW060 BKN200 35/08 A2987,M
SBD,2016-08-20 23:48,93.20,44.60,18.80,270.00,5.00,0.00,29.86,M,10.00,M,FEW,BKN,M,M,6000.00,20000.00,M,M,M,M,M,M,M,M,M,89.34,KSBD 202348Z 27005KT 10SM FEW060 BKN200 34/07 A2986,M
SBD,2016-08-21 00:50,91.40,46.40,21.29,240.00,7.00,0.00,29.85,M,10.00,M,FEW,SCT,M,M,6000.00,20000.00,M,M,M,M,M,M,M,M,M,87.86,KSBD 210050Z 24007KT 10SM FEW060 SCT200 33/08 A2985,M
SBD,2016-08-21 01:50,87.80,48.20,25.52,250.00,8.00,0.00,29.85,M,10.00,M,SCT,M,M,M,20000.00,M,M,M,M,M,M,M,M,M,M,84.87,KSBD 210150Z 25008KT 10SM SCT200 31/09 A2985,M
SBD,2016-08-21 02:50,84.20,50.00,30.62,230.00,7.00,0.00,29.87,M,10.00,M,SCT,M,M,M,20000.00,M,M,M,M,M,M,M,M,M,M,82.24,KSBD 210250Z 23007KT 10SM SCT200 29/10 A2987,M
SBD,2016-08-21 03:50,80.60,50.00,34.41,240.00,6.00,0.00,29.89,M,10.00,M,SCT,M,M,M,20000.00,M,M,M,M,M,M,M,M,M,M,80.60,KSBD 210350Z 24006KT 10SM SCT200 27/10 A2989 RMK LAST,M
SBD,2016-08-21 04:13,78.98,50.36,36.78,250.00,6.00,0.00,29.90,M,10.00,M,CLR,M,M,M,M,M,M,M,M,M,M,M,M,M,M,78.98,KSBD 210413Z AUTO 25006KT 10SM CLR 26/10 A2990 RMK AO2 T02610102,M
SBD,2016-08-21 04:34,78.44,50.00,36.94,240.00,6.00,0.00,29.90,M,10.00,M,CLR,M,M,M,M,M,M,M,M,M,M,M,M,M,M,78.44,KSBD 210434Z AUTO 24006KT 10SM CLR 26/10 A2990 RMK AO2 T02580100,M
SBD,2016-08-21 04:54,77.54,49.10,36.80,260.00,4.00,0.00,29.90,M,10.00,M,CLR,M,M,M,M,M,M,M,M,M,M,M,M,M,M,77.54,KSBD 210454Z AUTO 26004KT 10SM CLR 25/10 A2990 RMK AO2 T02530095,M
SBD,2016-08-21 05:13,77.00,47.66,35.50,250.00,4.00,0.00,29.90,M,10.00,M,CLR,M,M,M,M,M,M,M,M,M,M,M,M,M,M,77.00,KSBD 210513Z AUTO 25004KT 10SM CLR 25/09 A2990 RMK AO2 T02500087,M
SBD,2016-08-21 05:34,76.28,48.92,38.11,270.00,3.00,0.00,29.91,M,10.00,M,CLR,M,M,M,M,M,M,M,M,M,M,M,M,M,M,76.28,KSBD 210534Z AUTO 27003KT 10SM CLR 25/09 A2991 RMK AO2 T02460094,M
SBD,2016-08-21 05:54,76.64,47.30,35.44,260.00,3.00,0.00,29.91,M,10.00,M,CLR,M,M,M,M,M,M,M,M,M,M,M,M,M,M,76.64,KSBD 210554Z AUTO 26003KT 10SM CLR 25/09 A2991 RMK AO2 T02480085,M
SBD,2016-08-21 06:13,76.28,47.12,35.63,0.00,0.00,0.00,29.91,M,10.00,M,CLR,M,M,M,M,M,M,M,M,M,M,M,M,M,M,76.28,KSBD 210613Z AUTO 00000KT 10SM CLR 25/08 A2991 RMK AO2 T02460084,M
SBD,2016-08-21 06:34,76.64,47.66,35.92,230.00,4.00,0.00,29.91,M,10.00,M,CLR,M,M,M,M,M,M,M,M,M,M,M,M,M,M,76.64,KSBD 210634Z AUTO 23004KT 10SM CLR 25/09 A2991 RMK AO2 T02480087,M
SBD,2016-08-21 06:54,74.66,46.40,36.60,0.00,0.00,0.00,29.91,M,10.00,M,CLR,M,M,M,M,M,M,M,M,M,M,M,M,M,M,73.55,KSBD 210654Z AUTO 00000KT 10SM CLR 24/08 A2991 RMK AO2 T02370080,M
SBD,2016-08-21 07:13,75.02,45.14,34.47,0.00,0.00,0.00,29.91,M,10.00,M,CLR,M,M,M,M,M,M,M,M,M,M,M,M,M,M,73.84,KSBD 210713Z AUTO 00000KT 10SM CLR 24/07 A2991 RMK AO2 T02390073,M
SBD,2016-08-21 07:34,74.84,44.42,33.74,0.00,0.00,0.00,29.91,M,10.00,M,CLR,M,M,M,M,M,M,M,M,M,M,M,M,M,M,73.61,KSBD 210734Z AUTO 00000KT 10SM CLR 24/07 A2991 RMK AO2 T02380069,M
SBD,2016-08-21 07:54,74.12,44.24,34.33,0.00,0.00,0.00,29.91,M,10.00,M,CLR,M,M,M,M,M,M,M,M,M,M,M,M,M,M,72.85,KSBD 210754Z AUTO 00000KT 10SM CLR 23/07 A2991 RMK AO2 T02340068,M
SBD,2016-08-21 08:13,74.12,44.60,34.80,240.00,3.00,0.00,29.90,M,10.00,M,CLR,M,M,M,M,M,M,M,M,M,M,M,M,M,M,72.87,KSBD 210813Z AUTO 24003KT 10SM CLR 23/07 A2990 RMK AO2 T02340070,M
SBD,2016-08-21 08:34,73.04,45.14,36.84,0.00,0.00,0.00,29.90,M,10.00,M,CLR,M,M,M,M,M,M,M,M,M,M,M,M,M,M,71.78,KSBD 210834Z AUTO 00000KT 10SM CLR 23/07 A2990 RMK AO2 T02280073,M
SBD,2016-08-21 08:54,73.58,45.14,36.18,0.00,0.00,0.00,29.90,M,10.00,M,CLR,M,M,M,M,M,M,M,M,M,M,M,M,M,M,72.34,KSBD 210854Z AUTO 00000KT 10SM CLR 23/07 A2990 RMK AO2 T02310073,M
SBD,2016-08-21 09:13,73.58,44.96,35.93,0.00,0.00,0.00,29.90,M,10.00,M,CLR,M,M,M,M,M,M,M,M,M,M,M,M,M,M,72.33,KSBD 210913Z AUTO 00000KT 10SM CLR 23/07 A2990 RMK AO2 T02310072,M
SBD,2016-08-21 09:34,71.96,51.08,47.75,0.00,0.00,0.00,29.90,M,10.00,M,CLR,M,M,M,M,M,M,M,M,M,M,M,M,M,M,71.96,KSBD 210934Z AUTO 00000KT 10SM CLR 22/11 A2990 RMK AO2 T02220106,M
SBD,2016-08-21 09:54,71.06,50.72,48.57,0.00,0.00,0.00,29.90,M,10.00,M,CLR,M,M,M,M,M,M,M,M,M,M,M,M,M,M,71.06,KSBD 210954Z AUTO 00000KT 10SM CLR 22/10 A2990 RMK AO2 T02170104,M
SBD,2016-08-21 10:13,71.42,51.08,48.63,0.00,0.00,0.00,29.90,M,10.00,M,CLR,M,M,M,M,M,M,M,M,M,M,M,M,M,M,71.42,KSBD 211013Z AUTO 00000KT 10SM CLR 22/11 A2990 RMK AO2 T02190106,M
SBD,2016-08-21 10:34,70.88,51.08,49.53,0.00,0.00,0.00,29.90,M,10.00,M,CLR,M,M,M,M,M,M,M,M,M,M,M,M,M,M,70.88,KSBD 211034Z AUTO 00000KT 10SM CLR 22/11 A2990 RMK AO2 T02160106,M
SBD,2016-08-21 10:53,70.34,51.80,51.81,0.00,0.00,0.00,29.90,M,10.00,M,CLR,M,M,M,M,M,M,M,M,M,M,M,M,M,M,70.34,KSBD 211053Z AUTO 00000KT 10SM CLR 21/11 A2990 RMK AO2 T02130110,M
SBD,2016-08-21 11:14,70.52,50.90,49.81,0.00,0.00,0.00,29.90,M,10.00,M,CLR,M,M,M,M,M,M,M,M,M,M,M,M,M,M,70.52,KSBD 211114Z AUTO 00000KT 10SM CLR 21/11 A2990 RMK AO2 T02140105,M
SBD,2016-08-21 11:34,69.98,51.08,51.07,0.00,0.00,0.00,29.90,M,10.00,M,CLR,M,M,M,M,M,M,M,M,M,M,M,M,M,M,69.98,KSBD 211134Z AUTO 00000KT 10SM CLR 21/11 A2990 RMK AO2 T02110106,M
SBD,2016-08-21 11:53,69.80,50.90,51.05,0.00,0.00,0.00,29.90,M,10.00,M,CLR,M,M,M,M,M,M,M,M,M,M,M,M,M,M,69.80,KSBD 211153Z AUTO 00000KT 10SM CLR 21/11 A2990 RMK AO2 T02100105,M
SBD,2016-08-21 12:14,67.82,49.46,51.79,70.00,4.00,0.00,29.90,M,10.00,M,CLR,M,M,M,M,M,M,M,M,M,M,M,M,M,M,67.82,KSBD 211214Z AUTO 07004KT 10SM CLR 20/10 A2990 RMK AO2 T01990097,M
SBD,2016-08-21 12:34,68.90,50.18,51.25,0.00,0.00,0.00,29.91,M,10.00,M,CLR,M,M,M,M,M,M,M,M,M,M,M,M,M,M,68.90,KSBD 211234Z AUTO 00000KT 10SM CLR 21/10 A2991 RMK AO2 T02050101,M
SBD,2016-08-21 12:53,68.90,50.54,51.94,0.00,0.00,0.00,29.92,M,10.00,M,CLR,M,M,M,M,M,M,M,M,M,M,M,M,M,M,68.90,KSBD 211253Z AUTO 00000KT 10SM CLR 21/10 A2992 RMK AO2 T02050103,M
SBD,2016-08-21 13:14,68.90,51.08,52.99,0.00,0.00,0.00,29.92,M,10.00,M,CLR,M,M,M,M,M,M,M,M,M,M,M,M,M,M,68.90,KSBD 211314Z AUTO 00000KT 10SM CLR 21/11 A2992 RMK AO2 T02050106,M
SBD,2016-08-21 13:34,68.18,49.82,51.84,0.00,0.00,0.00,29.93,M,10.00,M,CLR,M,M,M,M,M,M,M,M,M,M,M,M,M,M,68.18,KSBD 211334Z AUTO 00000KT 10SM CLR 20/10 A2993 RMK AO2 T02010099,M
SBD,2016-08-21 13:53,68.90,48.92,48.90,0.00,0.00,0.00,29.93,M,10.00,M,CLR,M,M,M,M,M,M,M,M,M,M,M,M,M,M,68.90,KSBD 211353Z AUTO 00000KT 10SM CLR 21/09 A2993 RMK AO2 T02050094,M
SBD,2016-08-21 14:48,71.60,50.00,46.43,0.00,0.00,0.00,29.94,M,10.00,M,SCT,M,M,M,12000.00,M,M,M,M,M,M,M,M,M,M,71.60,KSBD 211448Z 00000KT 10SM SCT120 22/10 A2994,M
SBD,2016-08-21 16:48,77.00,50.00,38.74,0.00,0.00,0.00,29.96,M,10.00,M,BKN,M,M,M,12000.00,M,M,M,M,M,M,M,M,M,M,77.00,KSBD 211648Z 00000KT 10SM BKN120 25/10 A2996,M
SBD,2016-08-21 17:50,84.20,46.40,26.76,0.00,0.00,0.00,29.96,M,10.00,M,BKN,M,M,M,12000.00,M,M,M,M,M,M,M,M,M,M,81.87,KSBD 211750Z 00000KT 10SM BKN120 29/08 A2996,M
SBD,2016-08-21 18:50,87.80,46.40,23.85,310.00,6.00,0.00,29.94,M,10.00,M,BKN,M,M,M,12000.00,M,M,M,M,M,M,M,M,M,M,84.68,KSBD 211850Z 31006KT 10SM BKN120 31/08 A2994,M
SBD,2016-08-21 20:50,93.20,46.40,20.13,230.00,4.00,0.00,29.91,M,10.00,M,SCT,BKN,M,M,96900.00,12000.00,M,M,M,M,M,M,M,M,M,89.55,KSBD 212050Z 23004KT 10SM SCT969 BKN120 34/08 A2991,M
SBD,2016-08-21 21:50,93.20,42.80,17.55,250.00,7.00,0.00,29.88,M,7.00,M,FEW,BKN,M,M,6000.00,12000.00,M,M,M,M,M,M,M,M,M,89.17,KSBD 212150Z 25007KT 7SM FEW060 BKN120 34/06 A2988,M
SBD,2016-08-21 22:49,95.00,48.20,20.38,280.00,9.00,0.00,29.86,M,10.00,M,FEW,BKN,M,M,6000.00,12000.00,M,M,M,M,M,M,M,M,M,91.56,KSBD 212249Z 28009KT 10SM FEW060 BKN120 35/09 A2986,M
SBD,2016-08-21 23:49,95.00,48.20,20.38,240.00,8.00,0.00,29.85,M,10.00,M,FEW,FEW,M,M,6000.00,12000.00,M,M,M,M,M,M,M,M,M,91.56,KSBD 212349Z 24008KT 10SM FEW060 FEW120 35/09 A2985,M
SBD,2016-08-22 00:50,93.20,50.00,23.04,260.00,9.00,0.00,29.85,M,7.00,M,FEW,M,M,M,6000.00,M,M,M,M,M,M,M,M,M,M,90.10,KSBD 220050Z 26009KT 7SM FEW060 34/10 A2985,M
SBD,2016-08-22 01:50,91.40,51.80,26.05,260.00,9.00,0.00,29.85,M,7.00,M,CLR,M,M,M,M,M,M,M,M,M,M,M,M,M,M,88.69,KSBD 220150Z 26009KT 7SM SKC 33/11 A2985,M
SBD,2016-08-22 02:50,86.00,53.60,33.01,240.00,5.00,0.00,29.86,M,7.00,M,CLR,M,M,M,M,M,M,M,M,M,M,M,M,M,M,84.18,KSBD 220250Z 24005KT 7SM SKC 30/12 A2986,M
SBD,2016-08-22 03:50,82.40,55.40,39.58,220.00,4.00,0.00,29.88,M,7.00,M,CLR,M,M,M,M,M,M,M,M,M,M,M,M,M,M,82.40,KSBD 220350Z 22004KT 7SM SKC 28/13 A2988 RMK LAST,M
SBD,2016-08-22 04:13,81.14,55.40,41.24,260.00,5.00,0.00,29.89,M,10.00,M,CLR,M,M,M,M,M,M,M,M,M,M,M,M,M,M,80.88,KSBD 220413Z AUTO 26005KT 10SM CLR 27/13 A2989 RMK AO2 T02730130,M
SBD,2016-08-22 04:34,80.24,54.50,41.10,250.00,6.00,0.00,29.89,M,10.00,M,CLR,M,M,M,M,M,M,M,M,M,M,M,M,M,M,80.19,KSBD 220434Z AUTO 25006KT 10SM CLR 27/13 A2989 RMK AO2 T02680125,M
SBD,2016-08-22 04:54,78.98,53.60,41.45,250.00,5.00,0.00,29.89,M,10.00,M,CLR,M,M,M,M,M,M,M,M,M,M,M,M,M,M,78.98,KSBD 220454Z AUTO 25005KT 10SM CLR 26/12 A2989 RMK AO2 T02610120,M
SBD,2016-08-22 05:13,78.80,52.52,40.07,250.00,4.00,0.00,29.89,M,10.00,M,CLR,M,M,M,M,M,M,M,M,M,M,M,M,M,M,78.80,KSBD 220513Z AUTO 25004KT 10SM CLR 26/11 A2989 RMK AO2 T02600114,M
SBD,2016-08-22 05:34,78.80,50.90,37.75,280.00,3.00,0.00,29.89,M,10.00,M,CLR,M,M,M,M,M,M,M,M,M,M,M,M,M,M,78.80,KSBD 220534Z AUTO 28003KT 10SM CLR 26/11 A2989 RMK AO2 T02600105,M
SBD,2016-08-22 05:54,78.08,49.64,36.89,270.00,3.00,0.00,29.89,M,10.00,M,CLR,M,M,M,M,M,M,M,M,M,M,M,M,M,M,78.08,KSBD 220554Z AUTO 27003KT 10SM CLR 26/10 A2989 RMK AO2 T02560098,M
SBD,2016-08-22 06:13,78.44,47.12,33.17,280.00,3.00,0.00,29.90,M,10.00,M,CLR,M,M,M,M,M,M,M,M,M,M,M,M,M,M,78.44,KSBD 220613Z AUTO 28003KT 10SM CLR 26/08 A2990 RMK AO2 T02580084,M
SBD,2016-08-22 06:34,77.18,47.30,34.81,280.00,3.00,0.00,29.90,M,10.00,M,CLR,M,M,M,M,M,M,M,M,M,M,M,M,M,M,77.18,KSBD 220634Z AUTO 28003KT 10SM CLR 25/09 A2990 RMK AO2 T02510085,M
SBD,2016-08-22 06:54,77.00,46.40,33.85,260.00,3.00,0.00,29.90,M,10.00,M,CLR,M,M,M,M,M,M,M,M,M,M,M,M,M,M,75.99,KSBD 220654Z AUTO 26003KT 10SM CLR 25/08 A2990 RMK AO2 T02500080,M
SBD,2016-08-22 07:13,77.72,47.12,33.96,0.00,0.00,0.00,29.90,M,10.00,M,CLR,M,M,M,M,M,M,M,M,M,M,M,M,M,M,77.72,KSBD 220713Z AUTO 00000KT 10SM CLR 25/08 A2990 RMK AO2 T02540084,M
SBD,2016-08-22 07:34,74.84,44.06,33.28,260.00,5.00,0.00,29.90,M,10.00,M,CLR,M,M,M,M,M,M,M,M,M,M,M,M,M,M,73.59,KSBD 220734Z AUTO 26005KT 10SM CLR 24/07 A2990 RMK AO2 T02380067,M
SBD,2016-08-22 07:54,75.38,43.88,32.46,250.00,4.00,0.00,29.91,M,10.00,M,CLR,M,M,M,M,M,M,M,M,M,M,M,M,M,M,74.14,KSBD 220754Z AUTO 25004KT 10SM CLR 24/07 A2991 RMK AO2 T02410066,M
SBD,2016-08-22 08:14,73.58,42.62,32.86,280.00,3.00,0.00,29.91,M,10.00,M,CLR,M,M,M,M,M,M,M,M,M,M,M,M,M,M,72.18,KSBD 220814Z AUTO 28003KT 10SM CLR 23/06 A2991 RMK AO2 T02310059,M
SBD,2016-08-22 08:34,74.48,42.44,31.66,0.00,0.00,0.00,29.91,M,10.00,M,CLR,M,M,M,M,M,M,M,M,M,M,M,M,M,M,73.12,KSBD 220834Z AUTO 00000KT 10SM CLR 24/06 A2991 RMK AO2 T02360058,M
SBD,2016-08-22 08:54,74.30,44.24,34.12,0.00,0.00,0.00,29.91,M,10.00,M,CLR,M,M,M,M,M,M,M,M,M,M,M,M,M,M,73.03,KSBD 220854Z AUTO 00000KT 10SM CLR 24/07 A2991 RMK AO2 T02350068,M
SBD,2016-08-22 09:14,73.04,43.70,34.87,0.00,0.00,0.00,29.91,M,10.00,M,CLR,M,M,M,M,M,M,M,M,M,M,M,M,M,M,71.68,KSBD 220914Z AUTO 00000KT 10SM CLR 23/07 A2991 RMK AO2 T02280065,M
SBD,2016-08-22 09:33,73.04,42.80,33.69,0.00,0.00,0.00,29.91,M,10.00,M,CLR,M,M,M,M,M,M,M,M,M,M,M,M,M,M,71.63,KSBD 220933Z AUTO 00000KT 10SM CLR 23/06 A2991 RMK AO2 T02280060,M
SBD,2016-08-22 09:54,72.68,42.98,34.34,0.00,0.00,0.00,29.91,M,10.00,M,CLR,M,M,M,M,M,M,M,M,M,M,M,M,M,M,71.26,KSBD 220954Z AUTO 00000KT 10SM CLR 23/06 A2991 RMK AO2 T02260061,M
SBD,2016-08-22 10:14,72.68,44.06,35.79,0.00,0.00,0.00,29.91,M,10.00,M,CLR,M,M,M,M,M,M,M,M,M,M,M,M,M,M,71.33,KSBD 221014Z AUTO 00000KT 10SM CLR 23/07 A2991 RMK AO2 T02260067,M
SBD,2016-08-22 10:34,71.06,48.38,44.52,0.00,0.00,0.00,29.91,M,10.00,M,CLR,M,M,M,M,M,M,M,M,M,M,M,M,M,M,69.96,KSBD 221034Z AUTO 00000KT 10SM CLR 22/09 A2991 RMK AO2 T02170091,M
SBD,2016-08-22 10:54,70.88,50.54,48.55,0.00,0.00,0.00,29.91,M,10.00,M,CLR,M,M,M,M,M,M,M,M,M,M,M,M,M,M,70.88,KSBD 221054Z AUTO 00000KT 10SM CLR 22/10 A2991 RMK AO2 T02160103,M
SBD,2016-08-22 11:13,69.08,47.84,46.68,0.00,0.00,0.00,29.91,M,10.00,M,CLR,M,M,M,M,M,M,M,M,M,M,M,M,M,M,69.08,KSBD 221113Z AUTO 00000KT 10SM CLR 21/09 A2991 RMK AO2 T02060088,M
SBD,2016-08-22 11:34,67.64,52.16,57.59,0.00,0.00,0.00,29.92,M,10.00,M,CLR,M,M,M,M,M,M,M,M,M,M,M,M,M,M,67.64,KSBD 221134Z AUTO 00000KT 10SM CLR 20/11 A2992 RMK AO2 T01980112,M
SBD,2016-08-22 11:53,68.90,51.44,53.70,0.00,0.00,0.00,29.92,M,10.00,M,CLR,M,M,M,M,M,M,M,M,M,M,M,M,M,M,68.90,KSBD 221153Z AUTO 00000KT 10SM CLR 21/11 A2992 RMK AO2 T02050108,M
SBD,2016-08-22 12:14,68.90,50.36,51.60,0.00,0.00,0.00,29.92,M,10.00,M,CLR,M,M,M,M,M,M,M,M,M,M,M,M,M,M,68.90,KSBD 221214Z AUTO 00000KT 10SM CLR 21/10 A2992 RMK AO2 T02050102,M
SBD,2016-08-22 12:34,68.36,50.00,51.87,0.00,0.00,0.00,29.92,M,10.00,M,CLR,M,M,M,M,M,M,M,M,M,M,M,M,M,M,68.36,KSBD 221234Z AUTO 00000KT 10SM CLR 20/10 A2992 RMK AO2 T02020100,M
SBD,2016-08-22 12:53,67.10,50.54,55.27,0.00,0.00,0.00,29.92,M,10.00,M,CLR,M,M,M,M,M,M,M,M,M,M,M,M,M,M,67.10,KSBD 221253Z AUTO 00000KT 10SM CLR 20/10 A2992 RMK AO2 T01950103,M
SBD,2016-08-22 13:14,66.92,50.18,54.87,0.00,0.00,0.00,29.92,M,10.00,M,CLR,M,M,M,M,M,M,M,M,M,M,M,M,M,M,66.92,KSBD 221314Z AUTO 00000KT 10SM CLR 19/10 A2992 RMK AO2 T01940101,M
SBD,2016-08-22 13:34,67.10,50.36,54.90,0.00,0.00,0.00,29.93,M,10.00,M,CLR,M,M,M,M,M,M,M,M,M,M,M,M,M,M,67.10,KSBD 221334Z AUTO 00000KT 10SM CLR 20/10 A2993 RMK AO2 T01950102,M
SBD,2016-08-22 13:53,67.28,50.00,53.83,0.00,0.00,0.00,29.94,M,10.00,M,CLR,M,M,M,M,M,M,M,M,M,M,M,M,M,M,67.28,KSBD 221353Z AUTO 00000KT 10SM CLR 20/10 A2994 RMK AO2 T01960100,M
SBD,2016-08-22 14:45,71.60,55.40,56.63,0.00,0.00,0.00,29.94,M,7.00,M,CLR,M,M,M,M,M,M,M,M,M,M,M,M,M,M,71.60,KSBD 221445Z 00000KT 7SM SKC 22/13 A2994,M
SBD,2016-08-22 15:45,75.20,46.40,35.94,0.00,0.00,0.00,29.94,M,7.00,M,CLR,M,M,M,M,M,M,M,M,M,M,M,M,M,M,74.11,KSBD 221545Z 00000KT 7SM SKC 24/08 A2994,M
SBD,2016-08-22 16:46,80.60,46.40,30.07,0.00,0.00,0.00,29.96,M,7.00,M,CLR,M,M,M,M,M,M,M,M,M,M,M,M,M,M,79.56,KSBD 221646Z 00000KT 7SM SKC 27/08 A2996,M
SBD,2016-08-22 17:47,86.00,46.40,25.26,320.00,3.00,0.00,29.96,M,7.00,M,FEW,M,M,M,6000.00,M,M,M,M,M,M,M,M,M,M,83.22,KSBD 221747Z 32003KT 07SM FEW060 30/08 A2996,M
SBD,2016-08-22 18:52,89.60,41.00,18.33,210.00,3.00,0.00,29.94,M,7.00,M,FEW,M,M,M,6000.00,M,M,M,M,M,M,M,M,M,M,85.82,KSBD 221852Z 21003KT 07SM FEW060 32/05 A2994,M
SBD,2016-08-22 19:47,93.20,44.60,18.80,230.00,6.00,0.00,29.93,M,7.00,M,FEW,M,M,M,6000.00,M,M,M,M,M,M,M,M,M,M,89.34,KSBD 221947Z 23006KT 07SM FEW060 34/07 A2993,M
SBD,2016-08-22 21:50,95.00,46.40,19.04,280.00,5.00,0.00,29.89,M,7.00,M,FEW,M,M,M,6000.00,M,M,M,M,M,M,M,M,M,M,91.29,KSBD 222150Z 28005KT 7SM FEW060 35/08 A2989,M
SBD,2016-08-22 22:47,95.00,44.60,17.78,240.00,8.00,0.00,29.88,M,7.00,M,FEW,M,M,M,6000.00,M,M,M,M,M,M,M,M,M,M,91.06,KSBD 222247Z 24008KT 07SM FEW060 35/07 A2988,M
SBD,2016-08-22 23:46,95.00,46.40,19.04,230.00,12.00,0.00,29.87,M,7.00,M,FEW,M,M,M,6000.00,M,M,M,M,M,M,M,M,M,M,91.29,KSBD 222346Z 23012KT 07SM FEW060 35/08 A2987,M
SBD,2016-08-23 00:50,91.40,46.40,21.29,240.00,12.00,0.00,29.88,M,7.00,M,SCT,M,M,M,6000.00,M,M,M,M,M,M,M,M,M,M,87.86,KSBD 230050Z 24012KT 7SM SCT060 33/08 A2988,M
SBD,2016-08-23 01:50,86.00,48.20,27.03,230.00,10.00,0.00,29.90,M,7.00,M,SCT,M,M,M,6000.00,M,M,M,M,M,M,M,M,M,M,83.40,KSBD 230150Z 23010KT 7SM SCT060 30/09 A2990,M
SBD,2016-08-23 02:50,82.40,44.60,26.49,230.00,8.00,0.00,29.91,M,7.00,M,FEW,M,M,M,6000.00,M,M,M,M,M,M,M,M,M,M,80.50,KSBD 230250Z 23008KT 7SM FEW060 28/07 A2991,M
SBD,2016-08-23 04:13,79.34,50.90,37.08,260.00,4.00,0.00,29.94,M,10.00,M,CLR,M,M,M,M,M,M,M,M,M,M,M,M,M,M,79.34,KSBD 230413Z AUTO 26004KT 10SM CLR 26/11 A2994 RMK AO2 T02630105,M
SBD,2016-08-23 04:34,78.62,55.04,44.21,260.00,4.00,0.00,29.94,M,10.00,M,CLR,M,M,M,M,M,M,M,M,M,M,M,M,M,M,78.62,KSBD 230434Z AUTO 26004KT 10SM CLR 26/13 A2994 RMK AO2 T02590128,M
SBD,2016-08-23 04:54,77.90,55.58,46.17,250.00,4.00,0.00,29.94,M,10.00,M,CLR,M,M,M,M,M,M,M,M,M,M,M,M,M,M,77.90,KSBD 230454Z AUTO 25004KT 10SM CLR 26/13 A2994 RMK AO2 T02550131,M
SBD,2016-08-23 05:13,77.00,55.58,47.56,240.00,4.00,0.00,29.94,M,10.00,M,CLR,M,M,M,M,M,M,M,M,M,M,M,M,M,M,77.00,KSBD 230513Z AUTO 24004KT 10SM CLR 25/13 A2994 RMK AO2 T02500131,M
SBD,2016-08-23 05:34,76.64,55.58,48.13,260.00,4.00,0.00,29.96,M,10.00,M,CLR,M,M,M,M,M,M,M,M,M,M,M,M,M,M,76.64,KSBD 230534Z AUTO 26004KT 10SM CLR 25/13 A2996 RMK AO2 T02480131,M
SBD,2016-08-23 05:54,76.10,55.04,48.05,250.00,4.00,0.00,29.96,M,10.00,M,CLR,M,M,M,M,M,M,M,M,M,M,M,M,M,M,76.10,KSBD 230554Z AUTO 25004KT 10SM CLR 25/13 A2996 RMK AO2 T02450128,M
SBD,2016-08-23 06:13,75.92,55.76,49.62,240.00,5.00,0.00,29.97,M,10.00,M,CLR,M,M,M,M,M,M,M,M,M,M,M,M,M,M,75.92,KSBD 230613Z AUTO 24005KT 10SM CLR 24/13 A2997 RMK AO2 T02440132,M
SBD,2016-08-23 06:34,75.20,56.12,51.50,240.00,3.00,0.00,29.97,M,10.00,M,CLR,M,M,M,M,M,M,M,M,M,M,M,M,M,M,75.20,KSBD 230634Z AUTO 24003KT 10SM CLR 24/13 A2997 RMK AO2 T02400134,M
SBD,2016-08-23 06:53,74.48,56.30,53.10,240.00,5.00,0.00,29.97,M,10.00,M,CLR,M,M,M,M,M,M,M,M,M,M,M,M,M,M,74.48,KSBD 230653Z AUTO 24005KT 10SM CLR 24/14 A2997 RMK AO2 T02360135,M
SBD,2016-08-23 07:14,74.30,56.84,54.47,240.00,5.00,0.00,29.97,M,10.00,M,CLR,M,M,M,M,M,M,M,M,M,M,M,M,M,M,74.30,KSBD 230714Z AUTO 24005KT 10SM CLR 24/14 A2997 RMK AO2 T02350138,M
SBD,2016-08-23 07:34,73.58,57.20,56.53,260.00,3.00,0.00,29.99,M,10.00,M,CLR,M,M,M,M,M,M,M,M,M,M,M,M,M,M,73.58,KSBD 230734Z AUTO 26003KT 10SM CLR 23/14 A2999 RMK AO2 T02310140,M
SBD,2016-08-23 07:53,72.86,57.20,57.92,270.00,3.00,0.00,29.99,M,10.00,M,CLR,M,M,M,M,M,M,M,M,M,M,M,M,M,M,72.86,KSBD 230753Z AUTO 27003KT 10SM CLR 23/14 A2999 RMK AO2 T02270140,M
SBD,2016-08-23 08:14,71.96,57.02,59.32,250.00,4.00,0.00,29.98,M,10.00,M,CLR,M,M,M,M,M,M,M,M,M,M,M,M,M,M,71.96,KSBD 230814Z AUTO 25004KT 10SM CLR 22/14 A2998 RMK AO2 T02220139,M
SBD,2016-08-23 08:34,71.42,57.02,60.42,260.00,3.00,0.00,29.98,M,10.00,M,CLR,M,M,M,M,M,M,M,M,M,M,M,M,M,M,71.42,KSBD 230834Z AUTO 26003KT 10SM CLR 22/14 A2998 RMK AO2 T02190139,M
SBD,2016-08-23 08:54,70.52,57.20,62.70,260.00,4.00,0.00,29.99,M,10.00,M,CLR,M,M,M,M,M,M,M,M,M,M,M,M,M,M,70.52,KSBD 230854Z AUTO 26004KT 10SM CLR 21/14 A2999 RMK AO2 T02140140,M
SBD,2016-08-23 09:14,70.70,57.56,63.13,0.00,0.00,0.00,29.99,M,10.00,M,CLR,M,M,M,M,M,M,M,M,M,M,M,M,M,M,70.70,KSBD 230914Z AUTO 00000KT 10SM CLR 22/14 A2999 RMK AO2 T02150142,M
SBD,2016-08-23 09:34,70.16,57.56,64.30,0.00,0.00,0.00,29.99,M,10.00,M,CLR,M,M,M,M,M,M,M,M,M,M,M,M,M,M,70.16,KSBD 230934Z AUTO 00000KT 10SM CLR 21/14 A2999 RMK AO2 T02120142,M
SBD,2016-08-23 09:54,70.70,57.56,63.13,0.00,0.00,0.00,29.99,M,10.00,M,CLR,M,M,M,M,M,M,M,M,M,M,M,M,M,M,70.70,KSBD 230954Z AUTO 00000KT 10SM CLR 22/14 A2999 RMK AO2 T02150142,M
SBD,2016-08-23 10:13,70.34,57.38,63.50,0.00,0.00,0.00,29.99,M,10.00,M,CLR,M,M,M,M,M,M,M,M,M,M,M,M,M,M,70.34,KSBD 231013Z AUTO 00000KT 10SM CLR 21/14 A2999 RMK AO2 T02130141,M
SBD,2016-08-23 10:34,69.98,57.56,64.70,0.00,0.00,0.00,29.99,M,10.00,M,CLR,M,M,M,M,M,M,M,M,M,M,M,M,M,M,69.98,KSBD 231034Z AUTO 00000KT 10SM CLR 21/14 A2999 RMK AO2 T02110142,M
SBD,2016-08-23 10:54,69.62,57.20,64.66,0.00,0.00,0.00,29.99,M,10.00,M,CLR,M,M,M,M,M,M,M,M,M,M,M,M,M,M,69.62,KSBD 231054Z AUTO 00000KT 10SM CLR 21/14 A2999 RMK AO2 T02090140,M
SBD,2016-08-23 11:14,69.98,57.20,63.87,0.00,0.00,0.00,29.98,M,10.00,M,CLR,M,M,M,M,M,M,M,M,M,M,M,M,M,M,69.98,KSBD 231114Z AUTO 00000KT 10SM CLR 21/14 A2998 RMK AO2 T02110140,M
SBD,2016-08-23 11:34,69.26,55.40,61.33,0.00,0.00,0.00,29.98,M,10.00,M,CLR,M,M,M,M,M,M,M,M,M,M,M,M,M,M,69.26,KSBD 231134Z AUTO 00000KT 10SM CLR 21/13 A2998 RMK AO2 T02070130,M
SBD,2016-08-23 11:54,68.18,56.48,66.19,0.00,0.00,0.00,29.98,M,10.00,M,CLR,M,M,M,M,M,M,M,M,M,M,M,M,M,M,68.18,KSBD 231154Z AUTO 00000KT 10SM CLR 20/14 A2998 RMK AO2 T02010136,M
SBD,2016-08-23 12:13,68.90,55.76,62.91,0.00,0.00,0.00,29.99,M,10.00,M,CLR,M,M,M,M,M,M,M,M,M,M,M,M,M,M,68.90,KSBD 231213Z AUTO 00000KT 10SM CLR 21/13 A2999 RMK AO2 T02050132,M
SBD,2016-08-23 12:34,68.90,55.04,61.28,0.00,0.00,0.00,29.99,M,10.00,M,CLR,M,M,M,M,M,M,M,M,M,M,M,M,M,M,68.90,KSBD 231234Z AUTO 00000KT 10SM CLR 21/13 A2999 RMK AO2 T02050128,M
SBD,2016-08-23 12:54,68.00,54.50,61.98,0.00,0.00,0.00,29.99,M,10.00,M,CLR,M,M,M,M,M,M,M,M,M,M,M,M,M,M,68.00,KSBD 231254Z AUTO 00000KT 10SM CLR 20/13 A2999 RMK AO2 T02000125,M
SBD,2016-08-23 13:14,67.64,55.58,65.27,0.00,0.00,0.00,30.00,M,10.00,M,CLR,M,M,M,M,M,M,M,M,M,M,M,M,M,M,67.64,KSBD 231314Z AUTO 00000KT 10SM CLR 20/13 A3000 RMK AO2 T01980131,M
SBD,2016-08-23 13:34,68.36,54.86,62.02,0.00,0.00,0.00,30.00,M,10.00,M,CLR,M,M,M,M,M,M,M,M,M,M,M,M,M,M,68.36,KSBD 231334Z AUTO 00000KT 10SM CLR 20/13 A3000 RMK AO2 T02020127,M
SBD,2016-08-23 13:54,64.94,54.50,68.91,0.00,0.00,0.00,30.01,M,10.00,M,CLR,M,M,M,M,M,M,M,M,M,M,M,M,M,M,64.94,KSBD 231354Z AUTO 00000KT 10SM CLR 18/13 A3001 RMK AO2 T01830125,M
SBD,2016-08-23 14:00,64.40,55.40,72.56,0.00,0.00,0.00,30.01,M,7.00,M,CLR,M,M,M,M,M,M,M,M,M,M,M,M,M,M,64.40,KSBD 231400Z 00000KT 7SM SKC 18/13 A3001,M
SBD,2016-08-23 14:45,71.60,55.40,56.63,0.00,0.00,0.00,30.03,M,7.00,M,CLR,M,M,M,M,M,M,M,M,M,M,M,M,M,M,71.60,KSBD 231445Z 00000KT 7SM SKC 22/13 A3003,M
SBD,2016-08-23 16:46,80.60,53.60,39.30,0.00,0.00,0.00,30.05,M,7.00,M,CLR,M,M,M,M,M,M,M,M,M,M,M,M,M,M,80.60,KSBD 231646Z 00000KT 7SM SKC 27/12 A3005,M
SBD,2016-08-23 18:46,89.60,44.60,21.04,250.00,5.00,0.00,30.04,M,7.00,M,CLR,M,M,M,M,M,M,M,M,M,M,M,M,M,M,86.07,KSBD 231846Z 25005KT 07SM SKC 32/07 A3004,M
SBD,2016-08-23 19:49,91.40,44.60,19.89,240.00,8.00,0.00,30.03,M,7.00,M,CLR,M,M,M,M,M,M,M,M,M,M,M,M,M,M,87.68,KSBD 231949Z 24008KT 7SM SKC 33/07 A3003,M
SBD,2016-08-23 20:50,93.20,39.20,15.27,270.00,10.00,0.00,30.02,M,7.00,M,CLR,M,M,M,M,M,M,M,M,M,M,M,M,M,M,88.92,KSBD 232050Z 27010KT 7SM SKC 34/04 A3002,M
SBD,2016-08-23 21:50,95.00,44.60,17.78,260.00,9.00,0.00,30.00,M,6.00,M,CLR,M,M,M,M,M,M,M,HZ,M,M,M,M,M,M,91.06,KSBD 232150Z 26009KT 6SM HZ SKC 35/07 A3000,M
SBD,2016-08-23 22:50,95.00,41.00,15.49,280.00,7.00,0.00,29.99,M,6.00,M,CLR,M,M,M,M,M,M,M,HZ,M,M,M,M,M,M,90.70,KSBD 232250Z 28007KT 06SM HZ SKC 35/05 A2999,M
SBD,2016-08-23 23:47,93.20,41.00,16.37,240.00,8.00,0.00,29.98,M,6.00,M,CLR,M,M,M,M,M,M,M,HZ,M,M,M,M,M,M,89.03,KSBD 232347Z 24008KT 06SM HZ SKC 34/05 A2998,M
SBD,2016-08-24 00:50,93.20,39.20,15.27,250.00,9.00,0.00,29.98,M,6.00,M,CLR,M,M,M,M,M,M,M,HZ,M,M,M,M,M,M,88.92,KSBD 240050Z 25009KT 6SM HZ SKC 34/04 A2998,M
SBD,2016-08-24 01:50,89.60,42.80,19.64,230.00,10.00,0.00,29.99,M,7.00,M,CLR,M,M,M,M,M,M,M,M,M,M,M,M,M,M,85.93,KSBD 240150Z 23010KT 7SM SKC 32/06 A2999,M
SBD,2016-08-24 02:50,84.20,46.40,26.76,240.00,9.00,0.00,30.01,M,7.00,M,CLR,M,M,M,M,M,M,M,M,M,M,M,M,M,M,81.87,KSBD 240250Z 24009KT 7SM SKC 29/08 A3001,M
SBD,2016-08-24 03:50,82.40,48.20,30.35,230.00,4.00,0.00,30.03,M,6.00,M,CLR,M,M,M,M,M,M,M,HZ,M,M,M,M,M,M,80.80,KSBD 240350Z 23004KT 6SM HZ SKC 28/09 A3003 RMK LAST,M
SBD,2016-08-24 04:14,80.06,51.08,36.46,240.00,5.00,0.00,30.04,M,10.00,M,CLR,M,M,M,M,M,M,M,M,M,M,M,M,M,M,80.06,KSBD 240414Z AUTO 24005KT 10SM CLR 27/11 A3004 RMK AO2 T02670106,M
SBD,2016-08-24 04:33,79.34,52.16,38.85,250.00,4.00,0.00,30.04,M,10.00,M,CLR,M,M,M,M,M,M,M,M,M,M,M,M,M,M,79.34,KSBD 240433Z AUTO 25004KT 10SM CLR 26/11 A3004 RMK AO2 T02630112,M
SBD,2016-08-24 04:54,77.90,53.42,42.67,250.00,4.00,0.00,30.05,M,10.00,M,CLR,M,M,M,M,M,M,M,M,M,M,M,M,M,M,77.90,KSBD 240454Z AUTO 25004KT 10SM CLR 26/12 A3005 RMK AO2 T02550119,M
SBD,2016-08-24 05:14,77.90,54.14,43.81,250.00,4.00,0.00,30.05,M,10.00,M,CLR,M,M,M,M,M,M,M,M,M,M,M,M,M,M,77.90,KSBD 240514Z AUTO 25004KT 10SM CLR 26/12 A3005 RMK AO2 T02550123,M
SBD,2016-08-24 05:33,77.00,54.50,45.73,260.00,3.00,0.00,30.05,M,10.00,M,CLR,M,M,M,M,M,M,M,M,M,M,M,M,M,M,77.00,KSBD 240533Z AUTO 26003KT 10SM CLR 25/13 A3005 RMK AO2 T02500125,M
SBD,2016-08-24 05:54,76.28,54.86,47.45,250.00,5.00,0.00,30.05,M,10.00,M,CLR,M,M,M,M,M,M,M,M,M,M,M,M,M,M,76.28,KSBD 240554Z AUTO 25005KT 10SM CLR 25/13 A3005 RMK AO2 T02460127,M
SBD,2016-08-24 06:14,75.56,55.76,50.22,270.00,3.00,0.00,30.06,M,10.00,M,CLR,M,M,M,M,M,M,M,M,M,M,M,M,M,M,75.56,KSBD 240614Z AUTO 27003KT 10SM CLR 24/13 A3006 RMK AO2 T02420132,M
SBD,2016-08-24 06:34,74.84,55.94,51.78,260.00,4.00,0.00,30.06,M,10.00,M,CLR,M,M,M,M,M,M,M,M,M,M,M,M,M,M,74.84,KSBD 240634Z AUTO 26004KT 10SM CLR 24/13 A3006 RMK AO2 T02380133,M
SBD,2016-08-24 06:54,74.30,56.30,53.42,260.00,3.00,0.00,30.05,M,10.00,M,CLR,M,M,M,M,M,M,M,M,M,M,M,M,M,M,74.30,KSBD 240654Z AUTO 26003KT 10SM CLR 24/14 A3005 RMK AO2 T02350135,M
SBD,2016-08-24 07:14,74.30,56.30,53.42,240.00,3.00,0.00,30.06,M,10.00,M,CLR,M,M,M,M,M,M,M,M,M,M,M,M,M,M,74.30,KSBD 240714Z AUTO 24003KT 10SM CLR 24/14 A3006 RMK AO2 T02350135,M
SBD,2016-08-24 07:34,73.94,56.30,54.07,270.00,4.00,0.00,30.05,M,10.00,M,CLR,M,M,M,M,M,M,M,M,M,M,M,M,M,M,73.94,KSBD 240734Z AUTO 27004KT 10SM CLR 23/14 A3005 RMK AO2 T02330135,M
SBD,2016-08-24 07:54,74.12,56.30,53.74,0.00,0.00,0.00,30.05,M,10.00,M,CLR,M,M,M,M,M,M,M,M,M,M,M,M,M,M,74.12,KSBD 240754Z AUTO 00000KT 10SM CLR 23/14 A3005 RMK AO2 T02340135,M
SBD,2016-08-24 08:14,73.94,56.30,54.07,0.00,0.00,0.00,30.05,M,10.00,M,CLR,M,M,M,M,M,M,M,M,M,M,M,M,M,M,73.94,KSBD 240814Z AUTO 00000KT 10SM CLR 23/14 A3005 RMK AO2 T02330135,M
SBD,2016-08-24 08:34,72.68,56.30,56.41,0.00,0.00,0.00,30.05,M,10.00,M,CLR,M,M,M,M,M,M,M,M,M,M,M,M,M,M,72.68,KSBD 240834Z AUTO 00000KT 10SM CLR 23/14 A3005 RMK AO2 T02260135,M
SBD,2016-08-24 08:54,73.04,54.14,51.52,0.00,0.00,0.00,30.04,M,10.00,M,CLR,M,M,M,M,M,M,M,M,M,M,M,M,M,M,73.04,KSBD 240854Z AUTO 00000KT 10SM CLR 23/12 A3004 RMK AO2 T02280123,M
SBD,2016-08-24 09:14,71.42,51.62,49.61,0.00,0.00,0.00,30.04,M,10.00,M,CLR,M,M,M,M,M,M,M,M,M,M,M,M,M,M,71.42,KSBD 240914Z AUTO 00000KT 10SM CLR 22/11 A3004 RMK AO2 T02190109,M
SBD,2016-08-24 09:34,71.42,51.44,49.28,0.00,0.00,0.00,30.04,M,10.00,M,CLR,M,M,M,M,M,M,M,M,M,M,M,M,M,M,71.42,KSBD 240934Z AUTO 00000KT 10SM CLR 22/11 A3004 RMK AO2 T02190108,M
SBD,2016-08-24 09:54,69.62,51.08,51.70,0.00,0.00,0.00,30.04,M,10.00,M,CLR,M,M,M,M,M,M,M,M,M,M,M,M,M,M,69.62,KSBD 240954Z AUTO 00000KT 10SM CLR 21/11 A3004 RMK AO2 T02090106,M
SBD,2016-08-24 10:14,69.80,51.44,52.08,0.00,0.00,0.00,30.04,M,10.00,M,CLR,M,M,M,M,M,M,M,M,M,M,M,M,M,M,69.80,KSBD 241014Z AUTO 00000KT 10SM CLR 21/11 A3004 RMK AO2 T02100108,M
SBD,2016-08-24 10:34,69.08,51.80,54.09,0.00,0.00,0.00,30.04,M,10.00,M,CLR,M,M,M,M,M,M,M,M,M,M,M,M,M,M,69.08,KSBD 241034Z AUTO 00000KT 10SM CLR 21/11 A3004 RMK AO2 T02060110,M
SBD,2016-08-24 10:54,69.62,51.62,52.75,0.00,0.00,0.00,30.03,M,10.00,M,CLR,M,M,M,M,M,M,M,M,M,M,M,M,M,M,69.62,KSBD 241054Z AUTO 00000KT 10SM CLR 21/11 A3003 RMK AO2 T02090109,M
SBD,2016-08-24 11:14,69.98,52.16,53.15,0.00,0.00,0.00,30.03,M,10.00,M,CLR,M,M,M,M,M,M,M,M,M,M,M,M,M,M,69.98,KSBD 241114Z AUTO 00000KT 10SM CLR 21/11 A3003 RMK AO2 T02110112,M
SBD,2016-08-24 11:34,69.08,51.98,54.45,0.00,0.00,0.00,30.03,M,10.00,M,CLR,M,M,M,M,M,M,M,M,M,M,M,M,M,M,69.08,KSBD 241134Z AUTO 00000KT 10SM CLR 21/11 A3003 RMK AO2 T02060111,M
SBD,2016-08-24 11:54,69.08,52.34,55.18,0.00,0.00,0.00,30.03,M,10.00,M,CLR,M,M,M,M,M,M,M,M,M,M,M,M,M,M,69.08,KSBD 241154Z AUTO 00000KT 10SM CLR 21/11 A3003 RMK AO2 T02060113,M
SBD,2016-08-24 12:14,69.26,52.70,55.57,0.00,0.00,0.00,30.04,M,10.00,M,CLR,M,M,M,M,M,M,M,M,M,M,M,M,M,M,69.26,KSBD 241214Z AUTO 00000KT 10SM CLR 21/12 A3004 RMK AO2 T02070115,M
SBD,2016-08-24 12:33,68.90,52.88,56.63,0.00,0.00,0.00,30.04,M,10.00,M,CLR,M,M,M,M,M,M,M,M,M,M,M,M,M,M,68.90,KSBD 241233Z AUTO 00000KT 10SM CLR 21/12 A3004 RMK AO2 T02050116,M
SBD,2016-08-24 12:54,66.92,51.80,58.26,0.00,0.00,0.00,30.04,M,10.00,M,CLR,M,M,M,M,M,M,M,M,M,M,M,M,M,M,66.92,KSBD 241254Z AUTO 00000KT 10SM CLR 19/11 A3004 RMK AO2 T01940110,M
SBD,2016-08-24 13:14,68.36,52.70,57.31,0.00,0.00,0.00,30.04,M,10.00,M,CLR,M,M,M,M,M,M,M,M,M,M,M,M,M,M,68.36,KSBD 241314Z AUTO 00000KT 10SM CLR 20/12 A3004 RMK AO2 T02020115,M
SBD,2016-08-24 13:33,68.00,52.88,58.41,0.00,0.00,0.00,30.05,M,10.00,M,CLR,M,M,M,M,M,M,M,M,M,M,M,M,M,M,68.00,KSBD 241333Z AUTO 00000KT 10SM CLR 20/12 A3005 RMK AO2 T02000116,M
SBD,2016-08-24 13:54,67.82,52.88,58.77,0.00,0.00,0.00,30.05,M,10.00,M,CLR,M,M,M,M,M,M,M,M,M,M,M,M,M,M,67.82,KSBD 241354Z AUTO 00000KT 10SM CLR 20/12 A3005 RMK AO2 T01990116,M
SBD,2016-08-24 14:00,64.40,55.40,72.56,0.00,0.00,0.00,30.05,M,7.00,M,CLR,M,M,M,M,M,M,M,M,M,M,M,M,M,M,64.40,KSBD 241400Z 00000KT 7SM SKC 18/13 A3005,M
SBD,2016-08-24 14:45,71.60,55.40,56.63,0.00,0.00,0.00,30.06,M,6.00,M,CLR,M,M,M,M,M,M,M,HZ,M,M,M,M,M,M,71.60,KSBD 241445Z 00000KT 6SM HZ SKC 22/13 A3006,M
SBD,2016-08-24 15:45,75.20,53.60,46.98,0.00,0.00,0.00,30.06,M,6.00,M,CLR,M,M,M,M,M,M,M,HZ,M,M,M,M,M,M,75.20,KSBD 241545Z 00000KT 6SM HZ SKC 24/12 A3006,M
SBD,2016-08-24 16:50,80.60,55.40,41.97,0.00,0.00,0.00,30.06,M,5.00,M,CLR,M,M,M,M,M,M,M,HZ,M,M,M,M,M,M,80.53,KSBD 241650Z 00000KT 5SM HZ SKC 27/13 A3006,M
SBD,2016-08-24 17:50,86.00,53.60,33.01,0.00,0.00,0.00,30.04,M,5.00,M,CLR,M,M,M,M,M,M,M,HZ,M,M,M,M,M,M,84.18,KSBD 241750Z 00000KT 5SM HZ SKC 30/12 A3004,M
SBD,2016-08-24 18:50,89.60,46.40,22.53,300.00,5.00,0.00,30.02,M,5.00,M,CLR,M,M,M,M,M,M,M,HZ,M,M,M,M,M,M,86.24,KSBD 241850Z 30005KT 5SM HZ SKC 32/08 A3002,M
SBD,2016-08-24 19:51,93.20,46.40,20.13,240.00,8.00,0.00,30.00,M,5.00,M,CLR,M,M,M,M,M,M,M,HZ,M,M,M,M,M,M,89.55,KSBD 241951Z 24008KT 5SM HZ SKC 34/08 A3000,M
SBD,2016-08-24 20:48,95.00,46.40,19.04,250.00,5.00,0.00,29.98,M,5.00,M,CLR,M,M,M,M,M,M,M,M,M,M,M,M,M,M,91.29,KSBD 242048Z 25005KT 5SM SKC 35/08 A2998,M
SBD,2016-08-24 21:47,96.80,44.60,16.83,260.00,8.00,0.00,29.96,M,7.00,M,CLR,M,M,M,M,M,M,M,M,M,M,M,M,M,M,92.79,KSBD 242147Z 26008KT 7SM SKC 36/07 A2996,M
SBD,2016-08-25 00:47,93.20,71.60,49.62,260.00,11.00,0.00,29.92,M,7.00,M,CLR,M,M,M,M,M,M,M,M,M,M,M,M,M,M,100.88,KSBD 250047Z 26011KT 7SM SKC 34/22 A2992,M
SBD,2016-08-25 01:50,89.60,55.40,31.45,240.00,11.00,0.00,29.92,M,7.00,M,CLR,M,M,M,M,M,M,M,M,M,M,M,M,M,M,87.78,KSBD 250150Z 24011KT 7SM SKC 32/13 A2992,M
SBD,2016-08-25 02:48,84.20,57.20,39.86,270.00,7.00,0.00,29.94,M,7.00,M,CLR,M,M,M,M,M,M,M,M,M,M,M,M,M,M,84.20,KSBD 250248Z 27007KT 7SM SKC 29/14 A2994,M
SBD,2016-08-25 03:48,80.60,57.20,44.80,230.00,6.00,0.00,29.97,M,7.00,M,CLR,M,M,M,M,M,M,M,M,M,M,M,M,M,M,80.81,KSBD 250348Z 23006KT 7SM SKC 27/14 A2997,M
SBD,2016-08-25 04:13,79.88,55.58,43.25,250.00,6.00,0.00,29.97,M,10.00,M,CLR,M,M,M,M,M,M,M,M,M,M,M,M,M,M,79.88,KSBD 250413Z AUTO 25006KT 10SM CLR 27/13 A2997 RMK AO2 T02660131,M
SBD,2016-08-25 04:34,78.98,55.22,43.97,260.00,6.00,0.00,29.98,M,10.00,M,CLR,M,M,M,M,M,M,M,M,M,M,M,M,M,M,78.98,KSBD 250434Z AUTO 26006KT 10SM CLR 26/13 A2998 RMK AO2 T02610129,M
SBD,2016-08-25 04:54,78.26,55.40,45.32,250.00,4.00,0.00,29.98,M,10.00,M,CLR,M,M,M,M,M,M,M,M,M,M,M,M,M,M,78.26,KSBD 250454Z AUTO 25004KT 10SM CLR 26/13 A2998 RMK AO2 T02570130,M
SBD,2016-08-25 05:13,77.36,55.40,46.69,250.00,6.00,0.00,29.98,M,10.00,M,CLR,M,M,M,M,M,M,M,M,M,M,M,M,M,M,77.36,KSBD 250513Z AUTO 25006KT 10SM CLR 25/13 A2998 RMK AO2 T02520130,M
SBD,2016-08-25 05:34,76.46,55.40,48.11,250.00,5.00,0.00,29.99,M,10.00,M,CLR,M,M,M,M,M,M,M,M,M,M,M,M,M,M,76.46,KSBD 250534Z AUTO 25005KT 10SM CLR 25/13 A2999 RMK AO2 T02470130,M
SBD,2016-08-25 05:54,75.92,55.40,48.98,250.00,4.00,0.00,29.98,M,10.00,M,CLR,M,M,M,M,M,M,M,M,M,M,M,M,M,M,75.92,KSBD 250554Z AUTO 25004KT 10SM CLR 24/13 A2998 RMK AO2 T02440130,M
SBD,2016-08-25 06:13,74.66,55.40,51.08,260.00,3.00,0.00,29.97,M,10.00,M,CLR,M,M,M,M,M,M,M,M,M,M,M,M,M,M,74.66,KSBD 250613Z AUTO 26003KT 10SM CLR 24/13 A2997 RMK AO2 T02370130,M
SBD,2016-08-25 06:34,73.94,55.40,52.33,260.00,4.00,0.00,29.97,M,10.00,M,CLR,M,M,M,M,M,M,M,M,M,M,M,M,M,M,73.94,KSBD 250634Z AUTO 26004KT 10SM CLR 23/13 A2997 RMK AO2 T02330130,M
SBD,2016-08-25 06:54,73.22,55.94,54.67,250.00,4.00,0.00,29.98,M,10.00,M,CLR,M,M,M,M,M,M,M,M,M,M,M,M,M,M,73.22,KSBD 250654Z AUTO 25004KT 10SM CLR 23/13 A2998 RMK AO2 T02290133,M
SBD,2016-08-25 07:13,72.86,56.30,56.07,260.00,3.00,0.00,29.97,M,10.00,M,CLR,M,M,M,M,M,M,M,M,M,M,M,M,M,M,72.86,KSBD 250713Z AUTO 26003KT 10SM CLR 23/14 A2997 RMK AO2 T02270135,M
SBD,2016-08-25 07:34,73.04,56.66,56.46,0.00,0.00,0.00,29.97,M,10.00,M,CLR,M,M,M,M,M,M,M,M,M,M,M,M,M,M,73.04,KSBD 250734Z AUTO 00000KT 10SM CLR 23/14 A2997 RMK AO2 T02280137,M
SBD,2016-08-25 07:54,72.50,56.48,57.12,260.00,3.00,0.00,29.97,M,10.00,M,CLR,M,M,M,M,M,M,M,M,M,M,M,M,M,M,72.50,KSBD 250754Z AUTO 26003KT 10SM CLR 23/14 A2997 RMK AO2 T02250136,M
SBD,2016-08-25 08:13,71.78,56.48,58.53,0.00,0.00,0.00,29.97,M,10.00,M,CLR,M,M,M,M,M,M,M,M,M,M,M,M,M,M,71.78,KSBD 250813Z AUTO 00000KT 10SM CLR 22/14 A2997 RMK AO2 T02210136,M
SBD,2016-08-25 08:34,71.96,56.66,58.56,0.00,0.00,0.00,29.96,M,10.00,M,CLR,M,M,M,M,M,M,M,M,M,M,M,M,M,M,71.96,KSBD 250834Z AUTO 00000KT 10SM CLR 22/14 A2996 RMK AO2 T02220137,M
SBD,2016-08-25 08:54,71.60,56.48,58.89,0.00,0.00,0.00,29.96,M,10.00,M,CLR,M,M,M,M,M,M,M,M,M,M,M,M,M,M,71.60,KSBD 250854Z AUTO 00000KT 10SM CLR 22/14 A2996 RMK AO2 T02200136,M
SBD,2016-08-25 09:13,70.70,56.30,60.33,280.00,3.00,0.00,29.96,M,10.00,M,CLR,M,M,M,M,M,M,M,M,M,M,M,M,M,M,70.70,KSBD 250913Z AUTO 28003KT 10SM CLR 22/14 A2996 RMK AO2 T02150135,M
SBD,2016-08-25 09:34,70.34,56.48,61.47,0.00,0.00,0.00,29.96,M,10.00,M,CLR,M,M,M,M,M,M,M,M,M,M,M,M,M,M,70.34,KSBD 250934Z AUTO 00000KT 10SM CLR 21/14 A2996 RMK AO2 T02130136,M
SBD,2016-08-25 09:54,70.70,56.84,61.51,0.00,0.00,0.00,29.96,M,10.00,M,CLR,M,M,M,M,M,M,M,M,M,M,M,M,M,M,70.70,KSBD 250954Z AUTO 00000KT 10SM CLR 22/14 A2996 RMK AO2 T02150138,M
SBD,2016-08-25 10:13,70.70,56.66,61.12,0.00,0.00,0.00,29.96,M,10.00,M,CLR,M,M,M,M,M,M,M,M,M,M,M,M,M,M,70.70,KSBD 251013Z AUTO 00000KT 10SM CLR 22/14 A2996 RMK AO2 T02150137,M
SBD,2016-08-25 10:34,70.16,55.58,59.86,0.00,0.00,0.00,29.96,M,10.00,M,CLR,M,M,M,M,M,M,M,M,M,M,M,M,M,M,70.16,KSBD 251034Z AUTO 00000KT 10SM CLR 21/13 A2996 RMK AO2 T02120131,M
SBD,2016-08-25 10:54,69.80,55.40,60.21,0.00,0.00,0.00,29.95,M,10.00,M,CLR,M,M,M,M,M,M,M,M,M,M,M,M,M,M,69.80,KSBD 251054Z AUTO 00000KT 10SM CLR 21/13 A2995 RMK AO2 T02100130,M
SBD,2016-08-25 11:13,69.08,55.58,62.12,0.00,0.00,0.00,29.95,M,10.00,M,CLR,M,M,M,M,M,M,M,M,M,M,M,M,M,M,69.08,KSBD 251113Z AUTO 00000KT 10SM CLR 21/13 A2995 RMK AO2 T02060131,M
SBD,2016-08-25 11:34,67.64,54.86,63.58,0.00,0.00,0.00,29.95,M,10.00,M,CLR,M,M,M,M,M,M,M,M,M,M,M,M,M,M,67.64,KSBD 251134Z AUTO 00000KT 10SM CLR 20/13 A2995 RMK AO2 T01980127,M
SBD,2016-08-25 11:54,68.00,55.22,63.63,0.00,0.00,0.00,29.95,M,10.00,M,CLR,M,M,M,M,M,M,M,M,M,M,M,M,M,M,68.00,KSBD 251154Z AUTO 00000KT 10SM CLR 20/13 A2995 RMK AO2 T02000129,M
SBD,2016-08-25 12:14,68.00,55.04,63.21,0.00,0.00,0.00,29.95,M,10.00,M,CLR,M,M,M,M,M,M,M,M,M,M,M,M,M,M,68.00,KSBD 251214Z AUTO 00000KT 10SM CLR 20/13 A2995 RMK AO2 T02000128,M
SBD,2016-08-25 12:34,68.54,55.04,62.05,0.00,0.00,0.00,29.96,M,10.00,M,CLR,M,M,M,M,M,M,M,M,M,M,M,M,M,M,68.54,KSBD 251234Z AUTO 00000KT 10SM CLR 20/13 A2996 RMK AO2 T02030128,M
SBD,2016-08-25 12:54,68.00,55.40,64.04,0.00,0.00,0.00,29.96,M,10.00,M,CLR,M,M,M,M,M,M,M,M,M,M,M,M,M,M,68.00,KSBD 251254Z AUTO 00000KT 10SM CLR 20/13 A2996 RMK AO2 T02000130,M
SBD,2016-08-25 13:14,67.82,57.20,68.78,0.00,0.00,0.00,29.96,M,10.00,M,CLR,M,M,M,M,M,M,M,M,M,M,M,M,M,M,67.82,KSBD 251314Z AUTO 00000KT 10SM CLR 20/14 A2996 RMK AO2 T01990140,M
SBD,2016-08-25 13:34,67.46,57.20,69.64,0.00,0.00,0.00,29.97,M,10.00,M,CLR,M,M,M,M,M,M,M,M,M,M,M,M,M,M,67.46,KSBD 251334Z AUTO 00000KT 10SM CLR 20/14 A2997 RMK AO2 T01970140,M
SBD,2016-08-25 13:50,66.20,57.20,72.74,0.00,0.00,0.00,29.97,M,5.00,M,CLR,M,M,M,M,M,M,M,HZ,M,M,M,M,M,M,66.20,KSBD 251350Z 00000KT 5SM HZ SKC 19/14 A2997,M
SBD,2016-08-25 13:53,67.46,57.20,69.64,0.00,0.00,0.00,29.97,M,10.00,M,CLR,M,M,M,M,M,M,M,M,M,M,M,M,M,M,67.46,KSBD 251353Z AUTO 00000KT 10SM CLR 20/14 A2997 RMK AO2 T01970140,M
SBD,2016-08-25 14:50,69.80,57.20,64.26,0.00,0.00,0.00,29.98,M,4.00,M,CLR,M,M,M,M,M,M,M,HZ,M,M,M,M,M,M,69.80,KSBD 251450Z 00000KT 4SM HZ SKC 21/14 A2998,M
SBD,2016-08-25 15:50,73.40,57.20,56.88,0.00,0.00,0.00,29.99,M,4.00,M,CLR,M,M,M,M,M,M,M,HZ,M,M,M,M,M,M,73.40,KSBD 251550Z 00000KT 4SM HZ SKC 23/14 A2999,M
SBD,2016-08-25 16:50,78.80,55.40,44.52,0.00,0.00,0.00,29.98,M,4.00,M,CLR,M,M,M,M,M,M,M,HZ,M,M,M,M,M,M,78.80,KSBD 251650Z 00000KT 4SM HZ SKC 26/13 A2998,M
SBD,2016-08-25 17:50,82.40,53.60,37.07,0.00,0.00,0.00,29.97,M,5.00,M,CLR,M,M,M,M,M,M,M,HZ,M,M,M,M,M,M,82.40,KSBD 251750Z 00000KT 5SM HZ SKC 28/12 A2997,M
SBD,2016-08-25 18:48,86.00,50.00,28.90,230.00,5.00,0.00,29.95,M,5.00,M,CLR,M,M,M,M,M,M,M,HZ,M,M,M,M,M,M,83.62,KSBD 251848Z 23005KT 5SM HZ SKC 30/10 A2995,M
SBD,2016-08-25 19:50,91.40,50.00,24.37,330.00,10.00,0.00,29.92,M,6.00,M,CLR,M,M,M,M,M,M,M,HZ,M,M,M,M,M,M,88.36,KSBD 251950Z 33010KT 6SM HZ SKC 33/10 A2992,M
SBD,2016-08-25 20:50,93.20,50.00,23.04,280.00,5.00,0.00,29.89,M,5.00,M,CLR,M,M,M,M,M,M,M,HZ,M,M,M,M,M,M,90.10,KSBD 252050Z 28005KT 5SM HZ SKC 34/10 A2989,M
SBD,2016-08-25 21:47,95.00,51.80,23.30,230.00,7.00,0.00,29.87,M,5.00,M,CLR,M,M,M,M,M,M,M,M,M,M,M,M,M,M,92.26,KSBD 252147Z 23007KT 5SM SKC 35/11 A2987,M
SBD,2016-08-25 22:47,95.00,53.60,24.89,240.00,12.00,0.00,29.86,M,5.00,M,CLR,M,M,M,M,M,M,M,HZ,M,M,M,M,M,M,92.71,KSBD 252247Z 24012KT 5SM HZ SKC 35/12 A2986,M
SBD,2016-08-26 01:50,82.40,55.40,39.58,240.00,8.00,0.00,29.89,M,5.00,M,CLR,M,M,M,M,M,M,M,HZ,M,M,M,M,M,M,82.40,KSBD 260150Z 24008KT 5SM HZ SKC 28/13 A2989,M
SBD,2016-08-26 02:48,77.00,57.20,50.43,230.00,7.00,0.00,29.90,M,5.00,M,CLR,M,M,M,M,M,M,M,HZ,M,M,M,M,M,M,77.00,KSBD 260248Z 23007KT 5SM HZ SKC 25/14 A2990,M
SBD,2016-08-26 03:47,75.20,57.20,53.55,230.00,4.00,0.00,29.92,M,5.00,M,CLR,M,M,M,M,M,M,M,HZ,M,M,M,M,M,M,75.20,KSBD 260347Z 23004KT 5SM HZ SKC 24/14 A2992,M
SBD,2016-08-26 04:14,73.40,57.74,57.99,250.00,6.00,0.00,29.93,M,10.00,M,CLR,M,M,M,M,M,M,M,M,M,M,M,M,M,M,73.40,KSBD 260414Z AUTO 25006KT 10SM CLR 23/14 A2993 RMK AO2 T02300143,M
SBD,2016-08-26 04:34,72.50,57.56,59.39,250.00,6.00,0.00,29.93,M,10.00,M,CLR,M,M,M,M,M,M,M,M,M,M,M,M,M,M,72.50,KSBD 260434Z AUTO 25006KT 10SM CLR 23/14 A2993 RMK AO2 T02250142,M
SBD,2016-08-26 04:53,71.96,57.38,60.10,250.00,5.00,0.00,29.93,M,10.00,M,CLR,M,M,M,M,M,M,M,M,M,M,M,M,M,M,71.96,KSBD 260453Z AUTO 25005KT 10SM CLR 22/14 A2993 RMK AO2 T02220141,M
SBD,2016-08-26 05:14,70.88,57.38,62.34,260.00,6.00,0.00,29.93,M,10.00,M,CLR,M,M,M,M,M,M,M,M,M,M,M,M,M,M,70.88,KSBD 260514Z AUTO 26006KT 10SM CLR 22/14 A2993 RMK AO2 T02160141,M
SBD,2016-08-26 05:34,70.34,57.38,63.50,260.00,5.00,0.00,29.93,M,10.00,M,CLR,M,M,M,M,M,M,M,M,M,M,M,M,M,M,70.34,KSBD 260534Z AUTO 26005KT 10SM CLR 21/14 A2993 RMK AO2 T02130141,M
SBD,2016-08-26 05:53,69.80,57.20,64.26,250.00,3.00,0.00,29.93,M,10.00,M,CLR,M,M,M,M,M,M,M,M,M,M,M,M,M,M,69.80,KSBD 260553Z AUTO 25003KT 10SM CLR 21/14 A2993 RMK AO2 T02100140,M
SBD,2016-08-26 06:14,69.26,57.20,65.46,260.00,3.00,0.00,29.93,M,10.00,M,CLR,M,M,M,M,M,M,M,M,M,M,M,M,M,M,69.26,KSBD 260614Z AUTO 26003KT 10SM CLR 21/14 A2993 RMK AO2 T02070140,M
SBD,2016-08-26 06:34,68.72,57.20,66.68,250.00,4.00,0.00,29.93,M,10.00,M,CLR,M,M,M,M,M,M,M,M,M,M,M,M,M,M,68.72,KSBD 260634Z AUTO 25004KT 10SM CLR 20/14 A2993 RMK AO2 T02040140,M
SBD,2016-08-26 06:53,68.18,57.20,67.93,260.00,5.00,0.00,29.93,M,10.00,M,CLR,M,M,M,M,M,M,M,M,M,M,M,M,M,M,68.18,KSBD 260653Z AUTO 26005KT 10SM CLR 20/14 A2993 RMK AO2 T02010140,M
SBD,2016-08-26 07:14,68.00,57.20,68.35,250.00,5.00,0.00,29.94,M,10.00,M,CLR,M,M,M,M,M,M,M,M,M,M,M,M,M,M,68.00,KSBD 260714Z AUTO 25005KT 10SM CLR 20/14 A2994 RMK AO2 T02000140,M
SBD,2016-08-26 07:34,67.46,57.92,71.47,260.00,5.00,0.00,29.93,M,10.00,M,CLR,M,M,M,M,M,M,M,M,M,M,M,M,M,M,67.46,KSBD 260734Z AUTO 26005KT 10SM CLR 20/14 A2993 RMK AO2 T01970144,M
SBD,2016-08-26 07:53,66.92,57.56,71.87,240.00,3.00,0.00,29.94,M,10.00,M,CLR,M,M,M,M,M,M,M,M,M,M,M,M,M,M,66.92,KSBD 260753Z AUTO 24003KT 10SM CLR 19/14 A2994 RMK AO2 T01940142,M
SBD,2016-08-26 08:14,66.38,57.92,74.19,250.00,6.00,0.00,29.94,M,10.00,M,CLR,M,M,M,M,M,M,M,M,M,M,M,M,M,M,66.38,KSBD 260814Z AUTO 25006KT 10SM CLR 19/14 A2994 RMK AO2 T01910144,M
SBD,2016-08-26 08:34,65.84,58.10,76.08,250.00,5.00,0.00,29.94,M,10.00,M,CLR,M,M,M,M,M,M,M,M,M,M,M,M,M,M,65.84,KSBD 260834Z AUTO 25005KT 10SM CLR 19/15 A2994 RMK AO2 T01880145,M
SBD,2016-08-26 08:53,64.76,57.92,78.49,250.00,4.00,0.00,29.93,M,10.00,M,CLR,M,M,M,M,M,M,M,M,M,M,M,M,M,M,64.76,KSBD 260853Z AUTO 25004KT 10SM CLR 18/14 A2993 RMK AO2 T01820144,M
SBD,2016-08-26 09:14,64.40,57.92,79.48,260.00,4.00,0.00,29.93,M,10.00,M,CLR,M,M,M,M,M,M,M,M,M,M,M,M,M,M,64.40,KSBD 260914Z AUTO 26004KT 10SM CLR 18/14 A2993 RMK AO2 T01800144,M
SBD,2016-08-26 09:34,63.86,58.10,81.52,260.00,5.00,0.00,29.93,M,10.00,M,CLR,M,M,M,M,M,M,M,M,M,M,M,M,M,M,63.86,KSBD 260934Z AUTO 26005KT 10SM CLR 18/15 A2993 RMK AO2 T01770145,M
SBD,2016-08-26 09:53,63.50,57.74,81.50,260.00,4.00,0.00,29.93,M,10.00,M,CLR,M,M,M,M,M,M,M,M,M,M,M,M,M,M,63.50,KSBD 260953Z AUTO 26004KT 10SM CLR 18/14 A2993 RMK AO2 T01750143,M
SBD,2016-08-26 10:14,63.50,58.10,82.56,250.00,4.00,0.00,29.93,M,10.00,M,CLR,M,M,M,M,M,M,M,M,M,M,M,M,M,M,63.50,KSBD 261014Z AUTO 25004KT 10SM CLR 18/15 A2993 RMK AO2 T01750145,M
SBD,2016-08-26 10:34,62.78,57.56,83.04,260.00,5.00,0.00,29.94,M,10.00,M,CLR,M,M,M,M,M,M,M,M,M,M,M,M,M,M,62.78,KSBD 261034Z AUTO 26005KT 10SM CLR 17/14 A2994 RMK AO2 T01710142,M
SBD,2016-08-26 10:53,62.60,57.92,84.66,260.00,5.00,0.00,29.94,M,7.00,M,CLR,M,M,M,M,M,M,M,M,M,M,M,M,M,M,62.60,KSBD 261053Z AUTO 26005KT 7SM CLR 17/14 A2994 RMK AO2 T01700144,M
SBD,2016-08-26 11:14,62.24,57.74,85.19,250.00,4.00,0.00,29.94,M,7.00,M,CLR,M,M,M,M,M,M,M,M,M,M,M,M,M,M,62.24,KSBD 261114Z AUTO 25004KT 7SM CLR 17/14 A2994 RMK AO2 T01680143,M
SBD,2016-08-26 11:34,62.42,58.10,85.75,240.00,4.00,0.00,29.94,M,7.00,M,CLR,M,M,M,M,M,M,M,M,M,M,M,M,M,M,62.42,KSBD 261134Z AUTO 24004KT 7SM CLR 17/15 A2994 RMK AO2 T01690145,M
SBD,2016-08-26 11:54,62.24,58.10,86.30,250.00,3.00,0.00,29.94,M,7.00,M,BKN,M,M,M,1300.00,M,M,M,M,M,M,M,M,M,M,62.24,KSBD 261154Z AUTO 25003KT 7SM BKN013 17/15 A2994 RMK AO2 T01680145,M
SBD,2016-08-26 12:14,62.96,58.82,86.34,270.00,4.00,0.00,29.94,M,5.00,M,OVC,M,M,M,1100.00,M,M,M,BR,M,M,M,M,M,M,62.96,KSBD 261214Z AUTO 27004KT 5SM BR OVC011 17/15 A2994 RMK AO2 T01720149,M
SBD,2016-08-26 12:34,63.50,59.00,85.26,270.00,3.00,0.00,29.94,M,5.00,M,OVC,M,M,M,900.00,M,M,M,BR,M,M,M,M,M,M,63.50,KSBD 261234Z AUTO 27003KT 5SM BR OVC009 18/15 A2994 RMK AO2 T01750150,M
SBD,2016-08-26 12:53,63.50,59.00,85.26,260.00,3.00,0.00,29.95,M,5.00,M,OVC,M,M,M,900.00,M,M,M,HZ,M,M,M,M,M,M,63.50,KSBD 261253Z AUTO 26003KT 5SM HZ OVC009 18/15 A2995 RMK AO2 T01750150,M
SBD,2016-08-26 13:14,63.68,59.00,84.73,0.00,0.00,0.00,29.95,M,5.00,M,OVC,M,M,M,900.00,M,M,M,HZ,M,M,M,M,M,M,63.68,KSBD 261314Z AUTO 00000KT 5SM HZ OVC009 18/15 A2995 RMK AO2 T01760150,M
SBD,2016-08-26 13:33,63.86,59.00,84.19,0.00,0.00,0.00,29.96,M,5.00,M,OVC,M,M,M,900.00,M,M,M,HZ,M,M,M,M,M,M,63.86,KSBD 261333Z AUTO 00000KT 5SM HZ OVC009 18/15 A2996 RMK AO2 T01770150,M
SBD,2016-08-26 13:54,63.86,59.00,84.19,0.00,0.00,0.00,29.96,M,5.00,M,OVC,M,M,M,900.00,M,M,M,HZ,M,M,M,M,M,M,63.86,KSBD 261354Z AUTO 00000KT 5SM HZ OVC009 18/15 A2996 RMK AO2 T01770150,M
SBD,2016-08-26 14:00,55.40,50.00,81.99,0.00,0.00,0.00,29.96,M,2.00,M,OVC,M,M,M,900.00,M,M,M,BR,M,M,M,M,M,M,55.40,KSBD 261400Z 00000KT 2SM BR OVC009 13/10 A2996,M
SBD,2016-08-26 14:45,64.40,55.40,72.56,0.00,0.00,0.00,29.98,M,2.00,M,OVC,M,M,M,900.00,M,M,M,BR,M,M,M,M,M,M,64.40,KSBD 261445Z 00000KT 2SM BR OVC009 18/13 A2998,M
SBD,2016-08-26 15:45,66.20,59.00,77.60,0.00,0.00,0.00,29.98,M,3.00,M,OVC,M,M,M,1100.00,M,M,M,HZ,M,M,M,M,M,M,66.20,KSBD 261545Z 00000KT 3SM HZ OVC011 19/15 A2998,M
SBD,2016-08-26 16:46,68.00,59.00,72.92,0.00,0.00,0.00,30.00,M,3.00,M,OVC,M,M,M,1300.00,M,M,M,HZ,M,M,M,M,M,M,68.00,KSBD 261646Z 00000KT 3SM HZ OVC013 20/15 A3000,M
SBD,2016-08-26 17:50,73.40,57.20,56.88,0.00,0.00,0.00,30.00,M,3.00,M,FEW,M,M,M,1300.00,M,M,M,HZ,M,M,M,M,M,M,73.40,KSBD 261750Z 00000KT 3SM HZ FEW013 23/14 A3000,M
SBD,2016-08-26 18:50,77.00,57.20,50.43,280.00,5.00,0.00,29.98,M,3.00,M,CLR,M,M,M,M,M,M,M,HZ,M,M,M,M,M,M,77.00,KSBD 261850Z 28005KT 3SM HZ SKC 25/14 A2998,M
SBD,2016-08-26 20:46,82.40,53.60,37.07,230.00,8.00,0.00,29.95,M,3.00,M,FEW,M,M,M,6000.00,M,M,M,HZ,M,M,M,M,M,M,82.40,KSBD 262046Z 23008KT 03SM HZ FEW060 28/12 A2995,M
SBD,2016-08-26 21:46,86.00,48.20,27.03,230.00,7.00,0.00,29.92,M,3.00,M,FEW,M,M,M,6000.00,M,M,M,HZ,M,M,M,M,M,M,83.40,KSBD 262146Z 23007KT 03SM HZ FEW060 30/09 A2992,M
SBD,2016-08-26 22:50,89.60,48.20,24.11,270.00,7.00,0.00,29.90,M,5.00,M,FEW,M,M,M,6000.00,M,M,M,HZ,M,M,M,M,M,M,86.44,KSBD 262250Z 27007KT 5SM HZ FEW060 32/09 A2990,M
SBD,2016-08-26 23:50,87.80,48.20,25.52,260.00,10.00,0.00,29.90,M,7.00,M,CLR,M,M,M,M,M,M,M,M,M,M,M,M,M,M,84.87,KSBD 262350Z 26010KT 7SM SKC 31/09 A2990,M
SBD,2016-08-27 00:50,84.20,50.00,30.62,240.00,11.00,0.00,29.90,M,7.00,M,CLR,M,M,M,M,M,M,M,M,M,M,M,M,M,M,82.24,KSBD 270050Z 24011KT 07SM SKC 29/10 A2990,M
SBD,2016-08-27 01:50,78.80,51.80,39.02,250.00,12.00,0.00,29.91,M,7.00,M,CLR,M,M,M,M,M,M,M,M,M,M,M,M,M,M,78.80,KSBD 270150Z 25012KT 07SM SKC 26/11 A2991,M
SBD,2016-08-27 02:55,73.40,53.60,49.90,250.00,11.00,0.00,29.93,M,7.00,M,CLR,M,M,M,M,M,M,M,M,M,M,M,M,M,M,73.40,KSBD 270255Z 25011KT 07SM SKC 23/12 A2993,M
SBD,2016-08-27 03:46,71.60,55.40,56.63,250.00,8.00,0.00,29.95,M,7.00,M,CLR,M,M,M,M,M,M,M,M,M,M,M,M,M,M,71.60,KSBD 270346Z 25008KT 07SM SKC 22/13 A2995,M
SBD,2016-08-27 04:14,69.80,55.40,60.21,260.00,8.00,0.00,29.96,M,10.00,M,CLR,M,M,M,M,M,M,M,M,M,M,M,M,M,M,69.80,KSBD 270414Z AUTO 26008KT 10SM CLR 21/13 A2996 RMK AO2 T02100130,M
SBD,2016-08-27 04:34,68.90,55.40,62.09,250.00,7.00,0.00,29.97,M,10.00,M,CLR,M,M,M,M,M,M,M,M,M,M,M,M,M,M,68.90,KSBD 270434Z AUTO 25007KT 10SM CLR 21/13 A2997 RMK AO2 T02050130,M
SBD,2016-08-27 04:53,68.18,55.58,64.06,270.00,8.00,0.00,29.97,M,10.00,M,CLR,M,M,M,M,M,M,M,M,M,M,M,M,M,M,68.18,KSBD 270453Z AUTO 27008KT 10SM CLR 20/13 A2997 RMK AO2 T02010131,M
SBD,2016-08-27 05:14,67.64,55.94,66.13,250.00,5.00,0.00,29.98,M,10.00,M,CLR,M,M,M,M,M,M,M,M,M,M,M,M,M,M,67.64,KSBD 270514Z AUTO 25005KT 10SM CLR 20/13 A2998 RMK AO2 T01980133,M
SBD,2016-08-27 05:34,67.28,56.30,67.83,250.00,5.00,0.00,29.97,M,10.00,M,CLR,M,M,M,M,M,M,M,M,M,M,M,M,M,M,67.28,KSBD 270534Z AUTO 25005KT 10SM CLR 20/14 A2997 RMK AO2 T01960135,M
SBD,2016-08-27 05:53,67.10,56.30,68.25,240.00,5.00,0.00,29.98,M,10.00,M,CLR,M,M,M,M,M,M,M,M,M,M,M,M,M,M,67.10,KSBD 270553Z AUTO 24005KT 10SM CLR 20/14 A2998 RMK AO2 T01950135,M
SBD,2016-08-27 06:14,66.38,56.30,69.98,250.00,6.00,0.00,29.98,M,10.00,M,CLR,M,M,M,M,M,M,M,M,M,M,M,M,M,M,66.38,KSBD 270614Z AUTO 25006KT 10SM CLR 19/14 A2998 RMK AO2 T01910135,M
SBD,2016-08-27 06:34,65.48,56.48,72.67,260.00,4.00,0.00,29.98,M,10.00,M,CLR,M,M,M,M,M,M,M,M,M,M,M,M,M,M,65.48,KSBD 270634Z AUTO 26004KT 10SM CLR 19/14 A2998 RMK AO2 T01860136,M
SBD,2016-08-27 06:53,65.12,56.48,73.59,260.00,5.00,0.00,29.98,M,10.00,M,CLR,M,M,M,M,M,M,M,M,M,M,M,M,M,M,65.12,KSBD 270653Z AUTO 26005KT 10SM CLR 18/14 A2998 RMK AO2 T01840136,M
SBD,2016-08-27 07:14,64.76,56.48,74.52,260.00,5.00,0.00,29.97,M,10.00,M,CLR,M,M,M,M,M,M,M,M,M,M,M,M,M,M,64.76,KSBD 270714Z AUTO 26005KT 10SM CLR 18/14 A2997 RMK AO2 T01820136,M
SBD,2016-08-27 07:34,64.40,56.30,74.97,260.00,4.00,0.00,29.98,M,10.00,M,CLR,M,M,M,M,M,M,M,M,M,M,M,M,M,M,64.40,KSBD 270734Z AUTO 26004KT 10SM CLR 18/14 A2998 RMK AO2 T01800135,M
SBD,2016-08-27 07:53,64.04,56.48,76.41,260.00,4.00,0.00,29.98,M,10.00,M,CLR,M,M,M,M,M,M,M,M,M,M,M,M,M,M,64.04,KSBD 270753Z AUTO 26004KT 10SM CLR 18/14 A2998 RMK AO2 T01780136,M
SBD,2016-08-27 08:14,63.50,56.30,77.37,240.00,4.00,0.00,29.97,M,10.00,M,CLR,M,M,M,M,M,M,M,M,M,M,M,M,M,M,63.50,KSBD 270814Z AUTO 24004KT 10SM CLR 18/14 A2997 RMK AO2 T01750135,M
SBD,2016-08-27 08:34,63.86,56.48,76.90,240.00,4.00,0.00,29.97,M,10.00,M,CLR,M,M,M,M,M,M,M,M,M,M,M,M,M,M,63.86,KSBD 270834Z AUTO 24004KT 10SM CLR 18/14 A2997 RMK AO2 T01770136,M
SBD,2016-08-27 08:53,63.50,56.30,77.37,260.00,4.00,0.00,29.97,M,10.00,M,CLR,M,M,M,M,M,M,M,M,M,M,M,M,M,M,63.50,KSBD 270853Z AUTO 26004KT 10SM CLR 18/14 A2997 RMK AO2 T01750135,M
SBD,2016-08-27 09:14,62.60,56.30,79.86,250.00,4.00,0.00,29.97,M,10.00,M,CLR,M,M,M,M,M,M,M,M,M,M,M,M,M,M,62.60,KSBD 270914Z AUTO 25004KT 10SM CLR 17/14 A2997 RMK AO2 T01700135,M
SBD,2016-08-27 09:34,62.24,56.30,80.88,260.00,4.00,0.00,29.96,M,10.00,M,SCT,M,M,M,1800.00,M,M,M,M,M,M,M,M,M,M,62.24,KSBD 270934Z AUTO 26004KT 10SM SCT018 17/14 A2996 RMK AO2 T01680135,M
SBD,2016-08-27 09:53,62.42,56.48,80.89,240.00,4.00,0.00,29.97,M,10.00,M,SCT,M,M,M,1800.00,M,M,M,M,M,M,M,M,M,M,62.42,KSBD 270953Z AUTO 24004KT 10SM SCT018 17/14 A2997 RMK AO2 T01690136,M
SBD,2016-08-27 10:14,62.60,56.30,79.86,250.00,5.00,0.00,29.97,M,10.00,M,BKN,M,M,M,1800.00,M,M,M,M,M,M,M,M,M,M,62.60,KSBD 271014Z AUTO 25005KT 10SM BKN018 17/14 A2997 RMK AO2 T01700135,M
SBD,2016-08-27 10:34,62.60,56.66,80.90,250.00,4.00,0.00,29.97,M,10.00,M,OVC,M,M,M,1600.00,M,M,M,M,M,M,M,M,M,M,62.60,KSBD 271034Z AUTO 25004KT 10SM OVC016 17/14 A2997 RMK AO2 T01700137,M
SBD,2016-08-27 10:53,62.78,56.66,80.39,250.00,5.00,0.00,29.97,M,10.00,M,OVC,M,M,M,1600.00,M,M,M,M,M,M,M,M,M,M,62.78,KSBD 271053Z AUTO 25005KT 10SM OVC016 17/14 A2997 RMK AO2 T01710137,M
SBD,2016-08-27 11:14,62.96,56.84,80.41,240.00,4.00,0.00,29.97,M,7.00,M,OVC,M,M,M,1400.00,M,M,M,M,M,M,M,M,M,M,62.96,KSBD 271114Z AUTO 24004KT 7SM OVC014 17/14 A2997 RMK AO2 T01720138,M
SBD,2016-08-27 11:34,62.96,56.66,79.88,260.00,5.00,0.00,29.96,M,7.00,M,OVC,M,M,M,1400.00,M,M,M,M,M,M,M,M,M,M,62.96,KSBD 271134Z AUTO 26005KT 7SM OVC014 17/14 A2996 RMK AO2 T01720137,M
SBD,2016-08-27 11:53,63.14,56.84,79.90,260.00,5.00,0.00,29.97,M,7.00,M,OVC,M,M,M,1400.00,M,M,M,M,M,M,M,M,M,M,63.14,KSBD 271153Z AUTO 26005KT 7SM OVC014 17/14 A2997 RMK AO2 T01730138,M
SBD,2016-08-27 12:14,63.32,56.66,78.88,260.00,4.00,0.00,29.97,M,7.00,M,OVC,M,M,M,1200.00,M,M,M,M,M,M,M,M,M,M,63.32,KSBD 271214Z AUTO 26004KT 7SM OVC012 17/14 A2997 RMK AO2 T01740137,M
SBD,2016-08-27 12:34,63.50,56.66,78.38,260.00,3.00,0.00,29.97,M,5.00,M,OVC,M,M,M,1200.00,M,M,M,HZ,M,M,M,M,M,M,63.50,KSBD 271234Z AUTO 26003KT 5SM HZ OVC012 18/14 A2997 RMK AO2 T01750137,M
SBD,2016-08-27 12:53,63.50,56.66,78.38,250.00,3.00,0.00,29.98,M,5.00,M,OVC,M,M,M,1200.00,M,M,M,HZ,M,M,M,M,M,M,63.50,KSBD 271253Z AUTO 25003KT 5SM HZ OVC012 18/14 A2998 RMK AO2 T01750137,M
SBD,2016-08-27 13:14,63.32,56.66,78.88,220.00,3.00,0.00,29.98,M,5.00,M,OVC,M,M,M,1200.00,M,M,M,HZ,M,M,M,M,M,M,63.32,KSBD 271314Z AUTO 22003KT 5SM HZ OVC012 17/14 A2998 RMK AO2 T01740137,M
SBD,2016-08-27 13:34,63.50,56.66,78.38,270.00,3.00,0.00,29.99,M,5.00,M,OVC,M,M,M,1200.00,M,M,M,HZ,M,M,M,M,M,M,63.50,KSBD 271334Z AUTO 27003KT 5SM HZ OVC012 18/14 A2999 RMK AO2 T01750137,M
SBD,2016-08-27 13:50,62.60,57.20,82.50,0.00,0.00,0.00,30.00,M,2.00,M,OVC,M,M,M,1200.00,M,M,M,HZ,M,M,M,M,M,M,62.60,KSBD 271350Z 00000KT 2SM HZ OVC012 17/14 A3000,M
SBD,2016-08-27 13:54,63.50,56.66,78.38,0.00,0.00,0.00,30.00,M,5.00,M,OVC,M,M,M,1200.00,M,M,M,HZ,M,M,M,M,M,M,63.50,KSBD 271354Z AUTO 00000KT 5SM HZ OVC012 18/14 A3000 RMK AO2 T01750137,M
SBD,2016-08-27 14:47,64.40,57.20,77.45,0.00,0.00,0.00,30.01,M,2.00,M,OVC,M,M,M,1200.00,M,M,M,HZ,M,M,M,M,M,M,64.40,KSBD 271447Z 00000KT 2SM HZ OVC012 18/14 A3001,M
SBD,2016-08-27 15:50,64.40,55.40,72.56,0.00,0.00,0.00,30.02,M,2.00,M,OVC,M,M,M,1400.00,M,M,M,HZ,M,M,M,M,M,M,64.40,KSBD 271550Z 00000KT 2SM HZ OVC014 18/13 A3002,M
SBD,2016-08-27 16:17,64.40,55.40,72.56,240.00,4.00,0.00,30.02,M,3.00,M,OVC,M,M,M,1400.00,M,M,M,HZ,M,M,M,M,M,M,64.40,KSBD 271617Z 24004KT 3SM HZ OVC014 18/13 A3002,M
SBD,2016-08-27 17:50,66.20,55.40,68.15,0.00,0.00,0.00,30.02,M,3.00,M,BKN,M,M,M,1600.00,M,M,M,HZ,M,M,M,M,M,M,66.20,KSBD 271750Z 00000KT 3SM HZ BKN016 19/13 A3002,M
SBD,2016-08-27 18:55,73.40,55.40,53.29,290.00,5.00,0.00,30.01,M,3.00,M,FEW,M,M,M,6000.00,M,M,M,HZ,M,M,M,M,M,M,73.40,KSBD 271855Z 29005KT 03SM HZ FEW060 23/13 A3001,M
SBD,2016-08-27 19:50,77.00,55.40,47.25,210.00,4.00,0.00,29.99,M,3.00,M,FEW,M,M,M,6000.00,M,M,M,HZ,M,M,M,M,M,M,77.00,KSBD 271950Z 21004KT 03SM HZ FEW060 25/13 A2999,M
SBD,2016-08-27 20:46,80.60,53.60,39.30,0.00,0.00,0.00,29.98,M,3.00,M,FEW,M,M,M,6000.00,M,M,M,HZ,M,M,M,M,M,M,80.60,KSBD 272046Z 00000KT 03SM HZ FEW060 27/12 A2998,M
SBD,2016-08-27 21:50,84.20,51.80,32.73,240.00,8.00,0.00,29.95,M,3.00,M,FEW,M,M,M,5000.00,M,M,M,HZ,M,M,M,M,M,M,82.48,KSBD 272150Z 24008KT 3SM HZ FEW050 29/11 A2995,M
SBD,2016-08-27 22:47,84.20,50.00,30.62,220.00,6.00,0.00,29.94,M,4.00,M,FEW,M,M,M,6000.00,M,M,M,HZ,M,M,M,M,M,M,82.24,KSBD 272247Z 22006KT 4SM HZ FEW060 29/10 A2994,M
SBD,2016-08-27 23:50,87.80,50.00,27.29,270.00,4.00,0.00,29.92,M,4.00,M,FEW,M,M,M,6000.00,M,M,M,HZ,M,M,M,M,M,M,85.11,KSBD 272350Z 27004KT 04SM HZ FEW060 31/10 A2992,M
SBD,2016-08-28 00:46,86.00,50.00,28.90,260.00,7.00,0.00,29.92,M,4.00,M,FEW,M,M,M,6000.00,M,M,M,HZ,M,M,M,M,M,M,83.62,KSBD 280046Z 26007KT 04SM HZ FEW060 30/10 A2992,M
SBD,2016-08-28 01:48,82.40,53.60,37.07,240.00,10.00,0.00,29.92,M,4.00,M,CLR,M,M,M,M,M,M,M,HZ,M,M,M,M,M,M,82.40,KSBD 280148Z 24010KT 04SM HZ SKC 28/12 A2992,M
SBD,2016-08-28 02:49,77.00,55.40,47.25,230.00,5.00,0.00,29.96,M,4.00,M,CLR,M,M,M,M,M,M,M,HZ,M,M,M,M,M,M,77.00,KSBD 280249Z 23005KT 04SM HZ SKC 25/13 A2996,M
SBD,2016-08-28 03:48,75.20,55.40,50.17,250.00,6.00,0.00,29.97,M,4.00,M,CLR,M,M,M,M,M,M,M,HZ,M,M,M,M,M,M,75.20,KSBD 280348Z 25006KT 04SM HZ SKC 24/13 A2997 RMK LAST,M
SBD,2016-08-28 04:14,74.48,55.40,51.39,260.00,5.00,0.00,29.98,M,10.00,M,CLR,M,M,M,M,M,M,M,M,M,M,M,M,M,M,74.48,KSBD 280414Z AUTO 26005KT 10SM CLR 24/13 A2998 RMK AO2 T02360130,M
SBD,2016-08-28 04:34,73.94,55.40,52.33,250.00,5.00,0.00,29.99,M,10.00,M,CLR,M,M,M,M,M,M,M,M,M,M,M,M,M,M,73.94,KSBD 280434Z AUTO 25005KT 10SM CLR 23/13 A2999 RMK AO2 T02330130,M
SBD,2016-08-28 04:54,73.40,55.58,53.64,250.00,4.00,0.00,29.99,M,10.00,M,CLR,M,M,M,M,M,M,M,M,M,M,M,M,M,M,73.40,KSBD 280454Z AUTO 25004KT 10SM CLR 23/13 A2999 RMK AO2 T02300131,M
SBD,2016-08-28 05:14,72.50,55.94,56.02,250.00,4.00,0.00,29.99,M,10.00,M,CLR,M,M,M,M,M,M,M,M,M,M,M,M,M,M,72.50,KSBD 280514Z AUTO 25004KT 10SM CLR 23/13 A2999 RMK AO2 T02250133,M
SBD,2016-08-28 05:34,71.60,56.30,58.51,260.00,5.00,0.00,30.00,M,10.00,M,CLR,M,M,M,M,M,M,M,M,M,M,M,M,M,M,71.60,KSBD 280534Z AUTO 26005KT 10SM CLR 22/14 A3000 RMK AO2 T02200135,M
SBD,2016-08-28 05:54,70.88,56.48,60.35,260.00,3.00,0.00,30.01,M,10.00,M,CLR,M,M,M,M,M,M,M,M,M,M,M,M,M,M,70.88,KSBD 280554Z AUTO 26003KT 10SM CLR 22/14 A3001 RMK AO2 T02160136,M
SBD,2016-08-28 06:14,70.34,56.48,61.47,260.00,4.00,0.00,30.00,M,10.00,M,CLR,M,M,M,M,M,M,M,M,M,M,M,M,M,M,70.34,KSBD 280614Z AUTO 26004KT 10SM CLR 21/14 A3000 RMK AO2 T02130136,M
SBD,2016-08-28 06:34,69.98,56.66,62.63,250.00,4.00,0.00,30.01,M,10.00,M,CLR,M,M,M,M,M,M,M,M,M,M,M,M,M,M,69.98,KSBD 280634Z AUTO 25004KT 10SM CLR 21/14 A3001 RMK AO2 T02110137,M
SBD,2016-08-28 06:54,69.08,56.84,65.01,270.00,3.00,0.00,30.01,M,10.00,M,CLR,M,M,M,M,M,M,M,M,M,M,M,M,M,M,69.08,KSBD 280654Z AUTO 27003KT 10SM CLR 21/14 A3001 RMK AO2 T02060138,M
SBD,2016-08-28 07:14,68.72,56.84,65.82,260.00,4.00,0.00,30.01,M,10.00,M,CLR,M,M,M,M,M,M,M,M,M,M,M,M,M,M,68.72,KSBD 280714Z AUTO 26004KT 10SM CLR 20/14 A3001 RMK AO2 T02040138,M
SBD,2016-08-28 07:34,68.54,57.20,67.10,260.00,3.00,0.00,30.01,M,10.00,M,CLR,M,M,M,M,M,M,M,M,M,M,M,M,M,M,68.54,KSBD 280734Z AUTO 26003KT 10SM CLR 20/14 A3001 RMK AO2 T02030140,M
SBD,2016-08-28 07:54,68.00,57.02,67.91,260.00,3.00,0.00,30.01,M,10.00,M,CLR,M,M,M,M,M,M,M,M,M,M,M,M,M,M,68.00,KSBD 280754Z AUTO 26003KT 10SM CLR 20/14 A3001 RMK AO2 T02000139,M
SBD,2016-08-28 08:14,68.00,57.38,68.80,260.00,3.00,0.00,30.01,M,10.00,M,CLR,M,M,M,M,M,M,M,M,M,M,M,M,M,M,68.00,KSBD 280814Z AUTO 26003KT 10SM CLR 20/14 A3001 RMK AO2 T02000141,M
SBD,2016-08-28 08:34,67.28,57.20,70.07,0.00,0.00,0.00,30.00,M,10.00,M,CLR,M,M,M,M,M,M,M,M,M,M,M,M,M,M,67.28,KSBD 280834Z AUTO 00000KT 10SM CLR 20/14 A3000 RMK AO2 T01960140,M
SBD,2016-08-28 08:54,67.10,57.56,71.43,250.00,3.00,0.00,30.00,M,10.00,M,CLR,M,M,M,M,M,M,M,M,M,M,M,M,M,M,67.10,KSBD 280854Z AUTO 25003KT 10SM CLR 20/14 A3000 RMK AO2 T01950142,M
SBD,2016-08-28 09:14,66.74,57.38,71.86,230.00,3.00,0.00,30.01,M,10.00,M,CLR,M,M,M,M,M,M,M,M,M,M,M,M,M,M,66.74,KSBD 280914Z AUTO 23003KT 10SM CLR 19/14 A3001 RMK AO2 T01930141,M
SBD,2016-08-28 09:34,66.74,57.56,72.32,0.00,0.00,0.00,30.00,M,10.00,M,CLR,M,M,M,M,M,M,M,M,M,M,M,M,M,M,66.74,KSBD 280934Z AUTO 00000KT 10SM CLR 19/14 A3000 RMK AO2 T01930142,M
SBD,2016-08-28 09:54,66.38,57.74,73.71,0.00,0.00,0.00,30.01,M,10.00,M,CLR,M,M,M,M,M,M,M,M,M,M,M,M,M,M,66.38,KSBD 280954Z AUTO 00000KT 10SM CLR 19/14 A3001 RMK AO2 T01910143,M
SBD,2016-08-28 10:14,66.20,57.74,74.17,0.00,0.00,0.00,30.01,M,10.00,M,CLR,M,M,M,M,M,M,M,M,M,M,M,M,M,M,66.20,KSBD 281014Z AUTO 00000KT 10SM CLR 19/14 A3001 RMK AO2 T01900143,M
SBD,2016-08-28 10:34,66.20,57.74,74.17,0.00,0.00,0.00,30.01,M,10.00,M,CLR,M,M,M,M,M,M,M,M,M,M,M,M,M,M,66.20,KSBD 281034Z AUTO 00000KT 10SM CLR 19/14 A3001 RMK AO2 T01900143,M
SBD,2016-08-28 10:54,65.30,57.38,75.54,250.00,4.00,0.00,30.01,M,10.00,M,CLR,M,M,M,M,M,M,M,M,M,M,M,M,M,M,65.30,KSBD 281054Z AUTO 25004KT 10SM CLR 19/14 A3001 RMK AO2 T01850141,M
SBD,2016-08-28 11:14,65.48,58.10,77.04,0.00,0.00,0.00,30.01,M,10.00,M,CLR,M,M,M,M,M,M,M,M,M,M,M,M,M,M,65.48,KSBD 281114Z AUTO 00000KT 10SM CLR 19/15 A3001 RMK AO2 T01860145,M
SBD,2016-08-28 11:34,65.66,58.10,76.56,0.00,0.00,0.00,30.01,M,10.00,M,CLR,M,M,M,M,M,M,M,M,M,M,M,M,M,M,65.66,KSBD 281134Z AUTO 00000KT 10SM CLR 19/15 A3001 RMK AO2 T01870145,M
SBD,2016-08-28 11:54,65.84,58.28,76.57,0.00,0.00,0.00,30.00,M,10.00,M,CLR,M,M,M,M,M,M,M,M,M,M,M,M,M,M,65.84,KSBD 281154Z AUTO 00000KT 10SM CLR 19/15 A3000 RMK AO2 T01880146,M
SBD,2016-08-28 12:14,65.66,57.92,76.06,0.00,0.00,0.00,30.00,M,10.00,M,CLR,M,M,M,M,M,M,M,M,M,M,M,M,M,M,65.66,KSBD 281214Z AUTO 00000KT 10SM CLR 19/14 A3000 RMK AO2 T01870144,M
SBD,2016-08-28 12:34,65.48,56.84,73.62,0.00,0.00,0.00,30.00,M,10.00,M,CLR,M,M,M,M,M,M,M,M,M,M,M,M,M,M,65.48,KSBD 281234Z AUTO 00000KT 10SM CLR 19/14 A3000 RMK AO2 T01860138,M
SBD,2016-08-28 12:54,64.40,55.40,72.56,0.00,0.00,0.00,30.01,M,10.00,M,CLR,M,M,M,M,M,M,M,M,M,M,M,M,M,M,64.40,KSBD 281254Z AUTO 00000KT 10SM CLR 18/13 A3001 RMK AO2 T01800130,M
SBD,2016-08-28 13:14,64.40,55.40,72.56,0.00,0.00,0.00,30.02,M,10.00,M,CLR,M,M,M,M,M,M,M,M,M,M,M,M,M,M,64.40,KSBD 281314Z AUTO 00000KT 10SM CLR 18/13 A3002 RMK AO2 T01800130,M
SBD,2016-08-28 13:34,63.86,54.86,72.51,0.00,0.00,0.00,30.03,M,10.00,M,CLR,M,M,M,M,M,M,M,M,M,M,M,M,M,M,63.86,KSBD 281334Z AUTO 00000KT 10SM CLR 18/13 A3003 RMK AO2 T01770127,M
SBD,2016-08-28 13:54,63.68,54.68,72.49,0.00,0.00,0.00,30.03,M,10.00,M,CLR,M,M,M,M,M,M,M,M,M,M,M,M,M,M,63.68,KSBD 281354Z AUTO 00000KT 10SM CLR 18/13 A3003 RMK AO2 T01760126,M
SBD,2016-08-28 14:50,66.20,55.40,68.15,0.00,0.00,0.00,30.03,M,4.00,M,CLR,M,M,M,M,M,M,M,HZ,M,M,M,M,M,M,66.20,KSBD 281450Z 00000KT 04SM HZ SKC 19/13 A3003,M
SBD,2016-08-28 15:50,73.40,57.20,56.88,0.00,0.00,0.00,30.04,M,4.00,M,CLR,M,M,M,M,M,M,M,HZ,M,M,M,M,M,M,73.40,KSBD 281550Z 00000KT 04SM HZ SKC 23/14 A3004,M
SBD,2016-08-28 16:47,77.00,57.20,50.43,0.00,0.00,0.00,30.04,M,4.00,M,CLR,M,M,M,M,M,M,M,HZ,M,M,M,M,M,M,77.00,KSBD 281647Z 00000KT 04SM HZ SKC 25/14 A3004,M
SBD,2016-08-28 17:46,82.40,53.60,37.07,0.00,0.00,0.00,30.03,M,4.00,M,CLR,M,M,M,M,M,M,M,HZ,M,M,M,M,M,M,82.40,KSBD 281746Z 00000KT 04SM HZ SKC 28/12 A3003,M
SBD,2016-08-28 18:46,87.80,53.60,31.17,0.00,0.00,0.00,30.01,M,4.00,M,FEW,M,M,M,6000.00,M,M,M,HZ,M,M,M,M,M,M,85.72,KSBD 281846Z 00000KT 04SM HZ FEW060 31/12 A3001,M
SBD,2016-08-28 19:50,91.40,51.80,26.05,250.00,3.00,0.00,29.99,M,5.00,M,FEW,M,M,M,6000.00,M,M,M,HZ,M,M,M,M,M,M,88.69,KSBD 281950Z 25003KT 5SM HZ FEW060 33/11 A2999,M
SBD,2016-08-28 20:50,95.00,51.80,23.30,260.00,6.00,0.00,29.98,M,5.00,M,FEW,M,M,M,6000.00,M,M,M,HZ,M,M,M,M,M,M,92.26,KSBD 282050Z 26006KT 5SM HZ FEW060 35/11 A2998,M
SBD,2016-08-28 22:46,98.60,44.60,15.93,270.00,8.00,0.00,29.94,M,5.00,M,FEW,M,M,M,6000.00,M,M,M,HZ,M,M,M,M,M,M,94.55,KSBD 282246Z 27008KT 05SM HZ FEW060 37/07 A2994,M
SBD,2016-08-28 23:50,96.80,46.40,18.02,260.00,10.00,0.00,29.93,M,6.00,M,CLR,M,M,M,M,M,M,M,HZ,M,M,M,M,M,M,93.05,KSBD 282350Z 26010KT 6SM HZ SKC 36/08 A2993,M
SBD,2016-08-29 00:50,95.00,46.40,19.04,250.00,8.00,0.00,29.93,M,6.00,M,CLR,M,M,M,M,M,M,M,HZ,M,M,M,M,M,M,91.29,KSBD 290050Z 25008KT 6SM HZ SKC 35/08 A2993,M
SBD,2016-08-29 01:50,89.60,53.60,29.45,230.00,10.00,0.00,29.94,M,6.00,M,CLR,M,M,M,M,M,M,M,HZ,M,M,M,M,M,M,87.36,KSBD 290150Z 23010KT 6SM HZ SKC 32/12 A2994,M
SBD,2016-08-29 04:13,79.70,50.36,35.92,240.00,3.00,0.00,29.99,M,10.00,M,CLR,M,M,M,M,M,M,M,M,M,M,M,M,M,M,79.70,KSBD 290413Z AUTO 24003KT 10SM CLR 27/10 A2999 RMK AO2 T02650102,M
SBD,2016-08-29 04:34,79.34,50.18,36.11,250.00,4.00,0.00,30.00,M,10.00,M,CLR,M,M,M,M,M,M,M,M,M,M,M,M,M,M,79.34,KSBD 290434Z AUTO 25004KT 10SM CLR 26/10 A3000 RMK AO2 T02630101,M
SBD,2016-08-29 04:54,78.80,50.36,37.00,260.00,4.00,0.00,30.00,M,10.00,M,CLR,M,M,M,M,M,M,M,M,M,M,M,M,M,M,78.80,KSBD 290454Z AUTO 26004KT 10SM CLR 26/10 A3000 RMK AO2 T02600102,M
SBD,2016-08-29 05:13,77.90,51.26,39.41,270.00,4.00,0.00,30.00,M,10.00,M,CLR,M,M,M,M,M,M,M,M,M,M,M,M,M,M,77.90,KSBD 290513Z AUTO 27004KT 10SM CLR 26/11 A3000 RMK AO2 T02550107,M
SBD,2016-08-29 05:34,77.00,51.62,41.14,270.00,5.00,0.00,30.01,M,10.00,M,CLR,M,M,M,M,M,M,M,M,M,M,M,M,M,M,77.00,KSBD 290534Z AUTO 27005KT 10SM CLR 25/11 A3001 RMK AO2 T02500109,M
SBD,2016-08-29 05:54,76.28,51.98,42.70,270.00,3.00,0.00,30.01,M,10.00,M,CLR,M,M,M,M,M,M,M,M,M,M,M,M,M,M,76.28,KSBD 290554Z AUTO 27003KT 10SM CLR 25/11 A3001 RMK AO2 T02460111,M
SBD,2016-08-29 06:14,75.92,52.52,44.08,0.00,0.00,0.00,30.01,M,10.00,M,CLR,M,M,M,M,M,M,M,M,M,M,M,M,M,M,75.92,KSBD 290614Z AUTO 00000KT 10SM CLR 24/11 A3001 RMK AO2 T02440114,M
SBD,2016-08-29 06:34,76.28,52.70,43.85,0.00,0.00,0.00,30.01,M,10.00,M,CLR,M,M,M,M,M,M,M,M,M,M,M,M,M,M,76.28,KSBD 290634Z AUTO 00000KT 10SM CLR 25/12 A3001 RMK AO2 T02460115,M
SBD,2016-08-29 06:54,75.92,52.70,44.38,0.00,0.00,0.00,30.01,M,10.00,M,CLR,M,M,M,M,M,M,M,M,M,M,M,M,M,M,75.92,KSBD 290654Z AUTO 00000KT 10SM CLR 24/12 A3001 RMK AO2 T02440115,M
SBD,2016-08-29 07:13,75.92,52.70,44.38,0.00,0.00,0.00,30.01,M,10.00,M,CLR,M,M,M,M,M,M,M,M,M,M,M,M,M,M,75.92,KSBD 290713Z AUTO 00000KT 10SM CLR 24/12 A3001 RMK AO2 T02440115,M
SBD,2016-08-29 07:34,75.74,52.70,44.64,0.00,0.00,0.00,30.01,M,10.00,M,CLR,M,M,M,M,M,M,M,M,M,M,M,M,M,M,75.74,KSBD 290734Z AUTO 00000KT 10SM CLR 24/12 A3001 RMK AO2 T02430115,M
SBD,2016-08-29 07:54,75.02,52.70,45.73,0.00,0.00,0.00,30.00,M,10.00,M,CLR,M,M,M,M,M,M,M,M,M,M,M,M,M,M,75.02,KSBD 290754Z AUTO 00000KT 10SM CLR 24/12 A3000 RMK AO2 T02390115,M
SBD,2016-08-29 08:13,73.58,52.34,47.36,0.00,0.00,0.00,30.00,M,10.00,M,CLR,M,M,M,M,M,M,M,M,M,M,M,M,M,M,73.58,KSBD 290813Z AUTO 00000KT 10SM CLR 23/11 A3000 RMK AO2 T02310113,M
SBD,2016-08-29 08:34,71.24,52.52,51.60,0.00,0.00,0.00,30.00,M,10.00,M,CLR,M,M,M,M,M,M,M,M,M,M,M,M,M,M,71.24,KSBD 290834Z AUTO 00000KT 10SM CLR 22/11 A3000 RMK AO2 T02180114,M
SBD,2016-08-29 08:54,71.96,52.34,50.02,0.00,0.00,0.00,30.00,M,10.00,M,CLR,M,M,M,M,M,M,M,M,M,M,M,M,M,M,71.96,KSBD 290854Z AUTO 00000KT 10SM CLR 22/11 A3000 RMK AO2 T02220113,M
SBD,2016-08-29 09:14,71.42,52.70,51.62,0.00,0.00,0.00,30.00,M,10.00,M,CLR,M,M,M,M,M,M,M,M,M,M,M,M,M,M,71.42,KSBD 290914Z AUTO 00000KT 10SM CLR 22/12 A3000 RMK AO2 T02190115,M
SBD,2016-08-29 09:34,70.70,54.50,56.51,0.00,0.00,0.00,30.00,M,10.00,M,CLR,M,M,M,M,M,M,M,M,M,M,M,M,M,M,70.70,KSBD 290934Z AUTO 00000KT 10SM CLR 22/13 A3000 RMK AO2 T02150125,M
SBD,2016-08-29 09:54,70.88,54.50,56.16,0.00,0.00,0.00,30.00,M,10.00,M,CLR,M,M,M,M,M,M,M,M,M,M,M,M,M,M,70.88,KSBD 290954Z AUTO 00000KT 10SM CLR 22/13 A3000 RMK AO2 T02160125,M
SBD,2016-08-29 10:13,69.98,53.96,56.78,0.00,0.00,0.00,30.00,M,10.00,M,CLR,M,M,M,M,M,M,M,M,M,M,M,M,M,M,69.98,KSBD 291013Z AUTO 00000KT 10SM CLR 21/12 A3000 RMK AO2 T02110122,M
SBD,2016-08-29 10:34,68.90,53.42,57.76,0.00,0.00,0.00,29.99,M,10.00,M,CLR,M,M,M,M,M,M,M,M,M,M,M,M,M,M,68.90,KSBD 291034Z AUTO 00000KT 10SM CLR 21/12 A2999 RMK AO2 T02050119,M
SBD,2016-08-29 10:54,69.80,54.50,58.27,0.00,0.00,0.00,29.99,M,10.00,M,CLR,M,M,M,M,M,M,M,M,M,M,M,M,M,M,69.80,KSBD 291054Z AUTO 00000KT 10SM CLR 21/13 A2999 RMK AO2 T02100125,M
SBD,2016-08-29 11:13,69.08,54.50,59.72,0.00,0.00,0.00,29.98,M,10.00,M,CLR,M,M,M,M,M,M,M,M,M,M,M,M,M,M,69.08,KSBD 291113Z AUTO 00000KT 10SM CLR 21/13 A2998 RMK AO2 T02060125,M
SBD,2016-08-29 11:34,68.54,53.96,59.65,0.00,0.00,0.00,29.97,M,10.00,M,CLR,M,M,M,M,M,M,M,M,M,M,M,M,M,M,68.54,KSBD 291134Z AUTO 00000KT 10SM CLR 20/12 A2997 RMK AO2 T02030122,M
SBD,2016-08-29 11:54,67.82,53.78,60.74,0.00,0.00,0.00,29.97,M,10.00,M,CLR,M,M,M,M,M,M,M,M,M,M,M,M,M,M,67.82,KSBD 291154Z AUTO 00000KT 10SM CLR 20/12 A2997 RMK AO2 T01990121,M
SBD,2016-08-29 12:13,65.48,53.06,64.16,0.00,0.00,0.00,29.97,M,10.00,M,CLR,M,M,M,M,M,M,M,M,M,M,M,M,M,M,65.48,KSBD 291213Z AUTO 00000KT 10SM CLR 19/12 A2997 RMK AO2 T01860117,M
SBD,2016-08-29 12:34,67.10,51.44,57.14,80.00,4.00,0.00,29.97,M,10.00,M,CLR,M,M,M,M,M,M,M,M,M,M,M,M,M,M,67.10,KSBD 291234Z AUTO 08004KT 10SM CLR 20/11 A2997 RMK AO2 T01950108,M
SBD,2016-08-29 12:54,66.02,50.90,58.14,0.00,0.00,0.00,29.98,M,10.00,M,CLR,M,M,M,M,M,M,M,M,M,M,M,M,M,M,66.02,KSBD 291254Z AUTO 00000KT 10SM CLR 19/11 A2998 RMK AO2 T01890105,M
SBD,2016-08-29 13:13,66.20,52.52,61.34,0.00,0.00,0.00,29.98,M,10.00,M,CLR,M,M,M,M,M,M,M,M,M,M,M,M,M,M,66.20,KSBD 291313Z AUTO 00000KT 10SM CLR 19/11 A2998 RMK AO2 T01900114,M
SBD,2016-08-29 13:34,66.56,52.34,60.18,0.00,0.00,0.00,29.98,M,10.00,M,CLR,M,M,M,M,M,M,M,M,M,M,M,M,M,M,66.56,KSBD 291334Z AUTO 00000KT 10SM CLR 19/11 A2998 RMK AO2 T01920113,M
SBD,2016-08-29 13:54,67.10,51.98,58.29,0.00,0.00,0.00,29.98,M,10.00,M,CLR,M,M,M,M,M,M,M,M,M,M,M,M,M,M,67.10,KSBD 291354Z AUTO 00000KT 10SM CLR 20/11 A2998 RMK AO2 T01950111,M
SBD,2016-08-29 14:00,66.20,55.40,68.15,0.00,0.00,0.00,29.98,M,7.00,M,CLR,M,M,M,M,M,M,M,M,M,M,M,M,M,M,66.20,KSBD 291400Z 00000KT 7SM SKC 19/13 A2998,M
SBD,2016-08-29 14:45,71.60,59.00,64.48,0.00,0.00,0.00,30.00,M,6.00,M,M,M,M,M,M,M,M,M,HZ,M,M,M,M,M,M,71.60,KSBD 291445Z 00000KT 6SM HZ 22/15 A3000,M
SBD,2016-08-29 15:45,77.00,53.60,44.25,0.00,0.00,0.00,30.00,M,6.00,M,CLR,M,M,M,M,M,M,M,HZ,M,M,M,M,M,M,77.00,KSBD 291545Z 00000KT 6SM HZ SKC 25/12 A3000,M
SBD,2016-08-29 16:46,84.20,50.00,30.62,0.00,0.00,0.00,29.99,M,6.00,M,CLR,M,M,M,M,M,M,M,HZ,M,M,M,M,M,M,82.24,KSBD 291646Z 00000KT 6SM HZ SKC 29/10 A2999,M
SBD,2016-08-29 17:47,89.60,48.20,24.11,230.00,5.00,0.00,29.98,M,6.00,M,CLR,M,M,M,M,M,M,M,HZ,M,M,M,M,M,M,86.44,KSBD 291747Z 23005KT 6SM HZ SKC 32/09 A2998,M
SBD,2016-08-29 18:48,95.00,48.20,20.38,310.00,5.83,0.00,29.96,M,6.00,M,FEW,M,M,M,6000.00,M,M,M,HZ,M,M,M,M,M,M,91.56,KSBD 291848Z 31003 06SM HZ FEW060 35/09 A2996,M
SBD,2016-08-29 19:46,98.60,44.60,15.93,280.00,6.00,0.00,29.94,M,6.00,M,FEW,M,M,M,6000.00,M,M,M,HZ,M,M,M,M,M,M,94.55,KSBD 291946Z 28006KT 06SM HZ FEW060 37/07 A2994,M
SBD,2016-08-29 20:50,102.20,44.60,14.29,280.00,7.00,0.00,29.91,M,6.00,M,FEW,M,M,M,6000.00,M,M,M,HZ,M,M,M,M,M,M,98.07,KSBD 292050Z 28007KT 6SM HZ FEW060 39/07 A2991,M
SBD,2016-08-29 21:50,102.20,46.40,15.30,240.00,10.00,0.00,29.88,M,6.00,M,FEW,M,M,M,6000.00,M,M,M,HZ,M,M,M,M,M,M,98.43,KSBD 292150Z 24010KT 6SM HZ FEW060 39/08 A2988,M
SBD,2016-08-29 22:50,104.00,44.60,13.54,230.00,11.00,0.00,29.85,M,6.00,M,FEW,M,M,M,6000.00,M,M,M,HZ,M,M,M,M,M,M,99.82,KSBD 292250Z 23011KT 06SM HZ FEW060 40/07 A2985,M
SBD,2016-08-29 23:50,102.20,50.00,17.51,240.00,11.00,0.00,29.84,M,6.00,M,FEW,M,M,M,6000.00,M,M,M,HZ,M,M,M,M,M,M,99.28,KSBD 292350Z 24011KT 06SM HZ FEW060 39/10 A2984,M
SBD,2016-08-30 00:50,98.60,53.60,22.29,250.00,10.00,0.00,29.84,M,6.00,M,FEW,M,M,M,6000.00,M,M,M,HZ,M,M,M,M,M,M,96.51,KSBD 300050Z 25010KT 6SM HZ FEW060 37/12 A2984,M
SBD,2016-08-30 01:50,93.20,57.20,29.99,230.00,8.00,0.00,29.85,M,6.00,M,CLR,M,M,M,M,M,M,M,HZ,M,M,M,M,M,M,91.91,KSBD 300150Z 23008KT 6SM HZ SKC 34/14 A2985,M
SBD,2016-08-30 02:50,89.60,57.20,33.56,210.00,5.00,0.00,29.87,M,5.00,M,CLR,M,M,M,M,M,M,M,HZ,M,M,M,M,M,M,88.28,KSBD 300250Z 21005KT 5SM HZ SKC 32/14 A2987,M
SBD,2016-08-30 03:50,86.00,57.20,37.62,260.00,6.00,0.00,29.89,M,5.00,M,CLR,M,M,M,M,M,M,M,HZ,M,M,M,M,M,M,84.97,KSBD 300350Z 26006KT 5SM HZ SKC 30/14 2989 RMK LAST,M
SBD,2016-08-30 04:14,84.20,58.64,41.98,250.00,5.00,0.00,29.90,M,10.00,M,CLR,M,M,M,M,M,M,M,M,M,M,M,M,M,M,83.82,KSBD 300414Z AUTO 25005KT 10SM CLR 29/15 A2990 RMK AO2 T02900148,M
SBD,2016-08-30 04:34,83.30,59.00,43.77,270.00,4.00,0.00,29.91,M,10.00,M,CLR,M,M,M,M,M,M,M,M,M,M,M,M,M,M,83.18,KSBD 300434Z AUTO 27004KT 10SM CLR 29/15 A2991 RMK AO2 T02850150,M
SBD,2016-08-30 04:54,82.94,59.00,44.29,260.00,3.00,0.00,29.91,M,10.00,M,CLR,M,M,M,M,M,M,M,M,M,M,M,M,M,M,82.89,KSBD 300454Z AUTO 26003KT 10SM CLR 28/15 A2991 RMK AO2 T02830150,M
SBD,2016-08-30 05:14,83.30,59.18,44.06,0.00,0.00,0.00,29.92,M,10.00,M,CLR,M,M,M,M,M,M,M,M,M,M,M,M,M,M,83.22,KSBD 300514Z AUTO 00000KT 10SM CLR 29/15 A2992 RMK AO2 T02850151,M
SBD,2016-08-30 05:34,82.58,59.18,45.10,0.00,0.00,0.00,29.92,M,10.00,M,CLR,M,M,M,M,M,M,M,M,M,M,M,M,M,M,82.65,KSBD 300534Z AUTO 00000KT 10SM CLR 28/15 A2992 RMK AO2 T02810151,M
SBD,2016-08-30 05:54,82.04,59.36,46.19,280.00,3.00,0.00,29.92,M,10.00,M,CLR,M,M,M,M,M,M,M,M,M,M,M,M,M,M,82.27,KSBD 300554Z AUTO 28003KT 10SM CLR 28/15 A2992 RMK AO2 T02780152,M
SBD,2016-08-30 06:14,81.50,59.90,47.92,0.00,0.00,0.00,29.92,M,10.00,M,CLR,M,M,M,M,M,M,M,M,M,M,M,M,M,M,81.97,KSBD 300614Z AUTO 00000KT 10SM CLR 28/16 A2992 RMK AO2 T02750155,M
SBD,2016-08-30 06:34,80.96,59.72,48.46,0.00,0.00,0.00,29.92,M,10.00,M,CLR,M,M,M,M,M,M,M,M,M,M,M,M,M,M,81.52,KSBD 300634Z AUTO 00000KT 10SM CLR 27/15 A2992 RMK AO2 T02720154,M
SBD,2016-08-30 06:54,80.60,59.90,49.35,0.00,0.00,0.00,29.92,M,10.00,M,CLR,M,M,M,M,M,M,M,M,M,M,M,M,M,M,81.28,KSBD 300654Z AUTO 00000KT 10SM CLR 27/16 A2992 RMK AO2 T02700155,M
SBD,2016-08-30 07:14,80.60,59.90,49.35,0.00,0.00,0.00,29.92,M,10.00,M,CLR,M,M,M,M,M,M,M,M,M,M,M,M,M,M,81.28,KSBD 300714Z AUTO 00000KT 10SM CLR 27/16 A2992 RMK AO2 T02700155,M
SBD,2016-08-30 07:34,79.34,59.54,50.77,0.00,0.00,0.00,29.92,M,10.00,M,CLR,M,M,M,M,M,M,M,M,M,M,M,M,M,M,79.34,KSBD 300734Z AUTO 00000KT 10SM CLR 26/15 A2992 RMK AO2 T02630153,M
SBD,2016-08-30 07:54,78.26,58.46,50.62,130.00,3.00,0.00,29.91,M,10.00,M,CLR,M,M,M,M,M,M,M,M,M,M,M,M,M,M,78.26,KSBD 300754Z AUTO 13003KT 10SM CLR 26/15 A2991 RMK AO2 T02570147,M
SBD,2016-08-30 08:14,76.10,58.46,54.37,0.00,0.00,0.00,29.90,M,10.00,M,CLR,M,M,M,M,M,M,M,M,M,M,M,M,M,M,76.10,KSBD 300814Z AUTO 00000KT 10SM CLR 25/15 A2990 RMK AO2 T02450147,M
SBD,2016-08-30 08:34,74.84,58.46,56.70,0.00,0.00,0.00,29.90,M,10.00,M,CLR,M,M,M,M,M,M,M,M,M,M,M,M,M,M,74.84,KSBD 300834Z AUTO 00000KT 10SM CLR 24/15 A2990 RMK AO2 T02380147,M
SBD,2016-08-30 08:54,75.02,58.82,57.10,0.00,0.00,0.00,29.89,M,10.00,M,CLR,M,M,M,M,M,M,M,M,M,M,M,M,M,M,75.02,KSBD 300854Z AUTO 00000KT 10SM CLR 24/15 A2989 RMK AO2 T02390149,M
SBD,2016-08-30 09:14,75.02,59.00,57.47,0.00,0.00,0.00,29.89,M,10.00,M,CLR,M,M,M,M,M,M,M,M,M,M,M,M,M,M,75.02,KSBD 300914Z AUTO 00000KT 10SM CLR 24/15 A2989 RMK AO2 T02390150,M
SBD,2016-08-30 09:34,75.56,59.90,58.28,0.00,0.00,0.00,29.89,M,10.00,M,CLR,M,M,M,M,M,M,M,M,M,M,M,M,M,M,75.56,KSBD 300934Z AUTO 00000KT 10SM CLR 24/16 A2989 RMK AO2 T02420155,M
SBD,2016-08-30 09:54,73.40,58.10,58.75,0.00,0.00,0.00,29.89,M,10.00,M,CLR,M,M,M,M,M,M,M,M,M,M,M,M,M,M,73.40,KSBD 300954Z AUTO 00000KT 10SM CLR 23/15 A2989 RMK AO2 T02300145,M
SBD,2016-08-30 10:14,74.30,57.38,55.54,0.00,0.00,0.00,29.89,M,10.00,M,CLR,M,M,M,M,M,M,M,M,M,M,M,M,M,M,74.30,KSBD 301014Z AUTO 00000KT 10SM CLR 24/14 A2989 RMK AO2 T02350141,M
SBD,2016-08-30 10:34,74.84,56.30,52.46,0.00,0.00,0.00,29.89,M,10.00,M,CLR,M,M,M,M,M,M,M,M,M,M,M,M,M,M,74.84,KSBD 301034Z AUTO 00000KT 10SM CLR 24/14 A2989 RMK AO2 T02380135,M
SBD,2016-08-30 10:53,74.84,57.38,54.55,0.00,0.00,0.00,29.89,M,10.00,M,CLR,M,M,M,M,M,M,M,M,M,M,M,M,M,M,74.84,KSBD 301053Z AUTO 00000KT 10SM CLR 24/14 A2989 RMK AO2 T02380141,M
SBD,2016-08-30 11:14,73.94,57.38,56.22,0.00,0.00,0.00,29.89,M,10.00,M,CLR,M,M,M,M,M,M,M,M,M,M,M,M,M,M,73.94,KSBD 301114Z AUTO 00000KT 10SM CLR 23/14 A2989 RMK AO2 T02330141,M
SBD,2016-08-30 11:34,73.40,57.20,56.88,0.00,0.00,0.00,29.89,M,10.00,M,CLR,M,M,M,M,M,M,M,M,M,M,M,M,M,M,73.40,KSBD 301134Z AUTO 00000KT 10SM CLR 23/14 A2989 RMK AO2 T02300140,M
SBD,2016-08-30 11:53,73.04,57.38,57.94,0.00,0.00,0.00,29.89,M,10.00,M,CLR,M,M,M,M,M,M,M,M,M,M,M,M,M,M,73.04,KSBD 301153Z AUTO 00000KT 10SM CLR 23/14 A2989 RMK AO2 T02280141,M
SBD,2016-08-30 12:14,70.70,55.40,58.39,0.00,0.00,0.00,29.89,M,10.00,M,CLR,M,M,M,M,M,M,M,M,M,M,M,M,M,M,70.70,KSBD 301214Z AUTO 00000KT 10SM CLR 22/13 A2989 RMK AO2 T02150130,M
SBD,2016-08-30 12:33,70.88,53.96,55.07,80.00,4.00,0.00,29.89,M,10.00,M,CLR,M,M,M,M,M,M,M,M,M,M,M,M,M,M,70.88,KSBD 301233Z AUTO 08004KT 10SM CLR 22/12 A2989 RMK AO2 T02160122,M
SBD,2016-08-30 12:54,71.78,55.22,55.92,0.00,0.00,0.00,29.89,M,10.00,M,CLR,M,M,M,M,M,M,M,M,M,M,M,M,M,M,71.78,KSBD 301254Z AUTO 00000KT 10SM CLR 22/13 A2989 RMK AO2 T02210129,M
SBD,2016-08-30 13:14,70.70,54.86,57.25,0.00,0.00,0.00,29.89,M,10.00,M,CLR,M,M,M,M,M,M,M,M,M,M,M,M,M,M,70.70,KSBD 301314Z AUTO 00000KT 10SM CLR 22/13 A2989 RMK AO2 T02150127,M
SBD,2016-08-30 13:33,71.06,54.50,55.82,100.00,3.00,0.00,29.90,M,10.00,M,CLR,M,M,M,M,M,M,M,M,M,M,M,M,M,M,71.06,KSBD 301333Z AUTO 10003KT 10SM CLR 22/13 A2990 RMK AO2 T02170125,M
SBD,2016-08-30 13:54,69.62,52.88,55.25,0.00,0.00,0.00,29.90,M,10.00,M,CLR,M,M,M,M,M,M,M,M,M,M,M,M,M,M,69.62,KSBD 301354Z AUTO 00000KT 10SM CLR 21/12 A2990 RMK AO2 T02090116,M
SBD,2016-08-30 14:00,68.00,55.40,64.04,0.00,0.00,0.00,29.90,M,6.00,M,CLR,M,M,M,M,M,M,M,HZ,M,M,M,M,M,M,68.00,KSBD 301400Z 00000KT 6SM HZ SKC 20/13 A2990,M
SBD,2016-08-30 14:45,75.20,53.60,46.98,0.00,0.00,0.00,29.91,M,6.00,M,CLR,M,M,M,M,M,M,M,HZ,M,M,M,M,M,M,75.20,KSBD 301445Z 00000KT 6SM HZ SKC 24/12 A2991,M
SBD,2016-08-30 15:45,80.60,57.20,44.80,0.00,0.00,0.00,29.90,M,6.00,M,CLR,M,M,M,M,M,M,M,HZ,M,M,M,M,M,M,80.81,KSBD 301545Z 00000KT 6SM HZ SKC 27/14 A2990,M
SBD,2016-08-30 16:46,82.40,57.20,42.25,320.00,3.00,0.00,29.90,M,6.00,M,CLR,M,M,M,M,M,M,M,HZ,M,M,M,M,M,M,82.08,KSBD 301646Z 32003KT 6SM HZ SKC 28/14 A2990,M
SBD,2016-08-30 17:55,91.40,53.60,27.83,0.00,0.00,0.00,29.89,M,6.00,M,CLR,M,M,M,M,M,M,M,HZ,M,M,M,M,M,M,89.08,KSBD 301755Z 00000KT 06SM HZ SKC 33/12 A2989,M
SBD,2016-08-30 18:50,96.80,50.00,20.62,310.00,3.00,0.00,29.87,M,6.00,M,CLR,M,M,M,M,M,M,M,HZ,M,M,M,M,M,M,93.71,KSBD 301850Z 31003KT 06SM HZ SKC 36/10 A2987,M
SBD,2016-08-30 19:50,100.40,50.00,18.48,230.00,6.00,0.00,29.85,M,6.00,M,FEW,M,M,M,6000.00,M,M,M,HZ,M,M,M,M,M,M,97.42,KSBD 301950Z 23006KT 06SM HZ FEW060 38/10 A2985,M
SBD,2016-08-30 20:50,102.20,50.00,17.51,260.00,8.00,0.00,29.83,M,6.00,M,FEW,M,M,M,6000.00,M,M,M,HZ,M,M,M,M,M,M,99.28,KSBD 302050Z 26008KT 6SM HZ FEW060 39/10 A2983,M
SBD,2016-08-30 21:50,102.20,51.80,18.72,290.00,8.00,0.00,29.80,M,6.00,M,FEW,SCT,M,M,6000.00,12000.00,M,M,HZ,M,M,M,M,M,M,99.80,KSBD 302150Z 29008KT 6SM HZ FEW060 SCT120 39/11 A2980,M
SBD,2016-08-30 22:48,104.00,46.40,14.50,260.00,9.00,0.00,29.79,M,6.00,M,FEW,SCT,M,M,6000.00,12000.00,M,M,HZ,M,M,M,M,M,M,100.21,KSBD 302248Z 26009KT 06SM HZ FEW060 SCT120 40/08 A2979,M
SBD,2016-08-30 23:50,100.40,53.60,21.11,230.00,10.00,0.00,29.79,M,6.00,M,FEW,SCT,M,M,6000.00,12000.00,M,M,HZ,M,M,M,M,M,M,98.44,KSBD 302350Z 23010KT 06SM HZ FEW060 SCT120 38/12 A2979,M
SBD,2016-08-31 00:55,96.80,55.40,25.15,220.00,9.00,0.00,29.80,M,6.00,M,FEW,SCT,M,M,6000.00,12000.00,M,M,HZ,M,M,M,M,M,M,95.14,KSBD 310055Z 22009KT 6SM HZ FEW060 SCT120 36/13 A2980,M
SBD,2016-08-31 01:50,93.20,55.40,28.10,240.00,8.00,0.00,29.81,M,6.00,M,FEW,SCT,M,M,6000.00,12000.00,M,M,HZ,M,M,M,M,M,M,91.35,KSBD 310150Z 24008KT 6SM HZ FEW060 SCT120 34/13 A2981,M
SBD,2016-08-31 02:50,87.80,55.40,33.29,240.00,6.00,0.00,29.82,M,6.00,M,FEW,BKN,M,M,6000.00,12000.00,M,M,HZ,M,M,M,M,M,M,86.11,KSBD 310250Z 24006KT 6SM HZ FEW060 BKN120 31/13 A2982,M
SBD,2016-08-31 03:50,84.20,57.20,39.86,250.00,5.00,0.00,29.81,M,6.00,M,FEW,BKN,M,M,6000.00,12000.00,M,M,HZ,M,M,M,M,M,M,84.20,KSBD 310350Z 25005KT 6SM HZ FEW060 BKN120 29/14 A2981 RMK LAST,M
SBD,2016-08-31 04:14,84.20,57.38,40.12,260.00,3.00,0.00,29.85,M,10.00,M,CLR,M,M,M,M,M,M,M,M,M,M,M,M,M,M,83.51,KSBD 310414Z AUTO 26003KT 10SM CLR 29/14 A2985 RMK AO2 T02900141,M
SBD,2016-08-31 04:34,83.12,57.56,41.81,260.00,3.00,0.00,29.86,M,10.00,M,CLR,M,M,M,M,M,M,M,M,M,M,M,M,M,M,82.70,KSBD 310434Z AUTO 26003KT 10SM CLR 28/14 A2986 RMK AO2 T02840142,M
SBD,2016-08-31 04:53,82.58,57.92,43.10,250.00,4.00,0.00,29.86,M,10.00,M,CLR,M,M,M,M,M,M,M,M,M,M,M,M,M,M,82.36,KSBD 310453Z AUTO 25004KT 10SM CLR 28/14 A2986 RMK AO2 T02810144,M
SBD,2016-08-31 05:14,82.40,58.28,43.92,230.00,4.00,0.00,29.86,M,10.00,M,CLR,M,M,M,M,M,M,M,M,M,M,M,M,M,M,82.30,KSBD 310514Z AUTO 23004KT 10SM CLR 28/15 A2986 RMK AO2 T02800146,M
SBD,2016-08-31 05:34,81.32,58.28,45.49,250.00,4.00,0.00,29.87,M,10.00,M,CLR,M,M,M,M,M,M,M,M,M,M,M,M,M,M,81.50,KSBD 310534Z AUTO 25004KT 10SM CLR 27/15 A2987 RMK AO2 T02740146,M
SBD,2016-08-31 05:53,80.06,57.92,46.79,260.00,7.00,0.00,29.87,M,10.00,M,CLR,M,M,M,M,M,M,M,M,M,M,M,M,M,M,80.56,KSBD 310553Z AUTO 26007KT 10SM CLR 27/14 A2987 RMK AO2 T02670144,M
SBD,2016-08-31 06:14,79.88,56.84,45.27,250.00,5.00,0.00,29.88,M,10.00,M,CLR,M,M,M,M,M,M,M,M,M,M,M,M,M,M,79.88,KSBD 310614Z AUTO 25005KT 10SM CLR 27/14 A2988 RMK AO2 T02660138,M
SBD,2016-08-31 06:34,78.80,57.20,47.52,0.00,0.00,0.00,29.88,M,10.00,M,CLR,M,M,M,M,M,M,M,M,M,M,M,M,M,M,78.80,KSBD 310634Z AUTO 00000KT 10SM CLR 26/14 A2988 RMK AO2 T02600140,M
SBD,2016-08-31 06:53,78.98,57.38,47.55,0.00,0.00,0.00,29.88,M,10.00,M,CLR,M,M,M,M,M,M,M,M,M,M,M,M,M,M,78.98,KSBD 310653Z AUTO 00000KT 10SM CLR 26/14 A2988 RMK AO2 T02610141,M
SBD,2016-08-31 07:14,78.98,57.38,47.55,0.00,0.00,0.00,29.88,M,10.00,M,CLR,M,M,M,M,M,M,M,M,M,M,M,M,M,M,78.98,KSBD 310714Z AUTO 00000KT 10SM CLR 26/14 A2988 RMK AO2 T02610141,M
SBD,2016-08-31 07:34,78.80,57.38,47.83,0.00,0.00,0.00,29.87,M,10.00,M,CLR,M,M,M,M,M,M,M,M,M,M,M,M,M,M,78.80,KSBD 310734Z AUTO 00000KT 10SM CLR 26/14 A2987 RMK AO2 T02600141,M
SBD,2016-08-31 07:53,77.90,57.02,48.63,0.00,0.00,0.00,29.87,M,10.00,M,CLR,M,M,M,M,M,M,M,M,M,M,M,M,M,M,77.90,KSBD 310753Z AUTO 00000KT 10SM CLR 26/14 A2987 RMK AO2 T02550139,M
SBD,2016-08-31 08:14,77.00,57.38,50.76,80.00,3.00,0.00,29.87,M,10.00,M,CLR,M,M,M,M,M,M,M,M,M,M,M,M,M,M,77.00,KSBD 310814Z AUTO 08003KT 10SM CLR 25/14 A2987 RMK AO2 T02500141,M
SBD,2016-08-31 08:34,76.28,57.20,51.65,0.00,0.00,0.00,29.87,M,10.00,M,CLR,M,M,M,M,M,M,M,M,M,M,M,M,M,M,76.28,KSBD 310834Z AUTO 00000KT 10SM CLR 25/14 A2987 RMK AO2 T02460140,M
SBD,2016-08-31 08:53,76.64,57.02,50.71,0.00,0.00,0.00,29.86,M,10.00,M,CLR,M,M,M,M,M,M,M,M,M,M,M,M,M,M,76.64,KSBD 310853Z AUTO 00000KT 10SM CLR 25/14 A2986 RMK AO2 T02480139,M
SBD,2016-08-31 09:14,75.20,56.12,51.50,0.00,0.00,0.00,29.86,M,10.00,M,CLR,M,M,M,M,M,M,M,M,M,M,M,M,M,M,75.20,KSBD 310914Z AUTO 00000KT 10SM CLR 24/13 A2986 RMK AO2 T02400134,M
SBD,2016-08-31 09:34,74.30,57.56,55.90,0.00,0.00,0.00,29.86,M,10.00,M,CLR,M,M,M,M,M,M,M,M,M,M,M,M,M,M,74.30,KSBD 310934Z AUTO 00000KT 10SM CLR 24/14 A2986 RMK AO2 T02350142,M
SBD,2016-08-31 09:53,74.66,57.02,54.17,0.00,0.00,0.00,29.86,M,10.00,M,CLR,M,M,M,M,M,M,M,M,M,M,M,M,M,M,74.66,KSBD 310953Z AUTO 00000KT 10SM CLR 24/14 A2986 RMK AO2 T02370139,M
SBD,2016-08-31 10:14,74.12,54.50,50.34,0.00,0.00,0.00,29.86,M,10.00,M,CLR,M,M,M,M,M,M,M,M,M,M,M,M,M,M,74.12,KSBD 311014Z AUTO 00000KT 10SM CLR 23/13 A2986 RMK AO2 T02340125,M
SBD,2016-08-31 10:34,74.30,55.58,52.04,0.00,0.00,0.00,29.86,M,10.00,M,CLR,M,M,M,M,M,M,M,M,M,M,M,M,M,M,74.30,KSBD 311034Z AUTO 00000KT 10SM CLR 24/13 A2986 RMK AO2 T02350131,M
SBD,2016-08-31 10:53,73.76,55.40,52.65,0.00,0.00,0.00,29.86,M,10.00,M,CLR,M,M,M,M,M,M,M,M,M,M,M,M,M,M,73.76,KSBD 311053Z AUTO 00000KT 10SM CLR 23/13 A2986 RMK AO2 T02320130,M
SBD,2016-08-31 11:14,73.22,53.60,50.21,0.00,0.00,0.00,29.85,M,10.00,M,CLR,M,M,M,M,M,M,M,M,M,M,M,M,M,M,73.22,KSBD 311114Z AUTO 00000KT 10SM CLR 23/12 A2985 RMK AO2 T02290120,M
SBD,2016-08-31 11:34,72.50,52.70,49.77,0.00,0.00,0.00,29.85,M,10.00,M,CLR,M,M,M,M,M,M,M,M,M,M,M,M,M,M,72.50,KSBD 311134Z AUTO 00000KT 10SM CLR 23/12 A2985 RMK AO2 T02250115,M
SBD,2016-08-31 11:53,71.96,53.42,52.04,0.00,0.00,0.00,29.85,M,10.00,M,CLR,M,M,M,M,M,M,M,M,M,M,M,M,M,M,71.96,KSBD 311153Z AUTO 00000KT 10SM CLR 22/12 A2985 RMK AO2 T02220119,M
SBD,2016-08-31 12:14,70.52,56.12,60.30,0.00,0.00,0.00,29.85,M,10.00,M,CLR,M,M,M,M,M,M,M,M,M,M,M,M,M,M,70.52,KSBD 311214Z AUTO 00000KT 10SM CLR 21/13 A2985 RMK AO2 T02140134,M
SBD,2016-08-31 12:34,69.08,55.22,61.31,80.00,4.00,0.00,29.85,M,10.00,M,CLR,M,M,M,M,M,M,M,M,M,M,M,M,M,M,69.08,KSBD 311234Z AUTO 08004KT 10SM CLR 21/13 A2985 RMK AO2 T02060129,M
SBD,2016-08-31 12:53,70.34,53.96,56.09,90.00,3.00,0.00,29.85,M,10.00,M,CLR,M,M,M,M,M,M,M,M,M,M,M,M,M,M,70.34,KSBD 311253Z AUTO 09003KT 10SM CLR 21/12 A2985 RMK AO2 T02130122,M
SBD,2016-08-31 13:14,70.34,54.14,56.46,200.00,4.00,0.00,29.86,M,10.00,M,CLR,M,M,M,M,M,M,M,M,M,M,M,M,M,M,70.34,KSBD 311314Z AUTO 20004KT 10SM CLR 21/12 A2986 RMK AO2 T02130123,M
SBD,2016-08-31 13:34,70.88,53.60,54.34,0.00,0.00,0.00,29.87,M,10.00,M,CLR,M,M,M,M,M,M,M,M,M,M,M,M,M,M,70.88,KSBD 311334Z AUTO 00000KT 10SM CLR 22/12 A2987 RMK AO2 T02160120,M
SBD,2016-08-31 13:53,71.24,53.06,52.63,0.00,0.00,0.00,29.88,M,10.00,M,CLR,M,M,M,M,M,M,M,M,M,M,M,M,M,M,71.24,KSBD 311353Z AUTO 00000KT 10SM CLR 22/12 A2988 RMK AO2 T02180117,M
SBD,2016-08-31 14:00,71.60,53.60,53.03,0.00,0.00,0.00,29.88,M,7.00,M,CLR,M,M,M,M,M,M,M,M,M,M,M,M,M,M,71.60,KSBD 311400Z 00000KT 7SM SKC 22/12 A2988,M
SBD,2016-08-31 14:45,75.20,53.60,46.98,0.00,0.00,0.00,29.88,M,7.00,M,CLR,M,M,M,M,M,M,M,M,M,M,M,M,M,M,75.20,KSBD 311445Z 00000KT 7SM SKC 24/12 A2988,M
SBD,2016-08-31 15:45,75.20,53.60,46.98,0.00,0.00,0.00,29.88,M,7.00,M,FEW,M,M,M,8000.00,M,M,M,M,M,M,M,M,M,M,75.20,KSBD 311545Z 00000KT 7SM FEW080 24/12 A2988,M
SBD,2016-08-31 16:50,89.60,53.60,29.45,0.00,0.00,0.00,29.88,M,7.00,M,FEW,M,M,M,10000.00,M,M,M,M,M,M,M,M,M,M,87.36,KSBD 311650Z 00000KT 7SM FEW100 32/12 A2988,M
SBD,2016-08-31 17:50,96.80,46.40,18.02,270.00,5.00,0.00,29.88,M,7.00,M,SCT,M,M,M,10000.00,M,M,M,M,M,M,M,M,M,M,93.05,KSBD 311750Z 27005KT 7SM SCT100 36/08 A2988,M
SBD,2016-08-31 18:50,98.60,44.60,15.93,270.00,5.00,0.00,29.85,M,7.00,M,SCT,M,M,M,10000.00,M,M,M,M,M,M,M,M,M,M,94.55,KSBD 311850Z 27005KT 7SM SCT100 37/07 A2985,M
SBD,2016-08-31 19:50,100.40,46.40,16.15,230.00,6.00,0.00,29.88,M,7.00,M,BKN,M,M,M,10000.00,M,M,M,M,M,M,M,M,M,M,96.63,KSBD 311950Z 23006KT 7SM BKN100 38/08 A2988,M
SBD,2016-08-31 20:50,102.20,44.60,14.29,230.00,9.00,0.00,29.85,M,7.00,M,FEW,BKN,M,M,6000.00,12000.00,M,M,M,M,M,M,M,M,M,98.07,KSBD 312050Z 23009KT 7SM FEW060 BKN120 39/07 A2985,M
SBD,2016-08-31 21:50,104.00,39.20,11.00,240.00,11.00,0.00,29.84,M,7.00,M,FEW,M,M,M,6000.00,M,M,M,M,M,M,M,M,M,M,98.56,KSBD 312150Z 24011KT 7SM FEW060 40/04 A2984,M
SBD,2016-08-31 22:50,104.00,39.20,11.00,250.00,16.00,0.00,29.83,M,7.00,M,FEW,M,M,M,10000.00,M,M,M,M,M,M,M,M,M,M,98.56,KSBD 312250Z 25016KT 7SM FEW100 40/04 A2983,M
SBD,2016-08-31 23:50,102.20,41.00,12.44,270.00,10.00,0.00,29.82,M,7.00,M,FEW,M,M,M,10000.00,M,M,M,M,M,M,M,M,M,M,97.39,KSBD 312350Z 27010KT 7SM FEW100 39/05 A2982,M
