valid,tmpf,dwpf,relh,drct,sknt,alti,vsby,gust,skyc1,skyc2,skyl1,skyl2,wxcodes,feel
2016/7/1 0:05,96.44,53.6,23.81,260,12,29.79,10,16,CLR,BKN,,,HZ,94.21
2016/7/1 0:24,95,54.32,25.55,260,12,29.8,10,,CLR,,,,,92.9
2016/7/1 0:44,93.74,53.6,25.88,280,9,29.8,10,14,CLR,,,,,91.41
2016/7/1 0:49,93.2,53.6,26.31,250,11,29.8,7,,FEW,,7000,,,90.86
2016/7/1 1:05,92.84,54.5,27.5,260,11,29.8,10,,CLR,,,,,90.73
2016/7/1 1:24,91.76,55.04,29.01,250,9,29.8,10,,CLR,,,,,89.79
2016/7/1 1:44,90.68,56.3,31.41,260,11,29.81,10,,CLR,,,,,89.07
2016/7/1 1:47,89.6,55.4,31.45,230,9,29.81,7,,FEW,,7000,,,87.78
2016/7/1 2:05,88.34,57.2,34.93,240,10,29.81,10,,CLR,,,,,87.08
2016/7/1 2:24,86.54,57.56,37.46,230,7,29.82,10,,CLR,,,,,85.54
2016/7/1 2:44,85.1,58.1,40,240,9,29.83,10,,CLR,,,,,85.1
2016/7/1 2:50,75.2,57.2,53.55,240,8,29.83,7,,CLR,,,,,75.2
2016/7/1 3:04,83.48,58.64,42.96,240,7,29.83,10,,CLR,,,,,83.23
2016/7/1 3:24,82.4,59,45.07,250,8,29.84,10,,CLR,,,,,82.46
2016/7/1 3:44,81.32,59.18,46.98,240,8,29.85,10,,CLR,,,,,81.68
2016/7/1 4:04,80.24,59.36,48.98,260,7,29.86,10,,CLR,,,,,80.92
2016/7/1 4:25,79.16,59.36,50.75,240,5,29.87,10,,CLR,BKN,,,HZ,79.16
2016/7/1 4:44,78.8,59.36,51.35,240,5,29.88,10,,CLR,,,,,78.8
2016/7/1 5:04,77.9,59.54,53.24,250,7,29.89,10,,CLR,,,,,77.9
2016/7/1 5:25,77,59.9,55.56,240,6,29.89,10,,CLR,,,,,77
2016/7/1 5:44,76.28,59.9,56.9,240,6,29.89,10,,CLR,,,,,76.28
2016/7/1 6:04,75.2,60.08,59.37,240,6,29.89,10,,CLR,,,,,75.2
2016/7/1 6:25,74.3,60.26,61.57,250,6,29.89,10,,CLR,,,,,74.3
2016/7/1 6:44,73.4,60.26,63.46,260,5,29.9,10,,CLR,,,,,73.4
2016/7/1 7:04,72.5,60.26,65.42,250,6,29.9,10,,CLR,,,,,72.5
2016/7/1 7:25,71.78,60.44,67.46,270,8,29.89,10,,CLR,,,,,71.78
2016/7/1 7:44,71.24,60.44,68.71,250,6,29.9,10,,CLR,,,,,71.24
2016/7/1 8:04,70.7,60.44,69.98,250,7,29.9,10,,CLR,,,,,70.7
2016/7/1 8:25,69.98,60.44,71.72,250,5,29.9,10,,CLR,,,,,69.98
2016/7/1 8:44,69.8,60.8,73.09,240,5,29.9,10,,CLR,,,,,69.8
2016/7/1 9:04,69.26,60.8,74.46,260,4,29.9,10,,CLR,,,,,69.26
2016/7/1 9:25,68.9,60.8,75.38,250,5,29.9,10,,CLR,,,,,68.9
2016/7/1 9:44,68.9,60.8,75.38,260,3,29.9,7,,CLR,,,,,68.9
2016/7/1 10:04,68.9,60.8,75.38,,,29.9,10,,CLR,,,,,68.9
2016/7/1 10:25,68.72,60.8,75.85,,,29.9,10,,CLR,,,,,68.72
2016/7/1 10:44,68.36,60.8,76.79,,,29.89,10,,CLR,,,,,68.36
2016/7/1 11:04,68.18,60.8,77.27,250,3,29.89,7,,CLR,,,,,68.18
2016/7/1 11:25,68,60.8,77.75,250,3,29.89,7,,CLR,,,,,68
2016/7/1 11:44,68,60.8,77.75,260,3,29.89,7,,CLR,,,,,68
2016/7/1 12:04,67.64,60.8,78.72,260,3,29.9,7,,CLR,,,,,67.64
2016/7/1 12:24,67.64,60.8,78.72,,,29.9,7,,CLR,,,,,67.64
2016/7/1 12:45,67.46,60.8,79.21,260,3,29.9,7,,CLR,,,,,67.46
2016/7/1 13:04,67.28,60.98,80.21,,,29.9,7,,CLR,,,,,67.28
2016/7/1 13:24,68,61.34,79.25,,,29.91,7,,CLR,,,,,68
2016/7/1 13:44,68.9,61.34,76.84,260,3,29.91,5,,CLR,,,,HZ,68.9
2016/7/1 14:00,68,57.2,68.35,,,29.91,4,,CLR,,,,HZ,68
2016/7/1 14:04,69.8,61.52,74.98,,,29.91,5,,CLR,,,,HZ,69.8
2016/7/1 14:24,70.88,61.34,71.81,,,29.92,5,,CLR,,,,HZ,70.88
2016/7/1 14:45,71.78,61.34,69.65,,,29.92,5,,CLR,,,,HZ,71.78
2016/7/1 14:48,73.4,64.4,73.44,,,29.92,4,,CLR,,,,HZ,73.4
2016/7/1 15:04,73.58,61.52,65.96,,,29.92,5,,CLR,,,,HZ,73.58
2016/7/1 15:24,74.3,61.52,64.39,280,3,29.92,5,,CLR,,,,HZ,74.3
2016/7/1 15:45,75.56,61.34,61.34,250,4,29.92,0.25,,VV ,,200,,HZ,75.56
2016/7/1 15:49,75.2,64.4,69.14,270,6,29.92,4,,CLR,,,,HZ,75.2
2016/7/1 16:04,77,61.16,58.1,,,29.92,5,,CLR,,,,HZ,77
2016/7/1 16:24,77.72,61.16,56.73,230,5,29.92,5,,CLR,,,,HZ,77.72
2016/7/1 16:46,82.4,64.4,54.55,260,8,29.92,3,,CLR,,,,HZ,83.98
2016/7/1 17:04,79.88,61.34,53.18,240,3,29.92,5,,CLR,,,,HZ,80.99
2016/7/1 17:24,81.86,60.98,49.22,230,4,29.92,5,,CLR,,,,HZ,82.51
2016/7/1 17:45,83.84,60.8,45.87,230,6,29.92,5,,CLR,,,,HZ,84.12
2016/7/1 17:47,84.2,60.8,45.34,230,6,29.92,3,,,,,,HZ,84.43
2016/7/1 18:04,85.82,60.44,42.5,280,6,29.92,5,,CLR,,,,HZ,85.76
2016/7/1 18:24,86.9,60.08,40.53,270,8,29.92,7,,CLR,,,,,86.64
2016/7/1 18:45,87.98,60.26,39.42,250,10,29.92,7,14,CLR,,,,,87.98
2016/7/1 19:04,89.6,59.54,36.5,260,8,29.92,7,,CLR,,,,,89.6
2016/7/1 19:24,91.04,59.9,35.34,230,6,29.91,7,,CLR,,,,,91.04
2016/7/1 19:45,92.66,59.72,33.38,240,7,29.91,7,,CLR,,,,,92.66
2016/7/1 20:04,92.66,59.36,32.96,260,10,29.9,10,,CLR,,,,,92.66
2016/7/1 20:24,93.74,59.18,31.67,270,8,29.9,10,,CLR,,,,,93.74
2016/7/1 20:45,93.92,59,31.29,250,6,29.89,10,,CLR,,,,,93.92
2016/7/1 20:47,93.2,59,31.99,220,10,29.89,4,,FEW,,5000,,HZ,93.2
2016/7/1 21:04,95.36,58.82,29.74,250,11,29.88,10,16,CLR,,,,,95.36
2016/7/1 21:24,94.28,58.46,30.35,260,8,29.88,10,,CLR,,,,,94.28
2016/7/1 21:44,94.82,58.1,29.46,260,10,29.87,10,,CLR,,,,,94.82
2016/7/1 22:05,95.36,57.2,28.05,260,11,29.87,10,18,CLR,,,,,94.21
2016/7/1 22:25,93.92,57.02,29.14,260,12,29.87,10,,CLR,,,,,92.61
2016/7/1 22:44,93.92,56.3,28.39,280,12,29.87,10,,CLR,,,,,92.37
2016/7/1 22:49,93.2,55.4,28.1,270,11,29.87,5,,FEW,,5000,,HZ,91.35
2016/7/1 23:05,93.38,54.5,27.04,270,13,29.87,10,17,CLR,,,,,91.28
2016/7/1 23:24,93.02,53.06,25.94,250,10,29.87,10,,CLR,,,,,90.55
2016/7/1 23:44,93.38,53.24,25.82,280,11,29.86,10,17,CLR,,,,,90.96
2016/7/1 23:48,93.2,53.6,26.31,280,10,29.86,6,,FEW,,5000,,HZ,90.86
2016/7/2 0:05,92.3,53.78,27.24,250,10,29.87,10,,CLR,,,,,90.01
2016/7/2 0:24,91.94,52.88,26.65,250,9,29.85,10,,CLR,,,,,89.44
2016/7/2 0:45,91.4,54.32,28.57,290,10,29.86,10,,CLR,,,,,89.25
2016/7/2 0:47,91.4,53.6,27.83,280,9,29.86,6,,FEW,,5000,,HZ,89.08
2016/7/2 1:05,91.4,53.6,27.83,250,11,29.86,10,14,CLR,,,,,89.08
2016/7/2 1:24,90.68,53.96,28.84,260,9,29.87,10,,CLR,,,,,88.46
2016/7/2 1:44,88.7,55.76,32.78,250,11,29.87,10,,CLR,,,,,87.03
2016/7/2 1:50,87.8,57.2,35.53,240,11,29.87,7,,FEW,,10000,,,86.58
2016/7/2 2:05,86.72,56.66,36.06,250,12,29.87,10,,CLR,,,,,85.46
2016/7/2 2:24,84.56,57.56,39.92,250,11,29.88,10,,CLR,,,,,84.56
2016/7/2 2:45,82.22,58.1,43.89,240,11,29.88,10,,CLR,,,,,82.13
2016/7/2 3:04,80.06,58.46,47.71,240,10,29.89,10,,CLR,,,,,80.64
2016/7/2 3:24,78.8,59,50.69,240,8,29.91,10,,CLR,,,,,78.8
2016/7/2 3:45,77.54,59,52.85,240,7,29.92,10,,CLR,,,,,77.54
2016/7/2 3:47,77,59,53.8,230,7,29.92,7,,FEW,,10000,,,77
2016/7/2 4:04,76.64,59,54.45,250,8,29.92,10,,CLR,,,,,76.64
2016/7/2 4:25,75.56,59,56.44,250,8,29.93,10,,CLR,,,,,75.56
2016/7/2 4:45,74.84,59,57.81,250,7,29.94,10,,CLR,,,,,74.84
2016/7/2 5:04,73.76,59.18,60.33,260,6,29.95,10,,CLR,,,,,73.76
2016/7/2 5:25,73.4,59,60.67,240,6,29.96,10,,CLR,,,,,73.4
2016/7/2 5:44,72.5,59,62.54,250,6,29.97,10,,CLR,,,,,72.5
2016/7/2 6:04,71.42,58.82,64.46,240,6,29.97,10,,CLR,,,,,71.42
2016/7/2 6:25,70.34,58.64,66.44,250,6,29.97,10,,CLR,,,,,70.34
2016/7/2 6:44,69.8,58.64,67.67,250,7,29.97,10,,CLR,,,,,69.8
2016/7/2 7:04,69.08,58.64,69.36,250,7,29.97,10,,CLR,,,,,69.08
2016/7/2 7:25,68.9,58.64,69.79,240,7,29.97,10,,CLR,,,,,68.9
2016/7/2 7:44,68,58.64,71.98,250,5,29.97,10,,CLR,,,,,68
2016/7/2 8:04,67.46,58.46,72.86,260,3,29.97,10,,CLR,,,,,67.46
2016/7/2 8:25,67.1,58.46,73.78,250,6,29.97,10,,CLR,,,,,67.1
2016/7/2 8:44,66.92,58.46,74.24,250,4,29.97,10,,CLR,,,,,66.92
2016/7/2 9:04,66.2,58.46,76.11,260,5,29.97,10,,CLR,,,,,66.2
2016/7/2 9:25,65.84,58.28,76.57,260,4,29.97,10,,CLR,,,,,65.84
2016/7/2 9:44,65.3,58.28,78.02,260,4,29.97,10,,CLR,,,,,65.3
2016/7/2 10:04,64.94,58.1,78.5,260,4,29.96,10,,CLR,,,,,64.94
2016/7/2 10:25,64.76,58.28,79.51,250,3,29.96,10,,CLR,,,,,64.76
2016/7/2 10:44,64.58,58.28,80.01,260,4,29.96,10,,CLR,,,,,64.58
2016/7/2 11:04,64.4,58.1,79.99,250,5,29.97,10,,CLR,,,,,64.4
2016/7/2 11:25,63.86,58.1,81.52,250,4,29.97,10,,CLR,,,,,63.86
2016/7/2 11:44,63.86,58.1,81.52,260,5,29.97,10,,CLR,,,,,63.86
2016/7/2 12:04,63.14,57.74,82.53,250,4,29.97,10,,CLR,,,,,63.14
2016/7/2 12:25,63.14,58.1,83.61,,,29.97,10,,CLR,,,,,63.14
2016/7/2 12:44,63.5,58.1,82.56,,,29.97,10,,CLR,,,,,63.5
2016/7/2 13:04,63.5,58.1,82.56,,,29.97,10,,CLR,,,,,63.5
2016/7/2 13:25,62.96,58.1,84.14,260,3,29.97,7,,CLR,,,,,62.96
2016/7/2 13:44,64.22,58.64,82.07,,,29.98,7,,CLR,,,,,64.22
2016/7/2 13:50,64.4,59,82.62,,,29.98,4,,CLR,,,,HZ,64.4
2016/7/2 14:04,65.3,58.64,79.04,250,3,29.98,7,,CLR,,,,,65.3
2016/7/2 14:25,66.2,58.64,76.6,240,3,29.99,7,,SCT,,1100,,,66.2
2016/7/2 14:44,67.1,58.46,73.78,270,3,29.99,7,,CLR,,,,,67.1
2016/7/2 14:48,66.2,59,77.6,,,30,4,,CLR,,,,HZ,66.2
2016/7/2 15:05,68,58.64,71.98,,,30,7,,CLR,,,,,68
2016/7/2 15:25,69.26,58.64,68.94,300,3,30.01,7,,CLR,,,,,69.26
2016/7/2 15:44,70.34,58.82,66.87,260,3,30.01,7,,CLR,,,,,70.34
2016/7/2 15:50,71.6,59,64.48,240,3,30.01,4,,CLR,,,,HZ,71.6
2016/7/2 16:05,72.32,58.82,62.52,270,3,30.01,7,,CLR,,,,,72.32
2016/7/2 16:24,74.3,58.64,58.11,,,30.01,7,,CLR,,,,,74.3
2016/7/2 16:45,75.2,58.46,56.03,,,30.01,7,,CLR,,,,,75.2
2016/7/2 16:49,75.2,57.2,53.55,,,30.01,4,,CLR,,,,HZ,75.2
2016/7/2 17:04,76.28,58.28,53.7,,,30,7,,CLR,,,,,76.28
2016/7/2 17:24,78.62,58.28,49.7,300,6,30,7,,CLR,,,,,78.62
2016/7/2 17:44,80.24,57.74,46.22,290,4,30,7,,CLR,,,,,80.65
2016/7/2 18:05,81.68,56.84,42.69,,,30,10,,CLR,,,,,81.49
2016/7/2 18:24,83.48,56.12,39.24,250,3,30,10,,CLR,,,,,83.48
2016/7/2 18:44,85.82,54.86,34.77,250,7,29.99,10,,CLR,,,,,84.28
2016/7/2 18:50,86,53.6,33.01,280,7,29.99,5,,CLR,,,,HZ,84.18
2016/7/2 19:05,87.44,52.7,30.51,290,5,29.99,10,,CLR,,,,,85.23
2016/7/2 19:24,88.7,51.98,28.55,240,8,29.98,10,,CLR,,,,,86.21
2016/7/2 19:45,91.22,47.48,22.3,280,5,29.98,10,,CLR,,,,,87.83
2016/7/2 19:50,91.4,46.4,21.29,250,7,29.98,5,,CLR,,,,HZ,87.86
2016/7/2 20:04,91.22,47.48,22.3,240,5,29.97,10,,CLR,,,,,87.83
2016/7/2 20:25,92.3,48.02,22,250,7,29.97,10,,CLR,,,,,88.91
2016/7/2 20:44,93.2,48.74,21.98,230,9,29.97,10,,CLR,,,,,89.89
2016/7/2 20:50,93.2,48.2,21.54,290,9,29.97,5,,CLR,,,,HZ,89.8
2016/7/2 21:05,93.56,48.56,21.59,270,7,29.97,10,,CLR,,,,,90.21
2016/7/2 21:25,92.84,48.02,21.64,230,5,29.96,10,9,CLR,,,,,89.43
2016/7/2 21:44,93.56,47.48,20.73,290,7,29.96,10,,CLR,,,,,90.04
2016/7/2 21:50,93.2,46.4,20.13,240,8,29.96,7,,CLR,,,,,89.55
2016/7/2 22:05,94.28,46.4,19.47,270,8,29.95,10,,CLR,,,,,90.59
2016/7/2 22:25,94.46,45.68,18.84,260,9,29.95,10,,CLR,,,,,90.67
2016/7/2 22:44,94.46,46.04,19.1,280,4,29.95,10,,CLR,,,,,90.71
2016/7/2 22:47,93.2,46.4,20.13,230,10,29.95,7,,CLR,,,,,89.55
2016/7/2 23:05,94.28,47.3,20.14,260,9,29.95,10,15,CLR,,,,,90.72
2016/7/2 23:25,94.1,47.66,20.53,250,9,29.95,10,14,CLR,,,,,90.59
2016/7/2 23:45,94.1,48.56,21.23,260,14,29.95,10,,CLR,,,,,90.73
2016/7/2 23:48,93.2,48.2,21.54,250,11,29.95,7,,CLR,,,,,89.8
2016/7/3 0:04,92.3,48.56,22.45,250,13,29.95,10,,CLR,,,,,88.99
2016/7/3 0:24,91.22,48.74,23.38,250,13,29.95,10,,CLR,,,,,88
2016/7/3 0:44,89.6,50,25.79,250,13,29.95,10,,CLR,,,,,86.7
2016/7/3 0:49,89.6,50,25.79,240,12,29.95,7,,CLR,,,,,86.7
2016/7/3 1:05,88.34,50,26.83,260,13,29.95,10,17,CLR,,,,,85.57
2016/7/3 1:24,87.08,51.26,29.26,250,12,29.96,10,,CLR,,,,,84.68
2016/7/3 1:44,85.28,52.52,32.47,250,12,29.96,10,,CLR,,,,,83.41
2016/7/3 1:50,84.2,53.6,34.97,250,12,29.96,7,,CLR,,,,,82.76
2016/7/3 2:05,83.84,52.7,34.23,240,11,29.97,10,,CLR,,,,,82.34
2016/7/3 2:24,82.04,52.88,36.53,260,10,29.98,10,,CLR,,,,,82.04
2016/7/3 2:44,80.78,51.98,36.82,250,9,29.99,10,,CLR,,,,,80.78
2016/7/3 2:50,80.6,51.8,36.79,260,10,29.99,7,,CLR,,,,,80.6
2016/7/3 3:05,78.62,53.42,41.67,260,10,30,10,,CLR,,,,,78.62
2016/7/3 3:24,77.54,54.86,45.51,240,6,30,10,,CLR,,,,,77.54
2016/7/3 3:45,76.1,55.4,48.69,250,8,30.01,10,,CLR,,,,,76.1
2016/7/3 3:46,75.2,55.4,50.17,230,8,39.91,7,,CLR,,,,,75.2
2016/7/3 4:04,74.48,55.4,51.39,250,5,30.01,10,,CLR,,,,,74.48
2016/7/3 4:25,73.4,55.4,53.29,250,6,30.02,10,,CLR,,,,,73.4
2016/7/3 4:44,72.32,55.4,55.27,250,7,30.03,10,,CLR,,,,,72.32
2016/7/3 5:04,71.6,55.58,57,260,7,30.04,10,,CLR,,,,,71.6
2016/7/3 5:25,70.7,55.76,59.16,250,5,30.04,10,,CLR,,,,,70.7
2016/7/3 5:44,70.16,55.58,59.86,250,4,30.04,10,,CLR,,,,,70.16
2016/7/3 6:05,69.44,55.58,61.35,250,5,30.04,10,,CLR,,,,,69.44
2016/7/3 6:24,68.9,55.58,62.5,260,5,30.04,10,,CLR,,,,,68.9
2016/7/3 6:45,68.18,55.58,64.06,250,5,30.04,10,,CLR,,,,,68.18
2016/7/3 7:05,67.46,55.58,65.67,260,3,30.04,10,,CLR,,,,,67.46
2016/7/3 7:25,67.1,55.76,66.93,260,3,30.05,10,,CLR,,,,,67.1
2016/7/3 7:44,66.56,55.58,67.75,250,4,30.05,10,,CLR,,,,,66.56
2016/7/3 8:05,66.38,55.58,68.17,260,4,30.04,10,,CLR,,,,,66.38
2016/7/3 8:25,65.48,55.58,70.34,260,4,30.04,10,,CLR,,,,,65.48
2016/7/3 8:44,65.12,55.58,71.22,260,5,30.04,10,,CLR,,,,,65.12
2016/7/3 9:05,65.3,55.76,71.24,260,4,30.04,10,,CLR,,,,,65.3
2016/7/3 9:25,64.4,55.4,72.56,260,4,30.03,10,,CLR,,,,,64.4
2016/7/3 9:44,63.86,55.58,74.43,250,5,30.03,10,,CLR,,,,,63.86
2016/7/3 10:05,63.68,55.76,75.39,260,3,30.02,10,,CLR,,,,,63.68
2016/7/3 10:25,63.68,55.76,75.39,260,3,30.02,10,,CLR,,,,,63.68
2016/7/3 10:44,63.86,55.76,74.92,270,3,30.02,10,,CLR,,,,,63.86
2016/7/3 11:05,63.14,55.58,76.34,260,3,30.02,10,,CLR,,,,,63.14
2016/7/3 11:25,62.78,55.58,77.31,270,3,30.02,10,,CLR,,,,,62.78
2016/7/3 11:44,62.6,55.4,77.29,260,3,30.02,10,,CLR,,,,,62.6
2016/7/3 12:05,62.24,55.58,78.79,260,3,30.02,10,,CLR,,,,,62.24
2016/7/3 12:25,61.88,55.58,79.8,260,3,30.02,10,,CLR,,,,,61.88
2016/7/3 12:44,61.52,55.22,79.77,250,3,30.03,10,,CLR,,,,,61.52
2016/7/3 13:05,61.7,55.76,80.84,,,30.04,10,,CLR,,,,,61.7
2016/7/3 13:25,61.88,55.94,80.85,260,3,30.04,10,,CLR,,,,,61.88
2016/7/3 13:44,63.14,56.3,78.35,260,3,30.04,10,,CLR,,,,,63.14
2016/7/3 13:47,62.6,55.4,77.29,250,3,30.04,5,,CLR,,,,HZ,62.6
2016/7/3 14:05,64.04,56.3,75.92,,,30.04,10,,CLR,,,,,64.04
2016/7/3 14:25,64.94,56.3,73.57,270,3,30.05,10,,CLR,,,,,64.94
2016/7/3 14:44,66.38,56.3,69.98,,,30.05,10,,CLR,,,,,66.38
2016/7/3 15:04,67.28,56.3,67.83,,,30.06,10,,CLR,,,,,67.28
2016/7/3 15:25,68.36,56.3,65.35,300,3,30.06,10,,CLR,,,,,68.36
2016/7/3 15:44,69.26,56.3,63.37,,,30.06,10,,CLR,,,,,69.26
2016/7/3 15:49,69.8,55.4,60.21,230,3,30.06,5,,CLR,,,,HZ,69.8
2016/7/3 16:04,71.06,56.3,59.59,,,30.06,10,,CLR,,,,,71.06
2016/7/3 16:24,72.32,55.94,56.36,230,3,30.06,10,,CLR,,,,,72.32
2016/7/3 16:45,73.4,56.12,54.7,270,4,30.06,10,,CLR,,,,,73.4
2016/7/3 16:48,73.4,55.4,53.29,230,5,30.06,5,,CLR,,,,HZ,73.4
2016/7/3 17:05,74.48,55.58,51.73,,,30.06,10,,CLR,,,,,74.48
2016/7/3 17:25,76.1,55.4,48.69,,,30.06,10,,CLR,,,,,76.1
2016/7/3 17:45,78.08,54.32,43.83,250,4,30.06,10,,CLR,,,,,78.08
2016/7/3 17:52,77,55.4,47.25,260,5,30.06,5,,CLR,,,,HZ,77
2016/7/3 18:04,79.7,55.22,42.94,260,5,30.06,7,,CLR,,,,,79.7
2016/7/3 18:24,81.32,53.6,38.39,300,5,30.06,10,,CLR,,,,,81.32
2016/7/3 18:44,81.68,52.52,36.47,,,30.06,10,,CLR,,,,,81.68
2016/7/3 18:47,82.4,53.6,37.07,230,4,30.06,5,,CLR,,,,HZ,82.4
2016/7/3 19:05,83.84,52.7,34.23,280,7,30.05,10,,CLR,,,,,82.34
2016/7/3 19:25,84.56,51.62,32.14,290,4,30.05,10,,CLR,,,,,82.72
2016/7/3 19:44,85.64,51.08,30.44,270,5,30.04,10,,CLR,,,,,83.48
2016/7/3 19:50,86,50,28.9,270,6,30.04,5,,CLR,,,,HZ,83.62
2016/7/3 20:05,86.9,50.36,28.47,230,5,30.04,10,,CLR,,,,,84.4
2016/7/3 20:24,87.62,49.64,27.09,280,8,30.04,10,,CLR,,,,,84.9
2016/7/3 20:45,88.52,49.28,25.97,280,10,30.03,10,,CLR,,,,,85.63
2016/7/3 20:50,89.6,50,25.79,290,5,30.03,6,,CLR,,,,HZ,86.7
2016/7/3 21:04,89.06,49.28,25.53,250,5,30.02,10,,CLR,,,,,86.11
2016/7/3 21:25,91.4,49.46,23.88,240,8,30.02,10,,CLR,,,,,88.28
2016/7/3 21:44,91.22,49.46,24.02,260,6,30.01,10,,CLR,,,,,88.11
2016/7/3 21:49,91.4,48.2,22.78,220,7,30.01,6,,CLR,,,,HZ,88.09
2016/7/3 22:05,91.76,49.1,23.3,250,7,30.01,10,,CLR,,,,,88.56
2016/7/3 22:25,91.94,49.28,23.33,290,8,30,10,,CLR,,,,,88.76
2016/7/3 22:44,91.22,49.82,24.34,250,11,29.99,10,,CLR,,,,,88.17
2016/7/3 22:48,91.4,50,24.37,240,8,29.99,6,,CLR,,,,HZ,88.36
2016/7/3 23:04,91.94,50.54,24.45,270,11,29.99,10,,CLR,,,,,88.97
2016/7/3 23:25,90.5,51.8,26.79,250,8,29.99,10,16,CLR,,,,,87.83
2016/7/3 23:44,90.32,52.52,27.67,250,11,29.99,10,15,CLR,,,,,87.81
2016/7/3 23:50,89.6,53.6,29.45,240,10,29.99,6,,CLR,,,,HZ,87.36
2016/7/4 0:04,88.88,52.88,29.34,250,11,29.99,10,,CLR,,,,,86.54
2016/7/4 0:25,87.26,53.06,31.09,250,14,29.99,10,,CLR,,,,,85.14
2016/7/4 0:44,86.18,53.42,32.61,260,11,29.98,10,17,CLR,,,,,84.3
2016/7/4 0:50,86,53.6,33.01,240,12,29.98,6,,CLR,,,,HZ,84.18
2016/7/4 1:04,85.64,53.6,33.39,250,13,29.98,10,16,CLR,,,,,83.89
2016/7/4 1:25,84.92,53.78,34.4,260,10,29.98,10,14,CLR,,,,,83.34
2016/7/4 1:44,83.48,54.14,36.51,260,13,29.99,10,,CLR,,,,,82.31
2016/7/4 1:50,82.4,53.6,37.07,240,11,29.99,7,,CLR,,,,,82.4
2016/7/4 2:04,82.4,54.68,38.56,260,9,29.99,10,,CLR,,,,,82.4
2016/7/4 2:25,80.78,55.22,41.45,260,10,29.99,10,,CLR,,,,,80.62
2016/7/4 2:44,79.16,55.58,44.29,250,10,29.99,10,,CLR,,,,,79.16
2016/7/4 2:50,77,55.4,47.25,240,8,30,7,,CLR,,,,,77
2016/7/4 3:04,77.72,55.76,46.74,250,8,30,10,,CLR,,,,,77.72
2016/7/4 3:25,76.28,56.3,50,250,8,30,10,,CLR,,,,,76.28
2016/7/4 3:44,75.38,56.3,51.52,240,7,30.01,10,,CLR,,,,,75.38
2016/7/4 3:50,75.2,55.4,50.17,230,5,30.01,7,,CLR,,,,,75.2
2016/7/4 3:59,74.66,56.3,52.78,250,7,30.01,10,,CLR,,,,,74.66
2016/7/4 4:25,73.4,56.3,55.06,240,6,30.02,10,,CLR,,,,,73.4
2016/7/4 4:44,72.68,56.3,56.41,240,6,30.03,10,,CLR,,,,,72.68
2016/7/4 5:04,71.78,56.3,58.15,240,6,30.03,10,,CLR,,,,,71.78
2016/7/4 5:25,70.7,56.3,60.33,250,8,30.04,10,,CLR,,,,,70.7
2016/7/4 5:44,69.62,56.3,62.59,250,6,30.04,10,,CLR,,,,,69.62
2016/7/4 6:04,68.9,56.3,64.15,250,7,30.04,10,,CLR,,,,,68.9
2016/7/4 6:25,67.82,56.3,66.58,250,6,30.05,10,,CLR,,,,,67.82
2016/7/4 6:44,67.28,56.3,67.83,260,6,30.05,10,,CLR,,,,,67.28
2016/7/4 7:04,66.56,56.3,69.54,260,4,30.05,10,,CLR,,,,,66.56
2016/7/4 7:24,66.2,56.3,70.41,260,5,30.05,10,,CLR,,,,,66.2
2016/7/4 7:45,65.48,56.3,72.2,260,5,30.05,10,,CLR,,,,,65.48
2016/7/4 8:04,65.12,56.12,72.63,260,3,30.05,10,,CLR,,,,,65.12
2016/7/4 8:25,64.76,56.3,74.03,240,3,30.05,10,,CLR,,,,,64.76
2016/7/4 8:44,64.76,55.94,73.07,,,30.05,10,,CLR,,,,,64.76
2016/7/4 9:05,64.04,55.94,74.94,250,4,30.05,10,,CLR,,,,,64.04
2016/7/4 9:25,63.68,56.12,76.38,250,4,30.05,10,,CLR,,,,,63.68
2016/7/4 9:44,63.5,55.94,76.37,260,4,30.04,10,,CLR,,,,,63.5
2016/7/4 10:05,63.14,56.3,78.35,270,4,30.04,10,,CLR,,,,,63.14
2016/7/4 10:25,62.96,55.94,77.83,260,3,30.04,10,,CLR,,,,,62.96
2016/7/4 10:44,62.78,56.12,78.84,250,3,30.03,10,,CLR,,,,,62.78
2016/7/4 11:05,62.6,55.94,78.82,230,3,30.03,10,,CLR,,,,,62.6
2016/7/4 11:25,62.6,55.94,78.82,250,3,30.03,10,,CLR,,,,,62.6
2016/7/4 11:44,61.88,55.76,80.32,260,4,30.03,10,,CLR,,,,,61.88
2016/7/4 12:05,61.88,55.94,80.85,260,3,30.04,10,,CLR,,,,,61.88
2016/7/4 12:25,60.98,55.58,82.38,250,4,30.03,10,,CLR,,,,,60.98
2016/7/4 12:44,60.8,55.58,82.91,260,4,30.04,10,,CLR,,,,,60.8
2016/7/4 13:05,60.62,55.58,83.44,260,4,30.04,10,,CLR,,,,,60.62
2016/7/4 13:25,61.16,56.3,84.02,260,4,30.05,7,,CLR,,,,,61.16
2016/7/4 13:44,62.06,56.66,82.46,250,4,30.05,7,,CLR,,,,,62.06
2016/7/4 13:48,62.6,57.2,82.5,240,5,30.05,4,,CLR,,,,HZ,62.6
2016/7/4 14:05,62.96,56.66,79.88,240,3,30.06,7,,CLR,,,,,62.96
2016/7/4 14:24,63.68,56.48,77.38,240,4,30.06,7,,CLR,,,,,63.68
2016/7/4 14:45,64.58,56.66,75.47,230,3,30.06,7,,CLR,,,,,64.58
2016/7/4 14:48,64.4,57.2,77.45,,,30.06,4,,CLR,,,,HZ,64.4
2016/7/4 15:04,65.84,56.66,72.23,,,30.06,7,,CLR,,,,,65.84
2016/7/4 15:25,67.82,56.66,67.45,,,30.07,7,,CLR,,,,,67.82
2016/7/4 15:44,69.08,56.66,64.59,,,30.07,7,,CLR,,,,,69.08
2016/7/4 15:47,69.8,57.2,64.26,,,30.07,4,,CLR,,,,HZ,69.8
2016/7/4 16:04,69.26,56.3,63.37,,,30.06,7,,CLR,,,,,69.26
2016/7/4 16:24,70.34,56.84,62.27,,,30.06,7,,CLR,,,,,70.34
2016/7/4 16:44,72.68,56.48,56.78,,,30.05,10,,CLR,,,,,72.68
2016/7/4 17:04,74.84,56.48,52.8,350,3,30.05,7,,CLR,,,,,74.84
2016/7/4 17:25,76.82,55.94,48.47,,,30.05,10,,CLR,,,,,76.82
2016/7/4 17:45,78.8,55.04,43.94,,,30.04,10,,CLR,,,,,78.8
2016/7/4 18:04,80.96,53.96,39.36,310,3,30.04,10,,CLR,,,,,80.96
2016/7/4 18:24,82.76,53.42,36.4,300,3,30.04,10,,CLR,,,,,81.68
2016/7/4 18:45,83.48,51.98,33.73,250,4,30.04,10,,CLR,,,,,81.98
2016/7/4 18:50,84.2,51.8,32.73,260,5,30.03,6,,CLR,,,,HZ,82.48
2016/7/4 19:04,85.64,50,29.24,270,6,30.03,10,,CLR,,,,,83.33
2016/7/4 19:24,87.44,48.56,26.16,250,5,30.02,10,,CLR,,,,,84.61
2016/7/4 19:45,89.24,44.24,20.99,250,3,30.01,10,,CLR,,,,,85.72
2016/7/4 19:50,89.6,44.6,21.04,240,4,30.01,6,,CLR,,,,HZ,86.07
2016/7/4 20:04,89.96,46.04,21.97,290,5,30.01,10,,CLR,,,,,86.52
2016/7/4 20:25,91.22,45.14,20.41,240,7,30.01,10,,CLR,,,,,87.56
2016/7/4 20:44,91.58,46.04,20.89,250,8,30,10,,CLR,,,,,87.99
2016/7/4 20:50,91.4,46.4,21.29,290,9,29.99,7,,CLR,,,,,87.86
2016/7/4 21:04,92.66,45.68,19.92,250,7,29.99,10,,CLR,,,,,88.96
2016/7/4 21:25,93.02,42.98,17.77,220,9,29.99,10,,CLR,,,,,89.02
2016/7/4 21:44,93.74,45.32,19,270,11,29.98,10,15,CLR,,,,,89.94
2016/7/4 21:47,93.2,46.4,20.13,260,9,29.98,7,,CLR,,,,,89.55
2016/7/4 22:04,94.1,46.58,19.71,250,7,29.98,10,,CLR,,,,,90.44
2016/7/4 22:24,93.38,46.58,20.16,250,9,29.97,10,,CLR,,,,,89.75
2016/7/4 22:45,93.92,46.4,19.69,270,8,29.96,10,,CLR,,,,,90.24
2016/7/4 22:46,93.2,46.4,20.13,230,11,29.96,7,,CLR,,,,,89.55
2016/7/4 23:04,94.46,46.76,19.63,250,9,29.96,10,14,CLR,,,,,90.81
2016/7/4 23:25,93.92,47.84,20.78,250,9,29.95,10,,CLR,,,,,90.45
2016/7/4 23:44,92.84,50.54,23.77,270,11,29.95,10,15,CLR,,,,,89.85
2016/7/4 23:50,93.2,50,23.04,250,12,29.94,7,,CLR,,,,,90.1
2016/7/5 0:05,92.3,51.08,24.66,240,12,29.94,10,15,CLR,,,,,89.42
2016/7/5 0:24,90.86,51.62,26.32,250,12,29.94,10,15,CLR,,,,,88.14
2016/7/5 0:44,89.42,52.7,28.65,260,13,29.94,10,18,CLR,,,,,87
2016/7/5 0:50,89.6,53.6,29.45,240,14,29.94,7,,CLR,,,,,87.36
2016/7/5 1:05,87.8,52.52,29.96,260,14,29.94,10,18,CLR,,,,,85.51
2016/7/5 1:24,86.54,53.06,31.81,270,13,29.94,10,16,CLR,,,,,84.53
2016/7/5 1:44,85.46,53.24,33.15,260,13,29.95,10,,CLR,,,,,83.68
2016/7/5 1:50,84.2,53.6,34.97,260,11,29.95,7,,CLR,,,,,82.76
2016/7/5 2:05,83.84,53.42,35.15,260,11,29.96,10,,CLR,,,,,82.46
2016/7/5 2:24,82.4,53.6,37.07,250,11,29.96,10,,CLR,,,,,82.4
2016/7/5 2:44,80.06,54.5,41.34,240,7,29.97,10,,CLR,,,,,80.08
2016/7/5 2:50,80.6,55.4,41.97,240,8,29.97,7,,CLR,,,,,80.53
2016/7/5 3:05,78.44,54.86,44.18,240,6,29.97,10,,CLR,,,,,78.44
2016/7/5 3:24,77.18,55.4,46.97,240,6,29.98,10,,CLR,,,,,77.18
2016/7/5 3:44,76.1,55.58,49,240,6,29.98,10,,CLR,,,,,76.1
2016/7/5 3:50,75.2,55.4,50.17,230,7,29.99,7,,CLR,,,,,75.2
2016/7/5 4:04,75.2,55.58,50.5,240,7,29.99,10,,CLR,,,,,75.2
2016/7/5 4:25,74.3,55.76,52.38,240,7,30,10,,CLR,,,,,74.3
2016/7/5 4:44,73.4,55.94,54.34,240,7,30.01,10,,CLR,,,,,73.4
2016/7/5 5:04,72.5,56.12,56.38,250,5,30.01,10,,CLR,,,,,72.5
2016/7/5 5:25,71.24,56.3,59.23,250,5,30.01,10,,CLR,,,,,71.24
2016/7/5 5:44,70.34,56.3,61.07,260,6,30.02,10,,CLR,,,,,70.34
2016/7/5 6:04,69.44,56.3,62.98,260,4,30.02,10,,CLR,,,,,69.44
2016/7/5 6:25,68.9,56.48,64.57,260,5,30.02,10,,CLR,,,,,68.9
2016/7/5 6:44,68.54,56.48,65.37,260,5,30.02,10,,CLR,,,,,68.54
2016/7/5 7:04,67.64,56.48,67.43,260,5,30.02,10,,CLR,,,,,67.64
2016/7/5 7:25,67.28,56.66,68.72,260,5,30.02,10,,CLR,,,,,67.28
2016/7/5 7:44,66.38,56.48,70.43,270,4,30.02,10,,CLR,,,,,66.38
2016/7/5 8:04,66.2,56.84,71.8,250,6,30.02,10,,CLR,,,,,66.2
2016/7/5 8:25,65.48,56.66,73.14,250,4,30.02,10,,CLR,,,,,65.48
2016/7/5 8:44,64.94,56.66,74.53,260,5,30.01,10,,CLR,,,,,64.94
2016/7/5 9:04,64.76,56.84,75.49,260,6,30.02,7,,CLR,,,,,64.76
2016/7/5 9:25,64.22,57.02,77.43,260,5,30.01,7,,CLR,,,,,64.22
2016/7/5 9:44,63.86,57.2,78.92,250,5,30.01,7,,CLR,,,,,63.86
2016/7/5 10:04,63.32,57.02,79.91,250,5,30.01,5,,CLR,,,,HZ,63.32
2016/7/5 10:25,62.96,57.2,81.46,260,4,30.01,4,,CLR,,,,HZ,62.96
2016/7/5 10:44,62.78,57.2,81.97,250,5,30.01,3,,CLR,,,,HZ,62.78
2016/7/5 11:04,62.6,57.2,82.5,250,4,30.01,3,,CLR,,,,HZ,62.6
2016/7/5 11:25,62.6,57.74,84.12,250,3,30.01,2.5,,BKN,,1600,,HZ,62.6
2016/7/5 11:44,63.14,57.92,83.07,260,3,30.01,2.5,,OVC,,1600,,HZ,63.14
2016/7/5 12:04,63.5,57.92,82.02,250,4,30.01,2.5,,OVC,,1200,,HZ,63.5
2016/7/5 12:25,63.68,57.74,80.98,250,3,30.01,2.5,,OVC,,1200,,HZ,63.68
2016/7/5 12:44,64.04,57.74,79.97,,,30.01,3,,OVC,,1200,,HZ,64.04
2016/7/5 13:04,64.4,57.56,78.46,,,30.02,3,,OVC,,1200,,HZ,64.4
2016/7/5 13:25,64.4,57.56,78.46,320,4,30.02,3,,OVC,,1200,,HZ,64.4
2016/7/5 13:44,64.4,57.2,77.45,,,30.02,3,,OVC,,1200,,HZ,64.4
2016/7/5 14:00,64.4,57.2,77.45,,,30.02,1.5,,OVC,,1200,,BR,64.4
2016/7/5 14:04,64.4,57.38,77.95,260,3,30.02,3,,OVC,,1200,,HZ,64.4
2016/7/5 14:25,64.94,57.56,76.99,250,3,30.03,3,,OVC,,1200,,HZ,64.94
2016/7/5 14:44,64.58,57.38,77.46,,,30.03,3,,OVC,,1200,,HZ,64.58
2016/7/5 14:45,64.4,57.2,77.45,,,30.03,1.5,,OVC,,1200,,BR,64.4
2016/7/5 15:05,65.84,57.56,74.62,,,30.03,3,,OVC,,1400,,HZ,65.84
2016/7/5 15:24,66.38,57.2,72.29,,,30.03,2,,OVC,,1600,,HZ,66.38
2016/7/5 15:45,66.2,57.2,72.74,,,30.03,2,,OVC,,1600,,HZ,66.2
2016/7/5 16:05,69.08,57.02,65.44,270,4,30.03,2.5,,BKN,,1600,,HZ,69.08
2016/7/5 16:24,70.34,57.2,63.09,280,5,30.03,2.5,,BKN,,1800,,HZ,70.34
2016/7/5 16:44,70.88,56.66,60.74,,,30.03,2.5,,SCT,,1800,,HZ,70.88
2016/7/5 16:46,71.6,57.2,60.44,,,30.03,2,,BKN,,1600,,HZ,71.6
2016/7/5 17:05,71.96,56.12,57.42,250,5,30.03,3,,CLR,,,,HZ,71.96
2016/7/5 17:24,72.86,55.94,55.34,,,30.04,3,,CLR,,,,HZ,72.86
2016/7/5 17:44,74.66,55.58,51.42,,,30.03,3,,CLR,,,,HZ,74.66
2016/7/5 17:48,75.2,55.4,50.17,320,5,30.03,2,,CLR,,,,HZ,75.2
2016/7/5 18:04,75.2,54.68,48.87,290,4,30.03,4,,CLR,,,,HZ,75.2
2016/7/5 18:24,77.9,53.6,42.95,240,3,30.03,4,,CLR,,,,HZ,77.9
2016/7/5 18:45,78.98,53.06,40.64,,,30.02,5,,CLR,,,,HZ,78.98
2016/7/5 18:50,80.6,51.8,36.79,,,30.02,2,,CLR,,,,,80.6
2016/7/5 19:04,80.6,51.26,36.06,320,3,30.02,5,,CLR,,,,HZ,80.6
2016/7/5 19:24,82.4,50,32.46,300,3,30.01,5,,CLR,,,,HZ,80.99
2016/7/5 19:44,83.12,48.92,30.46,,,30,5,,CLR,,,,HZ,81.35
2016/7/5 19:51,84.2,48.2,28.63,,,29.99,3,,CLR,,,,HZ,82.04
2016/7/5 20:04,84.56,47.66,27.73,,,29.99,7,,CLR,,,,,82.24
2016/7/5 20:24,84.56,49.64,29.87,280,7,29.98,7,,CLR,,,,,82.46
2016/7/5 20:44,86.54,49.28,27.66,240,8,29.97,7,,CLR,,,,,83.96
2016/7/5 20:50,86,48.2,27.03,240,8,29.97,3,,CLR,,,,HZ,83.4
2016/7/5 21:05,86.54,48.02,26.38,240,5,29.96,10,,CLR,,,,,83.81
2016/7/5 21:24,88.52,41,18.96,310,7,29.96,10,,CLR,,,,,84.9
2016/7/5 21:44,89.42,39.92,17.67,240,5,29.95,10,,CLR,,,,,85.61
2016/7/5 21:50,89.6,39.2,17.09,240,5,29.95,4,,CLR,,,,HZ,85.73
2016/7/5 22:05,90.32,40.64,17.67,290,4,29.94,10,,CLR,,,,,86.42
2016/7/5 22:24,91.22,37.4,15.13,300,8,29.94,10,,CLR,,,,,87.07
2016/7/5 22:44,92.12,37.58,14.82,280,6,29.93,10,,CLR,,,,,87.87
2016/7/5 22:50,91.4,37.4,15.05,260,5,29.93,4,,CLR,,,,HZ,87.23
2016/7/5 23:04,92.84,37.76,14.59,280,5,29.93,10,,CLR,,,,,88.52
2016/7/5 23:24,92.48,40.64,16.51,240,10,29.92,10,,CLR,,,,,88.35
2016/7/5 23:44,92.12,46.4,20.82,260,5,29.92,10,,CLR,,,,,88.53
2016/7/6 0:04,90.68,49.28,24.26,260,9,29.91,10,17,CLR,,,,,87.58
2016/7/6 0:25,89.06,50.9,27.12,250,14,29.91,10,,CLR,,,,,86.35
2016/7/6 0:44,87.8,51.98,29.37,250,16,29.91,10,20,CLR,,,,,85.42
2016/7/6 0:50,87.8,51.8,29.18,240,16,29.91,5,,CLR,,,,HZ,85.39
2016/7/6 1:04,86.36,51.98,30.75,250,16,29.91,10,,CLR,,,,,84.2
2016/7/6 1:25,84.38,52.16,32.98,260,15,29.92,10,,CLR,,,,,82.66
2016/7/6 1:44,82.94,52.7,35.24,260,14,29.93,10,,CLR,,,,,81.7
2016/7/6 1:50,82.4,53.6,37.07,260,12,29.93,5,,CLR,,,,HZ,82.4
2016/7/6 2:04,80.96,52.88,37.83,260,13,29.93,10,,CLR,,,,,80.96
2016/7/6 2:25,79.34,53.78,41.23,260,11,29.94,10,15,CLR,,,,,79.34
2016/7/6 2:44,77.9,54.14,43.81,250,9,29.94,10,,CLR,,,,,77.9
2016/7/6 2:50,77,53.6,44.25,240,10,29.94,6,,CLR,,,,HZ,77
2016/7/6 3:04,76.64,54.5,46.28,240,8,29.95,10,,CLR,,,,,76.64
2016/7/6 3:25,75.2,55.22,49.84,240,6,29.95,10,,CLR,,,,,75.2
2016/7/6 3:44,74.48,55.4,51.39,230,6,29.96,10,,CLR,,,,,74.48
2016/7/6 3:50,73.4,55.4,53.29,240,6,29.96,6,,CLR,,,,HZ,73.4
2016/7/6 4:04,73.94,55.58,52.67,240,6,29.96,10,,CLR,,,,,73.94
2016/7/6 4:25,73.22,55.58,53.96,240,5,29.97,10,,CLR,,,,,73.22
2016/7/6 4:44,72.5,55.94,56.02,240,4,29.98,10,,CLR,,,,,72.5
2016/7/6 5:04,71.78,56.3,58.15,240,6,29.99,10,,CLR,,,,,71.78
2016/7/6 5:25,71.24,56.48,59.62,240,5,29.99,10,,CLR,,,,,71.24
2016/7/6 5:44,70.7,56.66,61.12,240,3,29.99,10,,CLR,,,,,70.7
2016/7/6 6:05,70.16,56.66,62.25,240,3,29.99,10,,CLR,,,,,70.16
2016/7/6 6:25,69.26,56.84,64.61,250,4,29.99,10,,CLR,,,,,69.26
2016/7/6 6:44,68.9,57.2,66.27,250,5,30,10,,CLR,,,,,68.9
2016/7/6 7:05,68.72,57.2,66.68,250,5,29.99,10,,CLR,,,,,68.72
2016/7/6 7:24,68,57.2,68.35,260,4,29.99,10,,CLR,,,,,68
2016/7/6 7:44,67.28,57.2,70.07,250,4,29.99,10,,CLR,,,,,67.28
2016/7/6 8:05,67.28,57.38,70.53,260,4,29.98,10,,CLR,,,,,67.28
2016/7/6 8:24,66.92,57.56,71.87,250,3,29.98,10,,CLR,,,,,66.92
2016/7/6 8:44,66.2,57.38,73.21,260,3,29.98,10,,CLR,,,,,66.2
2016/7/6 9:05,66.2,57.38,73.21,250,4,29.98,10,,CLR,,,,,66.2
2016/7/6 9:24,65.84,57.56,74.62,260,5,29.98,10,,CLR,,,,,65.84
2016/7/6 9:44,65.84,58.1,76.08,250,5,29.99,10,,CLR,,,,,65.84
2016/7/6 10:05,64.94,57.74,77.49,260,5,29.98,10,,CLR,,,,,64.94
2016/7/6 10:24,65.12,58.1,78.01,240,3,29.98,10,,CLR,,,,,65.12
2016/7/6 10:44,64.58,58.1,79.49,250,3,29.98,10,,CLR,,,,,64.58
2016/7/6 11:05,63.68,57.74,80.98,260,4,29.98,7,,CLR,,,,,63.68
2016/7/6 11:24,63.5,57.74,81.5,260,4,29.98,7,,CLR,,,,,63.5
2016/7/6 11:44,63.14,57.92,83.07,250,4,29.99,7,,CLR,,,,,63.14
2016/7/6 12:05,63.5,58.1,82.56,240,5,30,7,,CLR,,,,,63.5
2016/7/6 12:24,63.5,58.1,82.56,270,3,30,7,,BKN,,1800,,,63.5
2016/7/6 12:44,63.5,58.1,82.56,260,4,30,7,,OVC,,1600,,,63.5
2016/7/6 13:05,63.86,58.1,81.52,270,5,30.02,7,,OVC,,1600,,,63.86
2016/7/6 13:24,64.04,58.1,81.01,260,5,30.02,7,,OVC,,1400,,,64.04
2016/7/6 13:44,64.04,58.1,81.01,270,5,30.03,7,,OVC,,1400,,,64.04
2016/7/6 14:00,64.4,57.2,77.45,260,3,30.03,3,,OVC,,1300,,BR,64.4
2016/7/6 14:04,64.4,58.1,79.99,270,3,30.03,7,,OVC,,1200,,,64.4
2016/7/6 14:24,64.76,58.1,79,,,30.03,7,,OVC,,1200,,,64.76
2016/7/6 14:45,65.3,58.1,77.52,,,30.03,5,,OVC,,1200,,HZ,65.3
2016/7/6 14:47,64.4,57.2,77.45,,,30.03,3,,OVC,,1200,,HZ,64.4
2016/7/6 15:04,65.66,58.1,76.56,,,30.03,7,,OVC,,1200,,,65.66
2016/7/6 15:24,66.02,58.1,75.61,310,3,30.03,5,,OVC,,1200,,HZ,66.02
2016/7/6 15:45,66.74,58.1,73.74,,,30.03,5,,OVC,,1400,,HZ,66.74
2016/7/6 16:04,67.82,58.1,71.04,250,4,30.03,5,,OVC,,1400,,HZ,67.82
2016/7/6 16:24,68.54,58.1,69.3,,,30.02,4,,OVC,,1400,,HZ,68.54
2016/7/6 16:45,69.98,57.56,64.7,,,30.02,5,,OVC,,1600,,HZ,69.98
2016/7/6 16:50,69.8,57.2,64.26,,,30.01,3,,BKN,,1600,,HZ,69.8
2016/7/6 17:04,71.6,57.56,61.23,,,30.01,5,,BKN,,1600,,HZ,71.6
2016/7/6 17:24,73.4,57.02,56.51,,,30.01,5,,SCT,,1800,,HZ,73.4
2016/7/6 17:44,74.66,57.02,54.17,,,30,5,,CLR,,,,HZ,74.66
2016/7/6 18:05,75.92,56.66,51.27,260,3,29.99,5,,CLR,,,,HZ,75.92
2016/7/6 18:24,76.82,56.12,48.79,230,3,29.99,7,,CLR,,,,,76.82
2016/7/6 18:45,78.62,55.04,44.21,,,30,7,,CLR,,,,,78.62
2016/7/6 18:50,80.6,53.6,39.3,310,4,29.99,4,,CLR,,,,HZ,80.6
2016/7/6 19:04,80.42,53.42,39.28,250,4,29.99,10,,CLR,,,,,80.42
2016/7/6 19:25,82.94,51.44,33.64,280,5,29.99,10,,CLR,,,,,81.52
2016/7/6 19:44,83.12,50.72,32.57,250,4,29.98,10,,CLR,,,,,81.56
2016/7/6 20:05,84.02,49.82,30.59,280,6,29.97,10,,CLR,,,,,82.08
2016/7/6 20:24,86,46.94,25.78,260,6,29.97,10,,CLR,,,,,83.27
2016/7/6 20:51,86,46.4,25.26,230,8,29.96,4,,CLR,,,,HZ,83.22
2016/7/6 21:04,87.26,47.66,25.44,250,5,29.96,10,,CLR,,,,,84.36
2016/7/6 21:24,88.16,47.48,24.56,290,5,29.95,10,,CLR,,,,,85.1
2016/7/6 21:45,88.88,47.66,24.17,250,8,29.95,10,,CLR,,,,,85.74
2016/7/6 21:47,87.8,48.2,25.52,240,7,29.95,5,,CLR,,,,HZ,84.87
2016/7/6 22:04,90.5,46.94,22.35,270,3,29.94,10,,CLR,,,,,87.1
2016/7/6 22:24,90.68,46.94,22.23,270,4,29.94,10,,CLR,,,,,87.27
2016/7/6 22:45,91.04,50.18,24.81,250,7,29.93,10,,CLR,,,,,88.05
2016/7/6 22:50,91.4,50,24.37,260,8,29.93,5,,CLR,,,,HZ,88.36
2016/7/6 23:04,91.58,50.18,24.4,250,10,29.93,10,,CLR,,,,,88.57
2016/7/6 23:24,91.04,48.56,23.36,260,8,29.93,10,,CLR,,,,,87.81
2016/7/6 23:45,90.5,49.1,24.24,250,11,29.92,10,,CLR,,,,,87.38
2016/7/6 23:50,89.6,50,25.79,240,12,29.92,7,,CLR,,,,,86.7
2016/7/7 0:04,89.42,50,25.93,290,7,29.91,10,15,CLR,,,,,86.53
2016/7/7 0:24,88.52,50.72,27.4,260,13,29.91,10,,CLR,,,,,85.84
2016/7/7 0:45,87.8,51.8,29.18,250,12,29.91,10,15,CLR,,,,,85.39
2016/7/7 1:04,87.08,51.8,29.85,270,9,29.91,10,17,CLR,,,,,84.77
2016/7/7 1:24,85.64,52.34,31.88,250,12,29.91,10,,CLR,,,,,83.67
2016/7/7 1:45,84.2,53.06,34.29,240,10,29.91,10,,CLR,,,,,82.67
2016/7/7 2:04,82.58,53.6,36.85,250,11,29.92,10,,CLR,,,,,81.58
2016/7/7 2:24,80.96,54.5,40.14,240,11,29.92,10,,CLR,,,,,80.64
2016/7/7 2:44,79.34,55.22,43.45,250,10,29.93,10,,CLR,,,,,79.34
2016/7/7 2:50,78.8,55.4,44.52,240,9,29.93,7,,CLR,,,,,78.8
2016/7/7 3:04,77.9,55.76,46.47,250,10,29.93,10,,CLR,,,,,77.9
2016/7/7 3:25,76.46,56.3,49.7,260,10,29.94,10,,CLR,,,,,76.46
2016/7/7 3:44,75.56,56.3,51.21,240,6,29.94,10,,CLR,,,,,75.56
2016/7/7 4:04,74.66,56.3,52.78,240,6,29.95,10,,CLR,,,,,74.66
2016/7/7 4:25,73.76,56.3,54.39,240,7,29.95,10,,CLR,,,,,73.76
2016/7/7 4:44,72.86,56.48,56.43,250,7,29.97,10,,CLR,,,,,72.86
2016/7/7 5:04,71.96,56.66,58.56,250,7,29.97,10,,CLR,,,,,71.96
2016/7/7 5:25,70.88,57.02,61.54,260,5,29.97,10,,CLR,,,,,70.88
2016/7/7 5:44,69.98,57.2,63.87,260,6,29.97,10,,CLR,,,,,69.98
2016/7/7 6:04,69.8,57.38,64.68,250,5,29.97,10,,CLR,,,,,69.8
2016/7/7 6:25,69.08,57.56,66.72,250,4,29.97,10,,CLR,,,,,69.08
2016/7/7 6:44,68.36,57.56,68.39,260,5,29.97,10,,CLR,,,,,68.36
2016/7/7 7:04,68,57.56,69.25,260,4,29.97,10,,CLR,,,,,68
2016/7/7 7:25,67.1,57.56,71.43,260,4,29.97,10,,CLR,,,,,67.1
2016/7/7 7:44,66.38,57.56,73.23,260,4,29.97,10,,CLR,,,,,66.38
2016/7/7 8:04,66.2,57.74,74.17,260,4,29.97,10,,CLR,,,,,66.2
2016/7/7 8:24,65.84,57.74,75.1,,,29.97,10,,CLR,,,,,65.84
2016/7/7 8:45,65.84,57.92,75.59,260,3,29.96,10,,CLR,,,,,65.84
2016/7/7 9:04,65.3,57.74,76.53,250,3,29.95,10,,CLR,,,,,65.3
2016/7/7 9:24,65.12,57.56,76.51,260,3,29.95,10,,CLR,,,,,65.12
2016/7/7 9:45,64.58,57.56,77.96,250,4,29.95,10,,CLR,,,,,64.58
2016/7/7 10:04,64.4,57.56,78.46,260,4,29.95,10,,CLR,,,,,64.4
2016/7/7 10:24,64.04,57.74,79.97,260,3,29.95,10,,CLR,,,,,64.04
2016/7/7 10:45,63.68,57.74,80.98,260,4,29.95,10,,CLR,,,,,63.68
2016/7/7 11:04,63.5,57.74,81.5,250,4,29.95,10,,CLR,,,,,63.5
2016/7/7 11:24,62.96,57.56,82.52,260,4,29.95,7,,CLR,,,,,62.96
2016/7/7 11:45,62.78,57.56,83.04,260,4,29.96,7,,CLR,,,,,62.78
2016/7/7 12:04,62.6,57.74,84.12,240,4,29.95,7,,CLR,,,,,62.6
2016/7/7 12:24,62.6,57.74,84.12,270,3,29.96,7,,CLR,,,,,62.6
2016/7/7 12:45,62.78,57.92,84.13,260,3,29.96,7,,CLR,,,,,62.78
2016/7/7 13:04,62.6,58.1,85.21,,,29.96,7,,CLR,,,,,62.6
2016/7/7 13:24,62.6,58.1,85.21,260,3,29.97,7,,BKN,,1300,,,62.6
2016/7/7 13:45,63.5,58.64,84.17,230,3,29.97,7,,BKN,,1300,,,63.5
2016/7/7 14:04,64.4,58.64,81.56,270,3,29.98,7,,BKN,,1300,,,64.4
2016/7/7 14:24,64.58,58.46,80.53,290,3,29.98,7,,OVC,,1300,,,64.58
2016/7/7 14:45,65.66,58.64,78.05,,,29.99,5,,OVC,,1300,,HZ,65.66
2016/7/7 14:46,66.2,59,77.6,,,29.99,3,,BKN,,1100,,HZ,66.2
2016/7/7 15:04,66.74,58.64,75.18,250,3,29.99,5,,BKN,,1100,,HZ,66.74
2016/7/7 15:24,67.82,58.82,72.9,270,4,30,5,,BKN,,1100,,HZ,67.82
2016/7/7 15:45,69.62,58.46,67.65,,,30.01,5,,BKN,,1300,,HZ,69.62
2016/7/7 16:04,69.8,58.64,67.67,,,30.01,5,,SCT,,1300,,HZ,69.8
2016/7/7 16:24,71.6,58.28,62.84,,,30,5,,CLR,,,,HZ,71.6
2016/7/7 16:45,72.32,58.1,60.93,280,3,30,5,,CLR,,,,HZ,72.32
2016/7/7 17:04,74.48,57.74,55.93,230,3,29.99,5,,CLR,,,,HZ,74.48
2016/7/7 17:24,75.56,57.38,53.25,240,3,29.99,7,,CLR,,,,,75.56
2016/7/7 17:47,75.2,57.2,53.55,230,6,29.99,3,,CLR,,,,HZ,75.2
2016/7/7 18:04,78.62,56.12,45.97,220,3,29.99,7,,CLR,,,,,78.62
2016/7/7 18:24,80.6,55.4,41.97,280,5,29.99,7,,CLR,,,,,80.53
2016/7/7 18:45,81.5,54.86,39.96,,,29.98,7,,CLR,,,,,81.5
2016/7/7 18:47,82.4,55.4,39.58,240,5,29.98,4,,CLR,,,,HZ,82.4
2016/7/7 19:04,83.3,53.96,36.48,,,29.98,10,,CLR,,,,,82.15
2016/7/7 19:24,84.2,51.62,32.52,,,29.97,10,,CLR,,,,,82.45
2016/7/7 19:47,86,50,28.9,270,7,29.96,5,,CLR,,,,HZ,83.62
2016/7/7 20:49,89.6,46.4,22.53,220,8,29.94,6,,CLR,,,,HZ,86.24
2016/7/7 21:47,93.2,53.6,26.31,310,5,29.93,7,,CLR,,,,,90.86
2016/7/7 22:52,95,41,15.49,250,5,29.9,7,,CLR,,,,,90.7
2016/7/7 23:47,95,42.8,16.6,230,7,29.89,7,,CLR,,,,,90.86
2016/7/8 0:48,91.4,53.6,27.83,240,12,29.89,7,,CLR,,,,,89.08
2016/7/8 1:47,86,53.6,33.01,230,11,29.9,7,,CLR,,,,,84.18
2016/7/8 2:48,82.4,55.4,39.58,230,8,29.92,7,,CLR,,,,,82.4
2016/7/8 3:48,82.4,57.2,42.25,230,7,29.93,7,,CLR,,,,,82.08
2016/7/8 4:14,77,57.2,50.43,240,5,29.94,10,,CLR,,,,,77
2016/7/8 4:34,76.1,57.56,52.64,240,4,29.96,10,,CLR,,,,,76.1
2016/7/8 4:55,75.02,57.74,54.93,270,5,29.96,10,,CLR,,,,,75.02
2016/7/8 5:14,74.3,58.1,57,250,6,29.96,10,,CLR,,,,,74.3
2016/7/8 5:34,73.58,58.1,58.39,250,6,29.97,10,,CLR,,,,,73.58
2016/7/8 5:55,73.22,58.1,59.11,250,5,29.97,10,,CLR,,,,,73.22
2016/7/8 6:14,72.68,58.1,60.19,250,4,29.97,10,,CLR,,,,,72.68
2016/7/8 6:34,71.6,58.1,62.43,260,5,29.97,10,,CLR,,,,,71.6
2016/7/8 6:55,70.88,58.1,63.98,260,4,29.97,10,,CLR,,,,,70.88
2016/7/8 7:14,70.34,58.28,65.59,250,3,29.97,10,,CLR,,,,,70.34
2016/7/8 7:34,69.8,58.28,66.81,250,5,29.97,10,,CLR,,,,,69.8
2016/7/8 7:55,69.44,58.28,67.63,250,3,29.97,10,,CLR,,,,,69.44
2016/7/8 8:14,68.72,58.1,68.88,260,4,29.97,10,,CLR,,,,,68.72
2016/7/8 8:34,68.18,58.28,70.62,270,3,29.97,10,,CLR,,,,,68.18
2016/7/8 8:55,68,58.28,71.06,250,4,29.97,10,,CLR,,,,,68
2016/7/8 9:14,67.64,58.28,71.95,260,5,29.97,10,,CLR,,,,,67.64
2016/7/8 9:34,67.28,58.46,73.32,260,4,29.97,10,,CLR,,,,,67.28
2016/7/8 9:55,67.1,58.64,74.25,250,4,29.97,10,,CLR,,,,,67.1
2016/7/8 10:14,66.56,58.46,75.17,250,3,29.97,10,,CLR,,,,,66.56
2016/7/8 10:34,66.38,58.64,76.13,250,3,29.97,10,,CLR,,,,,66.38
2016/7/8 10:55,65.48,58.28,77.54,250,4,29.97,10,,CLR,,,,,65.48
2016/7/8 11:14,65.12,58.46,79.02,260,4,29.97,10,,CLR,,,,,65.12
2016/7/8 11:35,64.58,58.46,80.53,270,4,29.98,7,,CLR,,,,,64.58
2016/7/8 11:54,64.58,58.46,80.53,270,3,29.98,7,,CLR,,,,,64.58
2016/7/8 12:14,63.86,58.1,81.52,260,3,29.98,7,,CLR,,,,,63.86
2016/7/8 12:34,64.4,59,82.62,,,29.99,7,,CLR,,,,,64.4
2016/7/8 12:54,63.86,58.46,82.58,260,4,29.99,7,,CLR,,,,,63.86
2016/7/8 13:14,64.04,58.82,83.13,,,29.99,7,,CLR,,,,,64.04
2016/7/8 13:35,64.58,59,82.1,250,3,30,7,,CLR,,,,,64.58
2016/7/8 14:00,64.4,59,82.62,,,30,4,,CLR,,,,HZ,64.4
2016/7/8 15:45,68,59,72.92,,,30.01,4,,CLR,,,,HZ,68
2016/7/8 16:46,75.2,57.2,53.55,,,30.01,4,,CLR,,,,HZ,75.2
2016/7/8 17:47,82.4,55.4,39.58,,,30,4,,CLR,,,,HZ,82.4
2016/7/8 18:48,87.8,50,27.29,260,5,29.99,5,,CLR,,,,HZ,85.11
2016/7/8 19:47,89.6,50,25.79,260,7,29.98,7,,CLR,,,,,86.7
2016/7/8 20:47,93.2,48.2,21.54,240,7,29.96,7,,CLR,,,,,89.8
2016/7/8 21:49,95,41,15.49,250,9,29.94,7,,CLR,,,,,90.7
2016/7/8 22:50,95,48.2,20.38,220,10,29.92,7,,CLR,,,,,91.56
2016/7/8 23:50,95,46.4,19.04,290,8,29.91,7,,CLR,,,,,91.29
2016/7/9 1:47,89.6,42.8,19.64,260,13,29.92,7,,CLR,,,,,85.93
2016/7/9 2:47,84.2,51.8,32.73,230,8,29.94,7,,CLR,,,,,82.48
2016/7/9 3:47,80.6,55.4,41.97,230,7,29.96,7,,CLR,,,,,80.53
2016/7/9 4:14,78.26,57.2,48.37,230,6,29.97,10,,CLR,,,,,78.26
2016/7/9 4:34,77.36,57.56,50.48,240,7,29.98,10,,CLR,,,,,77.36
2016/7/9 4:54,76.1,58.1,53.67,250,4,29.99,10,,CLR,,,,,76.1
2016/7/9 5:15,75.2,58.28,55.67,260,6,29.99,10,,CLR,,,,,75.2
2016/7/9 5:34,74.12,58.82,58.84,260,7,30,10,,CLR,,,,,74.12
2016/7/9 5:54,73.4,59,60.67,250,5,30,10,,CLR,,,,,73.4
2016/7/9 6:15,73.4,59,60.67,250,5,30.01,10,,CLR,,,,,73.4
2016/7/9 6:34,72.5,59,62.54,250,4,30.01,10,,CLR,,,,,72.5
2016/7/9 6:54,71.96,59,63.7,260,3,30.01,10,,CLR,,,,,71.96
2016/7/9 7:15,71.78,59.18,64.5,,,30.01,10,,CLR,,,,,71.78
2016/7/9 7:34,71.96,59.18,64.11,,,30.01,10,,CLR,,,,,71.96
2016/7/9 7:54,71.78,59.54,65.33,,,30,10,,CLR,,,,,71.78
2016/7/9 8:14,71.78,59.54,65.33,,,30,10,,CLR,,,,,71.78
2016/7/9 8:34,71.06,59.54,66.95,,,30,10,,CLR,,,,,71.06
2016/7/9 8:54,70.7,59.72,68.21,260,3,30,10,,CLR,,,,,70.7
2016/7/9 9:14,69.98,59.18,68.57,260,3,30,10,,CLR,,,,,69.98
2016/7/9 9:34,68.9,59.18,71.15,260,4,30.01,10,,CLR,,,,,68.9
2016/7/9 9:54,68,59.18,73.39,260,3,30.01,10,,CLR,,,,,68
2016/7/9 10:14,68.36,59.18,72.49,240,3,30.01,10,,CLR,,,,,68.36
2016/7/9 10:34,68,59.36,73.86,240,3,30.01,10,,CLR,,,,,68
2016/7/9 10:54,68.54,59.54,72.97,,,30.01,10,,CLR,,,,,68.54
2016/7/9 11:14,68.18,59.72,74.36,,,30,10,,CLR,,,,,68.18
2016/7/9 11:34,67.82,58.64,72.43,,,30,10,,CLR,,,,,67.82
2016/7/9 11:54,67.1,57.92,72.36,,,30,10,,CLR,,,,,67.1
2016/7/9 12:14,64.04,54.68,71.58,70,3,30.01,10,,CLR,,,,,64.04
2016/7/9 12:34,66.02,54.68,66.81,90,4,30.01,10,,CLR,,,,,66.02
2016/7/9 12:54,66.38,55.4,67.73,,,30.01,10,,CLR,,,,,66.38
2016/7/9 13:14,64.58,54.68,70.24,,,30.02,10,,CLR,,,,,64.58
2016/7/9 13:34,66.02,55.4,68.58,,,30.02,10,,CLR,,,,,66.02
2016/7/9 13:50,66.2,55.4,68.15,,,30.03,4,,CLR,,,,,66.2
2016/7/9 13:54,67.64,55.76,65.69,,,30.03,10,,CLR,,,,,67.64
2016/7/9 14:50,71.6,57.2,60.44,,,30.04,4,,CLR,,,,HZ,71.6
2016/7/9 15:50,75.2,57.2,53.55,,,30.05,4,,CLR,,,,HZ,75.2
2016/7/9 16:50,80.6,55.4,41.97,,,30.04,5,,FEW,,25000,,HZ,80.53
2016/7/9 17:50,84.2,53.6,34.97,250,7,30.04,7,,FEW,,25000,,,82.76
2016/7/9 18:46,87.8,51.8,29.18,,,30.03,7,,FEW,,25000,,,85.39
2016/7/9 19:54,93.2,48.2,21.54,220,5,30.02,7,,FEW,,25000,,,89.8
2016/7/9 20:47,95,48.2,20.38,260,7,30,7,,FEW,,25000,,,91.56
2016/7/9 21:50,95,48.2,20.38,240,8,29.99,7,,SCT,,25000,,,91.56
2016/7/9 22:48,96.8,50,20.62,260,7,29.97,7,,SCT,,25000,,,93.71
2016/7/9 23:50,96.8,48.2,19.28,280,10,29.95,7,,SCT,,25000,,,93.36
2016/7/10 0:49,93.2,46.4,20.13,240,12,29.95,7,,FEW,,25000,,,89.55
2016/7/10 1:50,91.4,44.6,19.89,240,9,29.96,7,,FEW,,25000,,,87.68
2016/7/10 2:50,86,41,20.54,240,10,29.96,7,,FEW,,25000,,,82.86
2016/7/10 3:48,82.4,53.6,37.07,250,8,29.97,7,,FEW,,25000,,,82.4
2016/7/10 4:15,80.78,53.96,39.59,240,6,29.98,10,,CLR,,,,,80.78
2016/7/10 4:34,79.88,53.78,40.51,250,6,29.99,10,,CLR,,,,,79.88
2016/7/10 4:54,78.98,54.68,43.12,240,5,29.99,10,,CLR,,,,,78.98
2016/7/10 5:15,78.26,56.3,46.83,240,5,29.99,10,,CLR,,,,,78.26
2016/7/10 5:34,77.36,57.74,50.81,260,4,30,10,,CLR,,,,,77.36
2016/7/10 5:54,76.46,58.1,53.03,260,5,30,10,,CLR,,,,,76.46
2016/7/10 6:15,75.74,57.74,53.62,260,4,30.01,10,,CLR,,,,,75.74
2016/7/10 6:34,75.2,57.92,54.95,260,4,30.01,10,,CLR,,,,,75.2
2016/7/10 6:54,74.84,58.1,55.98,230,5,30.01,10,,CLR,,,,,74.84
2016/7/10 7:15,74.48,58.28,57.02,230,3,30,10,,CLR,,,,,74.48
2016/7/10 7:34,74.48,58.28,57.02,240,3,30,10,,CLR,,,,,74.48
2016/7/10 7:54,72.5,57.92,60.17,240,4,30,10,,CLR,,,,,72.5
2016/7/10 8:14,72.68,58.28,60.58,270,4,30,10,,CLR,,,,,72.68
2016/7/10 8:34,71.6,58.82,64.06,250,4,29.99,10,,CLR,,,,,71.6
2016/7/10 8:55,70.7,58.82,66.05,260,3,29.99,10,,CLR,,,,,70.7
2016/7/10 9:14,71.06,59.18,66.1,,,29.99,10,,CLR,,,,,71.06
2016/7/10 9:34,71.24,59.36,66.12,,,29.99,10,,CLR,,,,,71.24
2016/7/10 9:55,70.52,59.18,67.32,,,29.99,10,,CLR,,,,,70.52
2016/7/10 10:14,70.7,59.18,66.91,,,29.99,10,,CLR,,,,,70.7
2016/7/10 10:34,69.98,58.64,67.26,,,29.99,10,,CLR,,,,,69.98
2016/7/10 10:54,69.62,59,68.98,,,29.99,10,,CLR,,,,,69.62
2016/7/10 11:15,69.26,58.28,68.05,,,29.99,10,,CLR,,,,,69.26
2016/7/10 11:34,68.9,54.5,60.09,,,30,10,,CLR,,,,,68.9
2016/7/10 11:54,68.9,53.6,58.15,,,30,10,,CLR,,,,,68.9
2016/7/10 12:14,68.72,54.14,59.67,,,30,10,,CLR,,,,,68.72
2016/7/10 12:35,68,53.6,59.97,,,30,10,,CLR,,,,,68
2016/7/10 12:54,67.82,53.78,60.74,,,30,10,,CLR,,,,,67.82
2016/7/10 13:14,67.46,53.42,60.7,,,30,10,,CLR,,,,,67.46
2016/7/10 13:34,67.46,54.86,63.98,,,29.99,10,,CLR,,,,,67.46
2016/7/10 13:50,68,53.6,59.97,,,30,7,,CLR,,,,,68
2016/7/10 13:54,68.72,53.06,57.36,,,30,10,,CLR,,,,,68.72
2016/7/10 14:48,71.6,57.2,60.44,,,30,7,,CLR,,,,,71.6
2016/7/10 15:48,75.2,57.2,53.55,,,30,7,,CLR,,,,,75.2
2016/7/10 16:47,80.6,55.4,41.97,300,3,29.99,7,,CLR,,,,,80.53
2016/7/10 17:50,84.2,53.6,34.97,310,5,29.97,7,,CLR,,,,,82.76
2016/7/10 18:46,87.8,50,27.29,330,3,29.95,7,,CLR,,,,,85.11
2016/7/10 19:46,91.4,48.2,22.78,210,6,29.94,7,,CLR,,,,,88.09
2016/7/10 20:50,93.2,48.2,21.54,300,6,29.9,7,,CLR,,,,,89.8
2016/7/10 21:50,95,50,21.79,240,9,29.88,7,,CLR,,,,,91.89
2016/7/10 22:50,93.2,46.4,20.13,230,6,29.85,7,,CLR,,,,,89.55
2016/7/11 0:50,91.4,44.6,19.89,270,10,29.84,7,,CLR,,,,,87.68
2016/7/11 1:50,86,50,28.9,240,10,29.85,7,,CLR,,,,,83.62
2016/7/11 2:50,82.4,53.6,37.07,250,10,29.86,7,,CLR,,,,,82.4
2016/7/11 3:50,78.8,55.4,44.52,260,6,29.87,7,,CLR,,,,,78.8
2016/7/11 4:15,77.9,56.12,47.08,270,6,29.88,10,,CLR,,,,,77.9
2016/7/11 4:34,77.18,54.14,44.86,220,4,29.89,10,,CLR,,,,,77.18
2016/7/11 4:54,76.46,53.42,44.75,230,5,29.89,10,,CLR,,,,,76.46
2016/7/11 5:15,75.92,53.96,46.47,240,5,29.9,10,,CLR,,,,,75.92
2016/7/11 5:34,74.84,54.68,49.46,240,6,29.89,10,,CLR,,,,,74.84
2016/7/11 5:54,74.3,55.4,51.7,230,6,29.9,10,,CLR,,,,,74.3
2016/7/11 6:14,73.58,56.12,54.37,230,4,29.9,10,,CLR,,,,,73.58
2016/7/11 6:34,72.68,55.94,55.68,240,3,29.89,10,,CLR,,,,,72.68
2016/7/11 6:54,71.6,55.22,56.26,260,3,29.89,10,,CLR,,,,,71.6
2016/7/11 7:15,71.24,54.68,55.84,260,3,29.89,10,,CLR,,,,,71.24
2016/7/11 7:34,71.24,54.5,55.48,,,29.88,10,,CLR,,,,,71.24
2016/7/11 7:54,70.34,54.68,57.58,240,3,29.89,10,,CLR,,,,,70.34
2016/7/11 8:15,69.98,55.4,59.84,250,3,29.88,10,,CLR,,,,,69.98
2016/7/11 8:34,69.62,55.58,60.98,,,29.89,10,,CLR,,,,,69.62
2016/7/11 8:54,69.98,54.68,58.29,,,29.88,10,,CLR,,,,,69.98
2016/7/11 9:14,68.72,53.6,58.51,80,3,29.88,10,,CLR,,,,,68.72
2016/7/11 9:35,68.9,51.98,54.79,,,29.88,10,,CLR,,,,,68.9
2016/7/11 9:54,68.9,53.96,58.92,,,29.88,10,,CLR,,,,,68.9
2016/7/11 10:14,69.08,54.86,60.51,,,29.87,10,,CLR,,,,,69.08
2016/7/11 10:34,68.18,52.88,58.05,,,29.88,10,,CLR,,,,,68.18
2016/7/11 10:54,68,52.7,58.03,,,29.87,10,,CLR,,,,,68
2016/7/11 11:14,67.64,52.34,57.98,,,29.88,10,,CLR,,,,,67.64
2016/7/11 11:34,66.2,52.16,60.53,,,29.88,10,,CLR,,,,,66.2
2016/7/11 11:54,66.02,52.16,60.91,,,29.89,10,,CLR,,,,,66.02
2016/7/11 12:14,65.66,51.8,60.87,,,29.89,10,,CLR,,,,,65.66
2016/7/11 12:34,66.2,50.54,57.01,,,29.89,10,,CLR,,,,,66.2
2016/7/11 12:54,66.2,51.8,59.74,170,3,29.89,10,,CLR,,,,,66.2
2016/7/11 13:14,66.2,51.98,60.13,,,29.9,10,,CLR,,,,,66.2
2016/7/11 13:34,66.38,52.34,60.56,,,29.91,10,,CLR,,,,,66.38
2016/7/11 13:54,67.28,52.7,59.48,,,29.91,10,,CLR,,,,,67.28
2016/7/11 14:00,64.4,57.2,77.45,,,29.91,10,,CLR,,,,,64.4
2016/7/11 14:45,68,57.2,68.35,240,3,29.92,10,,CLR,,,,,68
2016/7/11 15:49,71.6,57.2,60.44,250,3,29.92,10,,CLR,,,,,71.6
2016/7/11 16:46,75.2,55.4,50.17,,,29.92,10,,CLR,,,,,75.2
2016/7/11 17:46,80.6,53.6,39.3,,,29.91,10,,CLR,,,,,80.6
2016/7/11 18:50,86,50,28.9,320,4,29.89,10,,CLR,,,,,83.62
2016/7/11 19:50,87.8,44.6,22.27,240,5,29.87,10,,CLR,,,,,84.53
2016/7/11 20:55,91.4,41,17.32,,,29.85,10,,CLR,,,,,87.4
2016/7/11 21:55,91.4,41,17.32,270,5,29.84,10,,CLR,,,,,87.4
2016/7/11 22:50,93.2,44.6,18.8,300,5,29.82,10,,CLR,,,,,89.34
2016/7/11 23:50,93.2,48.2,21.54,260,10,29.81,10,,CLR,,,,,89.8
2016/7/12 0:50,91.4,50,24.37,240,13,29.81,7,,CLR,,,,,88.36
2016/7/12 3:50,77,53.6,44.25,230,9,29.87,6,,CLR,,,,HZ,77
2016/7/12 8:55,68,57.38,68.8,250,6,29.92,10,,CLR,,,,,68
2016/7/12 9:14,67.28,57.56,70.99,260,4,29.92,10,,CLR,,,,,67.28
2016/7/12 9:34,66.56,57.74,73.25,260,5,29.92,10,,CLR,,,,,66.56
2016/7/12 9:54,66.38,58.28,75.15,260,6,29.92,10,,CLR,,,,,66.38
2016/7/12 10:14,66.02,58.28,76.1,250,5,29.92,10,,CLR,,,,,66.02
2016/7/12 10:34,65.3,58.46,78.53,260,5,29.92,10,,CLR,,,,,65.3
2016/7/12 10:54,65.3,58.82,79.55,250,4,29.92,10,,CLR,,,,,65.3
2016/7/12 11:14,64.76,58.64,80.54,250,4,29.92,7,,CLR,,,,,64.76
2016/7/12 11:34,64.76,59,81.58,250,3,29.92,7,,CLR,,,,,64.76
2016/7/12 11:54,64.4,58.64,81.56,250,3,29.92,7,,SCT,SCT,2300,2800,,64.4
2016/7/12 12:14,63.68,58.82,84.18,260,4,29.92,7,,BKN,BKN,1500,2300,,63.68
2016/7/12 12:34,63.86,59,84.19,260,4,29.92,7,,OVC,,1500,,,63.86
2016/7/12 12:54,64.4,59.54,84.23,260,3,29.93,7,,OVC,,1500,,,64.4
2016/7/12 13:14,64.76,59.9,84.25,250,5,29.94,7,,OVC,,1300,,,64.76
2016/7/12 13:34,65.3,59.9,82.68,260,5,29.94,7,,OVC,,900,,,65.3
2016/7/12 13:54,65.48,59.9,82.16,250,5,29.95,7,,OVC,,900,,,65.48
2016/7/12 14:00,59,51.8,76.98,,,29.95,3,,OVC,,900,,BR,59
2016/7/12 14:45,66.2,59,77.6,,,29.96,3,,OVC,,1100,,BR,66.2
2016/7/12 15:49,68,59,72.92,,,29.97,3,,OVC,,1300,,BR,68
2016/7/12 16:46,71.6,59,64.48,220,3,29.96,3,,BKN,,1500,,HZ,71.6
2016/7/12 17:50,75.2,57.2,53.55,290,5,29.96,3,,CLR,,,,HZ,75.2
2016/7/12 18:46,80.6,55.4,41.97,,,29.94,3,,CLR,,,,HZ,80.53
2016/7/12 19:50,84.2,50,30.62,270,5,29.94,4,,CLR,,,,HZ,82.24
2016/7/12 20:47,86,48.2,27.03,260,5,29.91,4,,CLR,,,,HZ,83.4
2016/7/12 21:50,91.4,44.6,19.89,230,8,29.9,6,,CLR,,,,HZ,87.68
2016/7/12 22:50,91.4,46.4,21.29,230,6,29.87,6,,CLR,,,,HZ,87.86
2016/7/12 23:53,93.2,46.4,20.13,240,7,29.86,6,,CLR,,,,HZ,89.55
2016/7/13 0:50,91.4,48.2,22.78,230,9,29.85,6,,CLR,,,,HZ,88.09
2016/7/13 1:50,86,55.4,35.25,240,14,29.87,6,,CLR,,,,HZ,84.54
2016/7/13 2:50,82.4,55.4,39.58,240,9,29.88,6,,CLR,,,,HZ,82.4
2016/7/13 3:50,77,57.2,50.43,240,6,29.91,6,,CLR,,,,HZ,77
2016/7/13 4:14,77,57.56,51.09,240,7,29.92,10,,CLR,,,,,77
2016/7/13 4:34,76.1,57.92,53.33,240,5,29.92,10,,CLR,,,,,76.1
2016/7/13 4:54,75.2,58.1,55.31,260,5,29.93,10,,CLR,,,,,75.2
2016/7/13 5:14,74.3,58.28,57.37,260,4,29.94,10,,CLR,,,,,74.3
2016/7/13 5:34,73.58,58.46,59.15,250,5,29.94,10,,CLR,,,,,73.58
2016/7/13 7:07,70.7,59,66.48,260,3,29.94,10,,CLR,,,,,70.7
2016/7/13 7:15,70.34,59,67.3,260,4,29.94,10,,CLR,,,,,70.34
2016/7/13 7:34,69.8,59.18,68.99,250,4,29.94,10,,CLR,,,,,69.8
2016/7/13 7:54,69.44,59.18,69.85,250,3,29.94,10,,CLR,,,,,69.44
2016/7/13 8:15,68.9,59.18,71.15,260,3,29.94,10,,CLR,,,,,68.9
2016/7/13 8:34,68.72,59.36,72.06,260,3,29.94,10,,CLR,,,,,68.72
2016/7/13 8:54,69.08,59.54,71.63,,,29.94,10,,CLR,,,,,69.08
2016/7/13 9:15,68,59.36,73.86,,,29.94,10,,CLR,,,,,68
2016/7/13 9:34,67.82,59.36,74.32,,,29.94,10,,CLR,,,,,67.82
2016/7/13 9:54,68.18,59.72,74.36,,,29.94,10,,CLR,,,,,68.18
2016/7/13 10:15,68.36,59.9,74.37,,,29.95,10,,CLR,,,,,68.36
2016/7/13 10:34,68,59,72.92,,,29.95,10,,CLR,,,,,68
2016/7/13 10:54,67.64,57.38,69.66,,,29.94,10,,CLR,,,,,67.64
2016/7/13 11:14,66.92,56.84,70.03,,,29.94,10,,CLR,,,,,66.92
2016/7/13 11:34,66.38,56.84,71.36,,,29.94,10,,CLR,,,,,66.38
2016/7/13 11:54,65.48,56.12,71.73,,,29.95,10,,CLR,,,,,65.48
2016/7/13 12:14,65.84,55.94,70.38,,,29.95,10,,CLR,,,,,65.84
2016/7/13 12:34,65.84,55.94,70.38,,,29.96,10,,CLR,,,,,65.84
2016/7/13 12:55,65.84,55.94,70.38,,,29.97,10,,CLR,,,,,65.84
2016/7/13 13:14,65.3,55.58,70.78,,,29.98,10,,CLR,,,,,65.3
2016/7/13 13:34,65.48,56.12,71.73,,,29.98,10,,CLR,,,,,65.48
2016/7/13 13:55,66.56,56.66,70.45,,,29.99,10,,CLR,,,,,66.56
2016/7/13 14:00,66.2,59,77.6,,,29.99,5,,CLR,,,,HZ,66.2
2016/7/13 14:45,68,59,72.92,,,30,4,,CLR,,,,HZ,68
2016/7/13 15:45,68,59,72.92,,,30,4,,CLR,,,,HZ,68
2016/7/13 16:50,77,59,53.8,,,30,4,,CLR,,,,HZ,77
2016/7/13 17:50,80.6,55.4,41.97,310,3,29.99,5,,CLR,,,,HZ,80.53
2016/7/13 18:50,89.6,53.6,29.45,300,3,29.99,6,,CLR,,,,HZ,87.36
2016/7/13 20:51,95,48.2,20.38,240,5,29.94,7,,CLR,,,,,91.56
2016/7/13 21:48,98.6,44.6,15.93,240,5,29.93,7,,CLR,,,,,94.55
2016/7/13 22:50,100.4,44.6,15.08,280,10,29.91,7,,CLR,,,,,96.31
2016/7/13 23:52,82.4,48.2,30.35,240,14,29.91,7,,CLR,,,,,80.8
2016/7/14 1:50,89.6,53.6,29.45,240,12,29.92,7,,CLR,,,,,87.36
2016/7/14 2:49,86,53.6,33.01,250,8,29.94,7,,CLR,,,,,84.18
2016/7/14 3:50,82.4,55.4,39.58,230,6,29.96,7,,CLR,,,,,82.4
2016/7/14 4:15,81.14,57.2,44.01,250,4,29.97,10,,CLR,,,,,81.18
2016/7/14 4:34,80.42,57.38,45.35,240,4,29.98,10,,CLR,,,,,80.71
2016/7/14 4:54,79.7,58.1,47.65,240,5,29.98,10,,CLR,,,,,79.7
2016/7/14 5:14,78.8,58.46,49.72,240,5,29.99,10,,CLR,,,,,78.8
2016/7/14 5:34,78.08,58.64,51.25,250,5,29.99,10,,CLR,,,,,78.08
2016/7/14 5:54,77,58.82,53.45,250,5,29.99,10,,CLR,,,,,77
2016/7/14 6:14,76.1,59,55.43,260,4,29.99,10,,CLR,,,,,76.1
2016/7/14 6:34,75.2,59,57.12,250,4,29.99,10,,CLR,,,,,75.2
2016/7/14 6:54,74.66,59.18,58.54,260,3,29.99,10,,CLR,,,,,74.66
2016/7/14 7:14,74.48,59.18,58.89,260,3,29.99,10,,CLR,,,,,74.48
2016/7/14 7:34,74.3,59.36,59.63,260,3,29.99,10,,CLR,,,,,74.3
2016/7/14 7:54,73.76,59.36,60.72,,,29.97,10,,CLR,,,,,73.76
2016/7/14 8:14,73.76,59.72,61.51,,,29.97,10,,CLR,,,,,73.76
2016/7/14 8:34,73.4,59.36,61.46,,,29.97,10,,CLR,,,,,73.4
2016/7/14 8:54,73.04,57.2,57.57,,,29.97,10,,CLR,,,,,73.04
2016/7/14 9:14,71.96,56.66,58.56,,,29.97,10,,CLR,,,,,71.96
2016/7/14 9:34,71.06,55.58,58.06,,,29.97,10,,CLR,,,,,71.06
2016/7/14 9:54,70.88,55.58,58.41,,,29.97,10,,CLR,,,,,70.88
2016/7/14 10:14,69.08,55.58,62.12,,,29.97,10,,CLR,,,,,69.08
2016/7/14 10:34,69.08,55.76,62.52,,,29.99,10,,CLR,,,,,69.08
2016/7/14 10:54,69.26,55.76,62.14,,,29.99,10,,CLR,,,,,69.26
2016/7/14 11:14,69.98,56.48,62.23,,,30,10,,CLR,,,,,69.98
2016/7/14 11:34,69.26,55.94,62.54,,,30,10,,CLR,,,,,69.26
2016/7/14 11:54,69.08,55.94,62.93,,,30.01,10,,CLR,,,,,69.08
2016/7/14 12:14,68.36,55.76,64.09,,,30.01,10,,CLR,,,,,68.36
2016/7/14 12:34,68,56.66,67.03,,,30.01,10,,CLR,,,,,68
2016/7/14 12:54,67.82,59.18,73.84,260,3,30.02,10,,CLR,,,,,67.82
2016/7/14 13:14,66.38,59.54,78.62,260,4,30.03,7,,CLR,,,,,66.38
2016/7/14 13:34,66.74,60.26,79.66,260,5,30.04,7,,CLR,,,,,66.74
2016/7/14 13:50,67.64,60.8,78.72,,,30.04,7,,CLR,,,,,67.64
2016/7/14 14:50,71.6,60.8,68.75,,,30.04,3,,CLR,,,,HZ,71.6
2016/7/14 15:50,75.2,60.8,60.9,,,30.03,3,,CLR,,,,HZ,75.2
2016/7/14 16:50,80.6,59,47.79,,,30.03,4,,CLR,,,,HZ,81.11
2016/7/14 17:47,86,46.4,25.26,280,6,30.03,4,,CLR,,,,HZ,83.22
2016/7/14 18:48,89.6,48.2,24.11,240,6,30.03,4,,CLR,,,,HZ,86.44
2016/7/14 19:50,95,48.2,20.38,260,4,30,6,,CLR,,,,HZ,91.56
2016/7/14 20:48,98.6,46.4,17.05,250,9,29.98,7,,CLR,,,,,94.84
2016/7/14 21:50,100.4,42.8,14.08,250,8,29.96,7,,CLR,,,,,96.04
2016/7/14 22:48,100.4,46.4,16.15,260,8,29.95,7,,CLR,,,,,96.63
2016/7/14 23:48,98.6,48.2,18.25,260,9,29.93,7,,CLR,,,,,95.17
2016/7/15 0:50,78.8,48.2,34.13,250,10,29.92,7,,CLR,,,,,78.8
2016/7/15 1:48,93.2,46.4,20.13,240,10,29.92,7,,CLR,,,,,89.55
2016/7/15 2:50,89.6,48.2,24.11,240,8,29.93,7,,CLR,,,,,86.44
2016/7/15 3:48,84.2,51.8,32.73,230,6,29.94,7,,CLR,,,,,82.48
2016/7/15 4:14,83.3,52.88,35.07,240,5,29.94,10,,CLR,,,,,81.98
2016/7/15 4:34,82.04,53.6,37.5,240,5,29.96,10,,CLR,,,,,82.04
2016/7/15 4:54,81.32,54.68,39.94,240,4,29.96,10,,CLR,,,,,81.32
2016/7/15 5:14,80.06,55.58,43,250,4,29.97,10,,CLR,,,,,80.22
2016/7/15 5:34,78.62,56.3,46.27,260,4,29.97,10,,CLR,,,,,78.62
2016/7/15 5:54,77.9,57.02,48.63,260,4,29.97,10,,CLR,,,,,77.9
2016/7/15 6:14,77,57.38,50.76,260,4,29.97,10,,CLR,,,,,77
2016/7/15 6:34,76.28,58.1,53.35,250,4,29.98,10,,CLR,,,,,76.28
2016/7/15 6:54,75.38,58.64,56.05,260,4,29.98,10,,CLR,,,,,75.38
2016/7/15 7:14,74.84,58.28,56.34,270,4,29.98,10,,CLR,,,,,74.84
2016/7/15 7:34,74.3,58.46,57.74,270,3,29.98,10,,CLR,,,,,74.3
2016/7/15 7:54,73.94,58.82,59.2,,,29.97,10,,CLR,,,,,73.94
2016/7/15 8:14,74.3,58.82,58.49,,,29.97,10,,CLR,,,,,74.3
2016/7/15 8:34,73.58,57.74,57.64,,,29.97,10,,CLR,,,,,73.58
2016/7/15 8:55,73.58,55.94,54.02,,,29.96,10,,CLR,,,,,73.58
2016/7/15 9:14,72.86,54.68,52.86,,,29.96,10,,CLR,,,,,72.86
2016/7/15 9:34,71.6,53.06,51.99,210,3,29.97,10,,CLR,,,,,71.6
2016/7/15 9:55,71.96,54.14,53.43,260,3,29.97,10,,CLR,,,,,71.96
2016/7/15 10:14,71.6,57.92,62.03,,,29.97,10,,CLR,,,,,71.6
2016/7/15 10:34,69.98,58.46,66.83,,,29.97,10,,CLR,,,,,69.98
2016/7/15 10:55,70.52,58.28,65.19,,,29.98,10,,CLR,,,,,70.52
2016/7/15 11:14,69.98,55.04,59.06,,,29.97,10,,CLR,,,,,69.98
2016/7/15 11:34,68.9,54.5,60.09,,,29.98,10,,CLR,,,,,68.9
2016/7/15 11:55,68.54,53.06,57.72,,,29.99,10,,CLR,,,,,68.54
2016/7/15 12:14,68.54,51.62,54.74,,,29.99,10,,CLR,,,,,68.54
2016/7/15 12:34,69.26,53.24,56.68,,,29.99,10,,CLR,,,,,69.26
2016/7/15 12:55,68,52.88,58.41,,,29.99,10,,CLR,,,,,68
2016/7/15 13:14,66.38,51.98,59.76,,,30,10,,CLR,,,,,66.38
2016/7/15 13:34,68,52.88,58.41,190,3,30,10,,CLR,,,,,68
2016/7/15 13:54,68.72,52.7,56.61,,,30,10,,CLR,,,,,68.72
2016/7/15 14:00,68,59,72.92,,,30,7,,CLR,,,,,68
2016/7/15 14:45,71.6,57.2,60.44,,,30.01,7,,CLR,,,,,71.6
2016/7/15 16:46,75.2,59,57.12,230,6,29.99,7,,CLR,,,,,75.2
2016/7/15 17:52,84.2,55.4,37.35,230,5,29.99,5,,CLR,,,,HZ,83.09
2016/7/15 18:48,87.8,53.6,31.17,230,5,29.97,5,,CLR,,,,HZ,85.72
2016/7/15 19:49,93.2,46.4,20.13,280,6,29.95,5,,CLR,,,,HZ,89.55
2016/7/15 20:50,96.8,44.6,16.83,240,9,29.93,7,,CLR,,,,,92.79
2016/7/15 21:49,98.6,44.6,15.93,250,6,29.91,7,,CLR,,,,,94.55
2016/7/15 22:47,98.6,46.4,17.05,220,10,29.9,7,,CLR,,,,,94.84
2016/7/15 23:47,98.6,44.6,15.93,250,9,29.88,7,,CLR,,,,,94.55
2016/7/16 0:48,95,44.6,17.78,250,12,29.87,7,,CLR,,,,,91.06
2016/7/16 1:46,91.4,53.6,27.83,240,12,29.87,7,,CLR,,,,,89.08
2016/7/16 3:47,82.4,55.4,39.58,240,8,29.9,7,,CLR,,,,,82.4
2016/7/16 4:14,81.68,55.76,41.05,250,5,29.91,10,,CLR,,,,,81.3
2016/7/16 4:34,80.78,55.94,42.55,240,7,29.91,10,,CLR,,,,,80.73
2016/7/16 4:54,79.88,56.48,44.69,240,6,29.92,10,,CLR,,,,,79.88
2016/7/16 5:14,78.8,56.48,46.3,260,4,29.93,10,,CLR,,,,,78.8
2016/7/16 5:34,77.9,56.84,48.32,260,4,29.94,10,,CLR,,,,,77.9
2016/7/16 5:54,77.36,57.2,49.83,270,3,29.94,10,,CLR,,,,,77.36
2016/7/16 6:14,76.1,57.2,51.96,260,4,29.94,10,,CLR,,,,,76.1
2016/7/16 6:34,74.48,57.2,54.85,250,5,29.94,10,,CLR,,,,,74.48
2016/7/16 6:54,74.84,57.74,55.26,250,5,29.94,10,,CLR,,,,,74.84
2016/7/16 7:14,74.66,57.74,55.59,250,5,29.94,10,,CLR,,,,,74.66
2016/7/16 7:34,73.22,57.92,58.72,250,5,29.94,10,,CLR,,,,,73.22
2016/7/16 7:54,73.22,57.74,58.35,250,4,29.94,10,,CLR,,,,,73.22
2016/7/16 8:14,71.96,57.56,60.49,260,4,29.94,10,,CLR,,,,,71.96
2016/7/16 8:34,71.78,58.1,62.05,250,4,29.94,10,,CLR,,,,,71.78
2016/7/16 8:54,70.88,58.1,63.98,250,3,29.94,10,,CLR,,,,,70.88
2016/7/16 9:14,70.34,58.1,65.16,270,3,29.94,10,,CLR,,,,,70.34
2016/7/16 9:34,69.8,58.28,66.81,,,29.94,10,,CLR,,,,,69.8
2016/7/16 9:54,68.36,58.1,69.73,260,4,29.94,10,,CLR,,,,,68.36
2016/7/16 10:14,68.36,58.46,70.64,250,4,29.94,10,,CLR,,,,,68.36
2016/7/16 10:34,67.1,58.28,73.3,270,4,29.94,10,,CLR,,,,,67.1
2016/7/16 10:54,67.1,58.64,74.25,270,5,29.93,10,,CLR,,,,,67.1
2016/7/16 11:14,66.2,58.46,76.11,250,3,29.93,10,,CLR,,,,,66.2
2016/7/16 11:34,65.84,58.46,77.07,240,4,29.94,10,,CLR,,,,,65.84
2016/7/16 11:54,65.84,58.82,78.07,250,4,29.94,10,,CLR,,,,,65.84
2016/7/16 12:14,64.94,58.64,80.04,280,3,29.94,7,,CLR,,,,,64.94
2016/7/16 12:34,64.58,58.46,80.53,270,4,29.94,7,,CLR,,,,,64.58
2016/7/16 12:54,64.4,59,82.62,240,4,29.95,7,,CLR,,,,,64.4
2016/7/16 13:14,64.04,58.64,82.59,260,4,29.95,7,,CLR,,,,,64.04
2016/7/16 13:34,64.4,59.18,83.15,260,3,29.96,7,,CLR,,,,,64.4
2016/7/16 13:54,65.48,59.9,82.16,260,3,29.96,7,,CLR,,,,,65.48
2016/7/16 15:47,71.6,59,64.48,,,29.96,3,,CLR,,,,HZ,71.6
2016/7/16 16:50,75.2,57.2,53.55,,,29.97,3,,CLR,,,,HZ,75.2
2016/7/16 17:50,82.4,55.4,39.58,270,4,29.97,4,,CLR,,,,HZ,82.4
2016/7/16 18:50,86,53.6,33.01,230,5,29.95,4,,CLR,,,,HZ,84.18
2016/7/16 19:49,91.4,50,24.37,280,4,29.93,4,,CLR,,,,HZ,88.36
2016/7/16 20:50,93.2,44.6,18.8,260,6,29.91,4,,CLR,,,,HZ,89.34
2016/7/16 21:47,95,44.6,17.78,260,6,29.88,7,,CLR,,,,,91.06
2016/7/16 22:47,98.6,44.6,15.93,270,8,29.87,7,,CLR,,,,,94.55
2016/7/16 23:50,96.8,42.8,15.71,230,10,29.85,7,,CLR,,,,,92.57
2016/7/17 0:48,95,39.2,14.44,250,10,29.85,7,,CLR,,,,,90.57
2016/7/17 1:48,91.4,37.4,15.05,240,12,29.86,7,,CLR,,,,,87.23
2016/7/17 2:50,86,41,20.54,230,7,29.87,7,,CLR,,,,,82.86
2016/7/17 3:48,80.6,51.8,36.79,230,7,29.89,7,,CLR,,,,,80.6
2016/7/17 4:14,79.7,53.6,40.48,240,7,29.9,10,,CLR,,,,,79.7
2016/7/17 4:34,78.44,55.4,45.05,250,7,29.91,10,,CLR,,,,,78.44
2016/7/17 4:54,77.18,56.3,48.53,250,7,29.91,10,,CLR,,,,,77.18
2016/7/17 5:14,76.1,56.66,50.96,250,7,29.91,10,,CLR,,,,,76.1
2016/7/17 5:34,75.2,57.2,53.55,230,8,29.92,10,,CLR,,,,,75.2
2016/7/17 5:54,74.48,57.2,54.85,250,6,29.92,10,,CLR,,,,,74.48
2016/7/17 6:14,73.4,57.38,57.25,260,6,29.92,10,,CLR,,,,,73.4
2016/7/17 6:34,72.5,57.38,59.01,250,5,29.92,10,,CLR,,,,,72.5
2016/7/17 6:54,71.6,57.56,61.23,250,6,29.92,10,,CLR,,,,,71.6
2016/7/17 7:14,70.88,57.92,63.56,250,4,29.92,10,,CLR,,,,,70.88
2016/7/17 7:34,70.7,58.1,64.37,250,4,29.93,10,,CLR,,,,,70.7
2016/7/17 7:54,69.8,58.1,66.38,250,4,29.93,10,,CLR,,,,,69.8
2016/7/17 8:14,68.9,58.1,68.45,260,5,29.93,10,,CLR,,,,,68.9
2016/7/17 8:34,68.72,58.1,68.88,280,3,29.93,7,,CLR,,,,,68.72
2016/7/17 8:54,68.18,58.1,70.17,270,4,29.93,7,,CLR,,,,,68.18
2016/7/17 9:14,67.46,57.74,71,260,3,29.93,7,,CLR,,,,,67.46
2016/7/17 9:34,68,58.28,71.06,,,29.93,10,,CLR,,,,,68
2016/7/17 9:54,68,58.28,71.06,240,3,29.92,10,,CLR,,,,,68
2016/7/17 10:14,67.64,58.28,71.95,,,29.92,7,,CLR,,,,,67.64
2016/7/17 10:34,67.46,58.1,71.93,,,29.93,10,,CLR,,,,,67.46
2016/7/17 10:54,66.38,57.74,73.71,,,29.93,10,,CLR,,,,,66.38
2016/7/17 11:14,66.38,58.1,74.67,,,29.93,10,,CLR,,,,,66.38
2016/7/17 11:34,65.84,58.28,76.57,260,3,29.93,7,,CLR,,,,,65.84
2016/7/17 11:54,65.48,58.1,77.04,260,3,29.93,7,,CLR,,,,,65.48
2016/7/17 12:14,65.66,58.46,77.55,,,29.93,7,,CLR,,,,,65.66
2016/7/17 12:35,65.48,58.64,78.54,,,29.93,7,,CLR,,,,,65.48
2016/7/17 12:54,65.3,58.64,79.04,,,29.93,7,,CLR,,,,,65.3
2016/7/17 13:14,65.12,57.56,76.51,,,29.93,10,,CLR,,,,,65.12
2016/7/17 13:35,65.66,58.46,77.55,,,29.94,10,,CLR,,,,,65.66
2016/7/17 13:54,66.38,59,77.11,,,29.94,7,,CLR,,,,,66.38
2016/7/17 14:47,68,59,72.92,,,29.95,4,,CLR,,,,HZ,68
2016/7/17 15:48,73.4,57.2,56.88,,,29.95,5,,CLR,,,,HZ,73.4
2016/7/17 16:47,80.6,53.6,39.3,290,4,29.96,6,,CLR,,,,HZ,80.6
2016/7/17 17:52,86,48.2,27.03,290,5,29.97,6,,CLR,,,,HZ,83.4
2016/7/17 18:50,91.4,48.2,22.78,,,29.96,6,,CLR,,,,HZ,88.09
2016/7/17 19:48,93.2,46.4,20.13,270,5,29.95,7,,CLR,,,,,89.55
2016/7/17 20:48,96.8,44.6,16.83,270,7,29.93,7,,CLR,,,,,92.79
2016/7/17 21:50,98.6,46.4,17.05,260,11,29.92,7,,CLR,,,,,94.84
2016/7/17 22:50,98.6,44.6,15.93,250,11,29.91,7,,CLR,,,,,94.55
2016/7/17 23:49,96.8,44.6,16.83,270,11,29.91,7,,CLR,,,,,92.79
2016/7/18 0:50,93.2,53.6,26.31,240,12,29.91,7,,CLR,,,,,90.86
2016/7/18 1:50,89.6,39.2,17.09,260,9,29.93,7,,CLR,,,,,85.73
2016/7/18 2:50,84.2,48.2,28.63,240,8,29.95,7,,CLR,,,,,82.04
2016/7/18 3:55,77,55.4,47.25,230,5,29.95,7,,CLR,,,,,77
2016/7/18 4:14,77.36,55.58,47,230,5,29.99,10,,CLR,,,,,77.36
2016/7/18 4:34,76.46,56.3,49.7,230,5,29.99,10,,CLR,,,,,76.46
2016/7/18 4:54,75.56,56.3,51.21,260,6,30,10,,CLR,,,,,75.56
2016/7/18 5:14,74.3,56.84,54.47,260,7,30.01,10,,CLR,,,,,74.3
2016/7/18 5:34,73.58,57.38,56.9,250,5,30.02,10,,CLR,,,,,73.58
2016/7/18 5:54,73.04,57.56,58.32,250,7,30.02,10,,CLR,,,,,73.04
2016/7/18 6:14,72.68,57.56,59.03,260,5,30.03,10,,CLR,,,,,72.68
2016/7/18 6:34,71.96,57.56,60.49,250,5,30.03,10,,CLR,,,,,71.96
2016/7/18 6:54,71.6,57.74,61.63,260,4,30.03,10,,CLR,,,,,71.6
2016/7/18 7:14,70.88,57.56,62.75,250,4,30.03,10,,CLR,,,,,70.88
2016/7/18 7:34,70.88,58.1,63.98,240,3,30.02,10,,CLR,,,,,70.88
2016/7/18 7:54,70.34,58.1,65.16,250,4,30.02,10,,CLR,,,,,70.34
2016/7/18 8:14,69.44,57.74,66.33,250,4,30.02,10,,CLR,,,,,69.44
2016/7/18 8:34,69.44,58.1,67.2,250,3,30.01,10,,CLR,,,,,69.44
2016/7/18 8:54,68.9,58.1,68.45,250,4,30.01,10,,CLR,,,,,68.9
2016/7/18 9:14,68.18,57.92,69.71,260,4,30.01,10,,CLR,,,,,68.18
2016/7/18 9:34,68,58.1,70.6,,,30.02,10,,CLR,,,,,68
2016/7/18 9:54,67.46,57.92,71.47,260,4,30.01,10,,CLR,,,,,67.46
2016/7/18 10:14,67.28,57.92,71.91,240,3,30.02,10,,CLR,,,,,67.28
2016/7/18 10:34,66.56,57.74,73.25,260,3,30.02,10,,CLR,,,,,66.56
2016/7/18 10:54,66.38,57.74,73.71,260,3,30.02,10,,CLR,,,,,66.38
2016/7/18 11:14,66.56,58.1,74.2,,,30.02,10,,CLR,,,,,66.56
2016/7/18 11:34,66.56,58.1,74.2,,,30.02,10,,CLR,,,,,66.56
2016/7/18 11:54,65.3,57.2,75.05,240,3,30.02,10,,CLR,,,,,65.3
2016/7/18 12:14,65.48,58.1,77.04,,,30.03,10,,CLR,,,,,65.48
2016/7/18 12:34,65.84,58.28,76.57,,,30.04,10,,CLR,,,,,65.84
2016/7/18 12:54,65.3,58.1,77.52,270,3,30.04,10,,CLR,,,,,65.3
2016/7/18 13:14,64.4,57.74,78.97,,,30.04,10,,CLR,,,,,64.4
2016/7/18 13:34,65.3,58.1,77.52,,,30.04,10,,CLR,,,,,65.3
2016/7/18 13:54,66.38,56.84,71.36,,,30.04,10,,CLR,,,,,66.38
2016/7/18 14:00,66.2,57.2,72.74,,,30.04,7,,CLR,,,,,66.2
2016/7/18 14:49,71.6,57.2,60.44,,,30.05,7,,CLR,,,,,71.6
2016/7/18 15:45,75.2,59,57.12,,,30.05,7,,CLR,,,,,75.2
2016/7/18 16:46,75.2,59,57.12,,,30.04,7,,CLR,,,,,75.2
2016/7/18 17:46,86,66.2,51.72,290,4,30.03,7,,CLR,,,,,88.39
2016/7/18 19:55,93.2,41,16.37,260,5,30.02,7,,CLR,,,,,89.03
2016/7/18 20:49,95,46.4,19.04,280,8,30,7,,CLR,,,,,91.29
2016/7/18 21:50,96.8,41,14.66,250,8,29.98,7,,CLR,,,,,92.39
2016/7/18 22:50,98.6,39.2,12.94,230,9,29.97,7,,CLR,,,,,93.89
2016/7/18 23:48,98.6,39.2,12.94,270,10,29.96,7,,CLR,,,,,93.89
2016/7/19 0:50,95,37.4,13.46,250,10,29.95,7,,CLR,,,,,90.46
2016/7/19 1:50,91.4,33.8,13.05,250,10,29.96,7,,CLR,,,,,87.13
2016/7/19 2:50,87.8,33.8,14.61,240,11,29.98,7,,CLR,,,,,84.1
2016/7/19 3:50,82.4,37.4,20.04,220,7,30,7,,CLR,,,,,80.14
2016/7/19 4:14,81.86,39.38,22.04,230,7,30.01,10,,CLR,,,,,79.87
2016/7/19 4:34,80.78,39.74,23.15,240,6,30.02,10,,CLR,,,,,79.23
2016/7/19 4:54,79.34,44.78,29.47,240,7,30.03,10,,CLR,,,,,79.34
2016/7/19 5:14,78.26,48.38,34.98,240,4,30.04,10,,CLR,,,,,78.26
2016/7/19 5:34,77.18,51.08,40.09,250,7,30.04,10,,CLR,,,,,77.18
2016/7/19 5:54,76.46,52.7,43.59,250,4,30.04,10,,CLR,,,,,76.46
2016/7/19 6:14,75.38,53.42,46.39,260,4,30.04,10,,CLR,,,,,75.38
2016/7/19 6:34,74.66,53.96,48.47,260,4,30.04,10,,CLR,,,,,74.66
2016/7/19 6:54,74.66,55.22,50.75,240,3,30.04,10,,CLR,,,,,74.66
2016/7/19 7:14,74.48,55.4,51.39,260,4,30.03,10,,CLR,,,,,74.48
2016/7/19 7:34,73.04,55.4,53.94,260,4,30.04,10,,CLR,,,,,73.04
2016/7/19 7:54,72.5,55.94,56.02,260,4,30.04,10,,CLR,,,,,72.5
2016/7/19 8:14,71.96,56.48,58.18,260,3,30.04,10,,CLR,,,,,71.96
2016/7/19 8:34,71.6,57.2,60.44,250,4,30.03,10,,CLR,,,,,71.6
2016/7/19 8:54,71.42,57.38,61.21,240,3,30.03,10,,CLR,,,,,71.42
2016/7/19 9:14,70.88,57.74,63.15,250,3,30.03,10,,CLR,,,,,70.88
2016/7/19 9:34,70.52,57.74,63.93,,,30.03,10,,CLR,,,,,70.52
2016/7/19 9:54,69.8,58.1,66.38,260,3,30.03,10,,CLR,,,,,69.8
2016/7/19 10:14,69.98,58.28,66.4,250,3,30.03,10,,CLR,,,,,69.98
2016/7/19 10:34,69.62,58.1,66.79,,,30.03,10,,CLR,,,,,69.62
2016/7/19 10:54,69.8,56.48,62.61,270,3,30.03,10,,CLR,,,,,69.8
2016/7/19 11:14,68.36,58.1,69.73,260,4,30.03,10,,CLR,,,,,68.36
2016/7/19 11:33,67.64,58.46,72.41,250,3,30.03,10,,CLR,,,,,67.64
2016/7/19 11:54,68,58.64,71.98,,,30.04,10,,CLR,,,,,68
2016/7/19 12:14,68.36,58.64,71.1,,,30.04,10,,CLR,,,,,68.36
2016/7/19 12:33,68.9,52.88,56.63,,,30.04,10,,CLR,,,,,68.9
2016/7/19 12:54,68,54.5,61.98,,,30.04,10,,CLR,,,,,68
2016/7/19 13:14,67.82,50.72,54.27,,,30.04,10,,CLR,,,,,67.82
2016/7/19 13:33,68.36,49.46,50.83,,,30.04,10,,CLR,,,,,68.36
2016/7/19 13:54,69.8,50.9,51.05,,,30.03,10,,CLR,,,,,69.8
2016/7/19 14:00,66.2,59,77.6,,,30.03,7,,CLR,,,,,66.2
2016/7/19 14:45,75.2,59,57.12,,,30.03,7,,CLR,,,,,75.2
2016/7/19 15:45,77,59,53.8,,,30.03,10,,CLR,,,,,77
2016/7/19 16:46,82.4,53.6,37.07,,,30.03,10,,CLR,,,,,82.4
2016/7/19 17:47,89.6,46.4,22.53,270,4,30.02,10,,CLR,,,,,86.24
2016/7/19 18:50,95,44.6,17.78,290,5,30.01,10,,CLR,,,,,91.06
2016/7/19 19:47,96.8,44.6,16.83,250,8,29.99,10,,CLR,,,,,92.79
2016/7/19 20:47,100.4,39.2,12.25,240,9,29.98,10,,CLR,,,,,95.43
2016/7/19 21:50,102.2,39.2,11.6,250,11,29.96,10,,CLR,,,,,96.99
2016/7/19 22:47,102.2,39.2,11.6,230,11,29.94,10,,CLR,,,,,96.99
2016/7/19 23:55,100.4,39.2,12.25,270,9,29.93,10,,CLR,,,,,95.43
2016/7/20 0:50,98.6,41,13.87,270,10,29.92,7,,CLR,,,,,94.09
2016/7/20 1:50,95,37.4,13.46,250,11,29.92,7,,CLR,,,,,90.46
2016/7/20 2:50,91.4,35.6,14.02,250,8,29.93,7,,CLR,,,,,87.17
2016/7/20 3:50,86,37.4,17.85,240,7,29.96,7,,CLR,,,,,82.73
2016/7/20 4:14,85.46,39.92,20.04,240,7,29.98,10,,CLR,,,,,82.4
2016/7/20 4:34,84.38,42.8,23.19,250,7,29.99,10,,CLR,,,,,81.74
2016/7/20 4:54,82.76,44.78,26.36,260,6,30,10,,CLR,,,,,80.75
2016/7/20 5:14,82.04,47.12,29.48,250,6,30.01,10,,CLR,,,,,80.47
2016/7/20 5:34,81.5,47.3,30.21,240,4,30.01,10,,CLR,,,,,80.16
2016/7/20 5:54,80.06,46.4,30.61,,,30.01,10,,CLR,,,,,80.06
2016/7/20 6:14,80.6,44.6,28.08,,,30.01,10,,CLR,,,,,79.42
2016/7/20 6:34,80.06,42.98,26.87,250,3,30.01,10,,CLR,,,,,79.02
2016/7/20 6:54,79.88,42.26,26.29,,,30.01,10,,CLR,,,,,78.8
2016/7/20 7:14,79.7,41.54,25.72,,,30.01,10,,CLR,,,,,78.58
2016/7/20 7:34,78.8,41.54,26.49,,,30.01,10,,CLR,,,,,77.63
2016/7/20 7:54,77.36,42.8,29.16,,,30.01,10,,CLR,,,,,76.17
2016/7/20 8:14,76.82,42.08,28.88,,,30,10,,CLR,,,,,75.56
2016/7/20 8:34,76.28,41.54,28.8,,,30,10,,CLR,,,,,74.96
2016/7/20 8:54,74.3,42.8,32.29,,,30,10,,CLR,,,,,72.95
2016/7/20 9:14,74.3,42.8,32.29,,,30,10,,CLR,,,,,72.95
2016/7/20 9:34,75.38,43.34,31.8,,,30,10,,CLR,,,,,74.11
2016/7/20 9:54,73.58,43.52,34.01,,,30,10,,CLR,,,,,72.24
2016/7/20 10:14,73.4,43.16,33.75,,,29.99,10,,CLR,,,,,72.03
2016/7/20 10:34,72.5,45.86,38.56,,,29.99,10,,CLR,,,,,71.26
2016/7/20 10:54,72.32,45.5,38.27,,,29.99,10,,CLR,,,,,71.05
2016/7/20 11:14,71.24,44.96,38.89,,,29.98,10,,CLR,,,,,69.89
2016/7/20 11:34,69.98,44.78,40.32,,,29.99,10,,CLR,,,,,69.98
2016/7/20 11:54,69.98,44.96,40.59,,,29.99,10,,CLR,,,,,69.98
2016/7/20 12:14,70.34,45.5,40.93,,,29.99,10,,CLR,,,,,69
2016/7/20 12:34,69.8,45.68,41.97,,,29.99,10,,CLR,,,,,69.8
2016/7/20 12:54,68.72,46.22,44.46,,,29.99,10,,CLR,,,,,68.72
2016/7/20 13:14,68.36,46.4,45.32,,,29.99,10,,CLR,,,,,68.36
2016/7/20 13:34,70.16,46.58,42.9,,,29.99,10,,CLR,,,,,68.89
2016/7/20 13:53,71.24,44.96,38.89,,,30,10,,CLR,,,,,69.89
2016/7/20 14:00,71.6,48.2,43.42,,,30,10,,CLR,,,,,70.5
2016/7/20 15:45,82.4,44.6,26.49,,,30.01,10,,CLR,,,,,80.5
2016/7/20 16:50,87.8,37.4,16.86,,,30,10,,CLR,,,,,84.16
2016/7/20 17:50,93.2,35.6,13.25,,,29.99,10,,CLR,,,,,88.76
2016/7/20 18:50,98.6,32,9.72,260,5,29.98,10,,SCT,,15000,,,92.69
2016/7/20 19:49,102.2,28.4,7.53,260,6,29.96,10,,SCT,,15000,,,95.28
2016/7/20 20:50,105.8,37.4,9.72,250,6,29.94,10,,FEW,,15000,,,99.76
2016/7/20 21:50,105.8,35.6,9.05,230,7,29.93,10,,FEW,,15000,,,99.42
2016/7/20 22:50,105.8,39.2,10.43,270,10,29.91,10,,CLR,,,,,100.14
2016/7/21 0:50,102.2,37.4,10.81,270,12,29.9,10,,CLR,,,,,96.63
2016/7/21 1:47,98.6,35.6,11.23,250,12,29.92,10,,CLR,,,,,93.23
2016/7/21 2:48,93.2,37.4,14.23,220,6,29.94,10,,CLR,,,,,88.83
2016/7/21 3:50,89.6,35.6,14.83,230,4,29.95,10,,CLR,,,,,85.62
2016/7/21 4:14,87.8,37.04,16.62,,,29.96,10,,CLR,,,,,84.15
2016/7/21 4:34,87.44,38.84,18.04,240,3,29.97,10,,CLR,,,,,83.92
2016/7/21 4:54,86,40.46,20.12,260,4,29.97,10,,CLR,,,,,82.84
2016/7/21 5:14,84.92,41.72,21.87,280,4,29.98,10,,CLR,,,,,82.08
2016/7/21 5:34,84.92,42.26,22.33,290,3,29.98,10,,CLR,,,,,82.1
2016/7/21 5:54,84.2,42.8,23.33,280,3,29.98,10,,CLR,,,,,81.61
2016/7/21 6:14,84.02,42.8,23.46,,,29.98,10,,CLR,,,,,81.48
2016/7/21 6:34,83.3,42.8,24.01,,,29.99,10,,CLR,,,,,80.98
2016/7/21 6:54,83.3,43.16,24.35,,,29.98,10,,CLR,,,,,81.01
2016/7/21 7:14,82.4,42.08,24.05,,,29.98,10,,CLR,,,,,80.35
2016/7/21 7:34,80.6,39.74,23.29,170,3,29.98,10,,CLR,,,,,79.13
2016/7/21 7:54,80.78,40.1,23.48,,,29.97,10,,CLR,,,,,79.25
2016/7/21 8:14,80.06,41.36,25.24,,,29.97,10,,CLR,,,,,78.95
2016/7/21 8:34,79.16,40.28,24.93,,,29.97,10,,CLR,,,,,77.95
2016/7/21 8:54,78.8,40.28,25.23,,,29.97,10,,CLR,,,,,77.57
2016/7/21 9:14,78.44,41,26.25,,,29.97,10,,CLR,,,,,77.22
2016/7/21 9:34,78.62,41,26.1,,,29.97,10,,CLR,,,,,77.41
2016/7/21 9:54,78.08,41.72,27.32,,,29.97,10,,CLR,,,,,76.87
2016/7/21 10:14,77.9,41.36,27.1,,,29.97,10,,CLR,,,,,76.66
2016/7/21 10:35,76.64,41.36,28.26,,,29.96,10,,CLR,,,,,75.33
2016/7/21 10:54,74.84,42.62,31.5,90,4,29.96,10,,CLR,,,,,73.5
2016/7/21 11:14,76.1,43.16,30.83,,,29.96,10,,CLR,,,,,74.86
2016/7/21 11:34,74.12,42.08,31.6,,,29.97,10,,CLR,,,,,72.72
2016/7/21 11:54,74.12,41,30.31,,,29.97,10,,CLR,,,,,72.66
2016/7/21 12:14,75.02,42.44,31.09,,,29.97,10,,CLR,,,,,73.68
2016/7/21 12:34,74.3,42.8,32.29,,,29.97,10,,CLR,,,,,72.95
2016/7/21 12:54,74.3,41.9,31.19,,,29.97,10,,CLR,,,,,72.9
2016/7/21 13:14,73.94,44.06,34.3,,,29.97,10,,CLR,,,,,72.65
2016/7/21 13:34,73.58,43.88,34.48,,,29.98,10,,CLR,,,,,72.26
2016/7/21 13:54,74.66,42.44,31.47,,,29.98,10,,CLR,,,,,73.31
2016/7/21 14:50,80.6,39.2,22.81,,,29.99,10,,FEW,,8000,,,79.1
2016/7/21 15:50,86,39.2,19.15,,,29.99,10,,FEW,,8000,,,82.79
2016/7/21 16:50,91.4,39.2,16.15,,,29.99,10,,CLR,,,,,87.3
2016/7/21 17:47,98.6,35.6,11.23,,,29.99,10,,CLR,,,,,93.23
2016/7/21 18:50,100.4,30.2,8.56,270,7,29.99,10,,CLR,,,,,93.98
2016/7/21 19:50,102.2,32,8.72,210,5,29.98,10,,CLR,,,,,95.74
2016/7/21 20:50,105.8,28.4,6.77,270,6,29.96,10,,CLR,,,,,98.33
2016/7/21 22:49,107.6,35.6,8.58,260,6,29.92,10,,CLR,,,,,100.98
2016/7/21 23:59,109.4,39.2,9.38,280,11,29.92,10,,CLR,,,,,103.33
2016/7/22 0:47,104,46.4,14.5,260,10,29.91,10,,CLR,,,,,100.21
2016/7/22 1:50,100.4,41,13.14,240,12,29.92,10,,CLR,,,,,95.79
2016/7/22 2:50,95,48.2,20.38,240,9,29.93,10,,CLR,,,,,91.56
2016/7/22 3:50,91.4,37.4,15.05,240,7,29.96,10,,CLR,,,,,87.23
2016/7/22 4:14,89.06,38.66,17.02,240,6,29.96,10,,CLR,,,,,85.25
2016/7/22 4:34,87.8,40.46,19,260,4,29.97,10,,CLR,,,,,84.27
2016/7/22 4:54,87.44,40.64,19.35,230,3,29.98,10,,CLR,,,,,83.99
2016/7/22 5:14,87.08,39.74,18.9,,,29.98,10,,CLR,,,,,83.66
2016/7/22 5:34,86.36,39.74,19.34,260,3,29.98,10,,CLR,,,,,83.09
2016/7/22 5:54,84.74,40.46,20.95,270,4,29.98,10,,CLR,,,,,81.88
2016/7/22 6:14,84.2,41.9,22.53,,,29.98,10,,CLR,,,,,81.56
2016/7/22 6:34,84.02,42.98,23.63,,,29.98,10,,CLR,,,,,81.49
2016/7/22 6:55,82.4,42.62,24.55,,,29.98,10,,CLR,,,,,80.38
2016/7/22 7:14,81.86,41,23.47,80,3,29.98,10,,CLR,,,,,79.95
2016/7/22 7:34,80.6,41,24.46,80,6,29.97,10,,CLR,,,,,79.2
2016/7/22 7:55,80.6,43.52,26.95,,,29.97,10,,CLR,,,,,79.35
2016/7/22 8:14,79.34,42.8,27.32,,,29.96,10,,CLR,,,,,78.26
2016/7/22 8:34,78.44,44.06,29.53,,,29.96,10,,CLR,,,,,77.37
2016/7/22 8:55,76.46,43.88,31.32,,,29.96,10,,CLR,,,,,75.28
2016/7/22 9:14,76.28,43.7,31.29,80,4,29.96,10,,CLR,,,,,75.08
2016/7/22 9:34,75.38,43.52,32.02,,,29.94,10,,CLR,,,,,74.12
2016/7/22 9:55,76.46,43.88,31.32,,,29.94,10,,CLR,,,,,75.28
2016/7/22 10:14,75.74,43.88,32.08,,,29.94,10,,CLR,,,,,74.52
2016/7/22 10:34,75.02,43.7,32.63,,,29.94,10,,CLR,,,,,73.76
2016/7/22 10:55,75.2,42.26,30.69,,,29.94,10,,CLR,,,,,73.86
2016/7/22 11:14,73.58,43.7,34.25,80,3,29.94,10,,CLR,,,,,72.25
2016/7/22 11:34,75.2,42.8,31.34,,,29.94,10,,CLR,,,,,73.89
2016/7/22 11:54,73.94,42.8,32.69,,,29.94,10,,CLR,,,,,72.57
2016/7/22 12:14,74.12,44.42,34.57,,,29.94,10,,CLR,,,,,72.86
2016/7/22 12:34,72.14,42.26,34.02,,,29.95,10,,CLR,,,,,70.65
2016/7/22 12:54,72.14,42.08,33.78,,,29.96,10,,CLR,,,,,70.64
2016/7/22 13:14,69.98,41.18,35.11,50,4,29.96,10,,CLR,,,,,69.98
2016/7/22 13:34,72.32,40.28,31.32,70,4,29.97,10,,CLR,,,,,70.72
2016/7/22 13:54,75.02,41.18,29.62,,,29.97,10,,CLR,,,,,73.61
2016/7/22 14:00,75.2,41,29.23,,,29.97,10,,CLR,,,,,73.79
2016/7/22 15:45,91.4,39.2,16.15,,,29.99,10,,CLR,,,,,87.3
2016/7/22 16:46,95,41,15.49,,,29.99,10,,CLR,,,,,90.7
2016/7/22 17:47,100.4,35.6,10.63,250,4,29.98,10,,CLR,,,,,94.76
2016/7/22 18:48,102.2,35.6,10.07,250,5,29.96,10,,CLR,,,,,96.3
2016/7/22 19:47,105.8,33.8,8.42,270,5,29.95,10,,CLR,,,,,99.1
2016/7/22 20:50,109.4,35.6,8.14,270,6,29.91,10,,CLR,,,,,102.57
2016/7/22 21:48,109.4,32,7.05,220,8,29.89,10,,CLR,,,,,101.93
2016/7/22 22:50,109.4,35.6,8.14,240,7,29.86,10,,CLR,,,,,102.57
2016/7/22 23:47,111.2,39.2,8.9,250,7,29.85,10,,CLR,,,,,104.98
2016/7/23 1:50,102.2,44.6,14.29,250,12,29.85,10,,CLR,,,,,98.07
2016/7/23 2:48,96.8,44.6,16.83,230,7,29.86,10,,CLR,,,,,92.79
2016/7/23 3:50,93.2,41,16.37,240,4,29.87,10,,CLR,,,,,89.03
2016/7/23 4:14,92.12,41.36,17.17,260,3,29.88,10,,CLR,,,,,88.07
2016/7/23 4:34,92.48,41.36,16.98,,,29.89,10,,CLR,,,,,88.4
2016/7/23 4:54,91.76,41.36,17.37,,,29.89,10,,CLR,,,,,87.75
2016/7/23 5:14,91.4,42.26,18.18,,,29.89,10,,CLR,,,,,87.48
2016/7/23 5:34,90.68,42.98,19.12,,,29.88,10,,CLR,,,,,86.89
2016/7/23 5:54,89.06,45.14,21.85,110,3,29.88,10,,CLR,,,,,85.64
2016/7/23 6:14,87.26,45.86,23.77,,,29.88,10,,CLR,,,,,84.18
2016/7/23 6:34,84.92,45.86,25.62,,,29.88,10,,CLR,,,,,82.35
2016/7/23 6:55,85.1,46.4,25.99,,,29.88,10,,CLR,,,,,82.53
2016/7/23 7:14,85.1,45.14,24.78,,,29.88,10,,CLR,,,,,82.43
2016/7/23 7:34,83.84,46.94,27.63,100,3,29.87,10,,CLR,,,,,81.66
2016/7/23 7:55,83.66,47.3,28.17,,,29.87,10,,CLR,,,,,81.56
2016/7/23 8:14,82.76,47.3,29,,,29.87,10,,CLR,,,,,80.95
2016/7/23 8:34,81.68,46.94,29.63,,,29.86,10,,CLR,,,,,80.23
2016/7/23 8:55,82.58,44.78,26.51,60,3,29.85,10,,CLR,,,,,80.63
2016/7/23 9:14,79.88,44.78,28.95,60,3,29.84,10,,CLR,,,,,79.88
2016/7/23 9:34,80.6,44.24,27.7,80,3,29.85,10,,CLR,,,,,79.4
2016/7/23 9:55,80.6,45.86,29.46,,,29.84,10,,CLR,,,,,79.52
2016/7/23 10:14,79.16,46.04,31.1,,,29.84,10,,CLR,,,,,79.16
2016/7/23 10:34,79.7,47.48,32.26,,,29.84,10,,CLR,,,,,79.7
2016/7/23 10:55,79.7,46.22,30.76,,,29.84,10,,CLR,,,,,79.7
2016/7/23 11:14,78.26,43.16,28.7,60,3,29.84,10,,CLR,,,,,77.14
2016/7/23 11:34,77.72,42.26,28.23,,,29.84,10,,CLR,,,,,76.52
2016/7/23 11:55,77.9,44.96,31.11,,,29.84,10,,CLR,,,,,76.85
2016/7/23 12:14,77.9,42.44,28.25,,,29.85,10,,CLR,,,,,76.72
2016/7/23 12:34,77,43.88,30.76,,,29.85,10,,CLR,,,,,75.85
2016/7/23 12:55,76.64,44.24,31.56,,,29.86,10,,CLR,,,,,75.49
2016/7/23 13:14,76.28,42.44,29.81,,,29.87,10,,CLR,,,,,75.01
2016/7/23 13:34,77.36,42.44,28.76,160,3,29.87,10,,CLR,,,,,76.15
2016/7/23 13:54,77.9,44.6,30.69,,,29.87,10,,CLR,,,,,76.83
2016/7/23 14:50,82.4,44.6,26.49,,,29.88,7,,FEW,,6000,,,80.5
2016/7/23 15:50,89.6,41,18.33,,,29.88,7,,CLR,,,,,85.82
2016/7/23 16:50,95,41,15.49,300,4,29.87,7,,CLR,,,,,90.7
2016/7/23 17:50,100.4,44.6,15.08,,,29.85,7,,CLR,,,,,96.31
2016/7/23 18:50,105.8,46.4,13.75,320,3,29.83,7,,CLR,,,,,101.97
2016/7/23 19:55,109.4,41,10.06,300,5,29.81,7,,CLR,,,,,103.77
2016/7/23 20:46,109.4,41,10.06,270,6,29.8,7,,CLR,,,,,103.77
2016/7/23 21:47,111.2,39.2,8.9,260,12,29.78,7,,CLR,,,,,104.98
2016/7/23 22:47,109.4,48.2,13.24,250,15,29.77,7,,CLR,,,,,105.97
2016/7/23 23:48,104,46.4,14.5,240,17,29.78,7,,CLR,,,,,100.21
2016/7/24 0:55,98.6,51.8,20.87,270,9,29.8,7,,CLR,,,,,96
2016/7/24 1:50,95,55.4,26.58,260,11,29.81,7,,CLR,,,,,93.22
2016/7/24 2:46,89.6,57.2,33.56,230,11,29.83,7,,CLR,,,,,88.28
2016/7/24 3:47,86,59,40.14,250,6,29.86,7,,CLR,,,,,85.47
2016/7/24 4:14,84.02,59.9,44.17,240,7,29.87,10,,CLR,,,,,84.01
2016/7/24 4:34,82.94,59.9,45.73,240,5,29.88,10,,CLR,,,,,83.11
2016/7/24 4:54,82.76,59.9,46,240,4,29.88,10,,CLR,,,,,82.97
2016/7/24 5:14,82.4,59.9,46.54,240,3,29.88,10,,CLR,,,,,82.68
2016/7/24 5:34,82.4,58.64,44.49,240,4,29.88,10,,CLR,,,,,82.38
2016/7/24 5:54,82.04,58.28,44.44,240,3,29.88,10,,CLR,,,,,82.03
2016/7/24 6:14,81.5,57.2,43.5,250,3,29.89,10,,CLR,,,,,81.43
2016/7/24 6:34,81.5,57.38,43.78,270,3,29.88,10,,CLR,,,,,81.46
2016/7/24 6:54,80.78,57.38,44.82,,,29.88,10,,CLR,,,,,80.96
2016/7/24 7:14,80.78,57.38,44.82,,,29.87,10,,CLR,,,,,80.96
2016/7/24 7:34,80.78,57.2,44.53,190,3,29.87,10,,CLR,,,,,80.93
2016/7/24 7:54,80.6,57.56,45.38,,,29.87,10,,CLR,,,,,80.87
2016/7/24 8:14,80.42,57.2,45.06,,,29.87,10,,CLR,,,,,80.69
2016/7/24 8:34,79.34,56.66,45.78,,,29.87,10,,CLR,,,,,79.34
2016/7/24 8:54,78.98,57.92,48.48,,,29.87,10,,CLR,,,,,78.98
2016/7/24 9:14,78.26,57.2,48.37,,,29.87,10,,CLR,,,,,78.26
2016/7/24 9:34,75.92,58.28,54.34,,,29.86,10,,CLR,,,,,75.92
2016/7/24 9:54,77.54,58.1,51.17,100,3,29.85,10,,CLR,,,,,77.54
2016/7/24 10:14,76.28,57.56,52.33,,,29.85,10,,CLR,,,,,76.28
2016/7/24 10:34,77,55.58,47.56,,,29.85,10,,CLR,,,,,77
2016/7/24 10:54,77.18,56.48,48.85,,,29.85,10,,CLR,,,,,77.18
2016/7/24 11:14,75.38,55.4,49.87,,,29.85,10,,CLR,,,,,75.38
2016/7/24 11:34,75.2,55.04,49.52,,,29.86,10,,CLR,,,,,75.2
2016/7/24 11:54,73.94,54.86,51.31,170,3,29.86,10,,CLR,,,,,73.94
2016/7/24 12:14,73.94,55.22,51.99,,,29.87,10,,CLR,,,,,73.94
2016/7/24 12:33,74.66,55.76,51.75,,,29.87,10,,CLR,,,,,74.66
2016/7/24 12:54,74.3,55.58,52.04,,,29.88,10,,CLR,,,,,74.3
2016/7/24 13:14,74.12,55.76,52.7,,,29.88,10,,CLR,,,,,74.12
2016/7/24 13:33,73.94,55.76,53.02,,,29.89,10,,CLR,,,,,73.94
2016/7/24 13:54,74.66,55.58,51.42,,,29.89,10,,CLR,,,,,74.66
2016/7/24 14:50,80.6,55.4,41.97,,,29.91,7,,CLR,,,,,80.53
2016/7/24 15:47,84.2,55.4,37.35,,,29.92,7,,CLR,,,,,83.09
2016/7/24 16:50,87.8,53.6,31.17,,,29.93,7,,CLR,,,,,85.72
2016/7/24 17:58,93.2,50,23.04,250,4,29.94,7,,CLR,,,,,90.1
2016/7/24 18:50,98.6,44.6,15.93,220,6,29.94,7,,CLR,,,,,94.55
2016/7/24 19:47,100.4,44.6,15.08,250,9,29.92,7,,CLR,,,,,96.31
2016/7/24 20:47,100.4,46.4,16.15,250,7,29.91,7,,CLR,,,,,96.63
2016/7/24 21:50,100.4,48.2,17.28,260,8,29.9,7,,CLR,,,,,97
2016/7/24 22:55,100.4,50,18.48,250,11,29.9,7,,CLR,,,,,97.42
2016/7/24 23:55,98.6,46.4,17.05,260,12,29.88,7,,CLR,,,,,94.84
2016/7/25 0:50,98.6,39.2,12.94,270,11,29.88,7,,CLR,,,,,93.89
2016/7/25 1:50,95,39.2,14.44,260,10,29.89,7,,CLR,,,,,90.57
2016/7/25 2:50,91.4,37.4,15.05,260,7,29.91,7,,SCT,,8000,,,87.23
2016/7/25 3:50,87.8,41,19.4,240,6,29.91,7,,SCT,,8000,,,84.3
2016/7/25 4:14,87.44,45.5,23.31,250,5,29.93,10,,CLR,,,,,84.3
2016/7/25 4:34,86.9,46.58,24.71,260,3,29.93,10,,CLR,,,,,83.96
2016/7/25 4:54,85.64,46.76,25.9,260,4,29.94,10,,CLR,,,,,82.97
2016/7/25 5:14,85.1,46.58,26.17,280,3,29.93,10,,CLR,,,,,82.54
2016/7/25 5:34,85.82,45.32,24.38,270,5,29.94,10,,CLR,,,,,82.99
2016/7/25 5:54,83.66,47.3,28.17,240,5,29.94,10,,CLR,,,,,81.56
2016/7/25 6:14,82.58,49.46,31.62,240,3,29.94,10,,CLR,,,,,81.05
2016/7/25 6:34,81.5,50.36,33.87,260,5,29.94,10,,CLR,,,,,80.45
2016/7/25 6:54,79.88,51.26,36.92,250,5,29.94,10,,CLR,,,,,79.88
2016/7/25 7:14,79.88,52.34,38.42,240,5,29.94,10,,CLR,,,,,79.88
2016/7/25 7:34,79.34,52.34,39.11,250,6,29.94,10,,CLR,,,,,79.34
2016/7/25 7:54,78.8,53.6,41.69,240,7,29.94,10,,CLR,,,,,78.8
2016/7/25 8:14,77.9,54.5,44.39,260,5,29.95,10,,CLR,,,,,77.9
2016/7/25 8:34,77,55.22,46.94,250,3,29.96,10,,CLR,,,,,77
2016/7/25 8:54,77.18,55.4,46.97,,,29.96,10,,CLR,,,,,77.18
2016/7/25 9:14,77,55.94,48.19,260,3,29.96,10,,CLR,,,,,77
2016/7/25 9:34,75.74,56.3,50.91,250,4,29.96,10,,CLR,,,,,75.74
2016/7/25 9:54,75.2,56.84,52.85,,,29.95,10,,CLR,,,,,75.2
2016/7/25 10:14,75.2,58.1,55.31,,,29.95,10,,CLR,,,,,75.2
2016/7/25 10:34,75.02,58.28,56,,,29.95,10,,CLR,,,,,75.02
2016/7/25 10:54,75.02,58.28,56,,,29.95,10,,CLR,,,,,75.02
2016/7/25 11:14,74.66,58.46,57.05,,,29.95,10,,CLR,,,,,74.66
2016/7/25 11:34,73.22,53.78,50.54,,,29.95,10,,CLR,,,,,73.22
2016/7/25 11:54,73.58,50.36,44.02,,,29.95,10,,CLR,,,,,73.58
2016/7/25 12:14,73.4,48.92,41.97,,,29.95,10,,CLR,,,,,73.4
2016/7/25 12:34,73.58,48.92,41.72,,,29.96,10,,CLR,,,,,73.58
2016/7/25 12:54,72.86,50,44.5,,,29.96,10,,CLR,,,,,72.86
2016/7/25 13:14,73.4,50.18,43.99,,,29.97,10,,CLR,,,,,73.4
2016/7/25 13:34,73.4,50.54,44.58,,,29.97,10,,CLR,,,,,73.4
2016/7/25 14:00,73.4,48.2,40.85,,,29.99,10,,FEW,,10000,,,72.36
2016/7/25 14:45,78.8,50,36.51,,,30.01,10,,SCT,,10000,,,78.8
2016/7/25 15:45,82.4,50,32.46,,,30.01,10,,SCT,,10000,,,80.99
2016/7/25 17:47,91.4,41,17.32,,,29.99,10,,SCT,,15000,,,87.4
2016/7/25 18:45,95,42.8,16.6,290,5,29.99,10,,SCT,,15000,,,90.86
2016/7/25 20:50,102.2,41,12.44,260,8,29.93,10,,FEW,SCT,6000,15000,,97.39
2016/7/25 21:48,102.2,37.4,10.81,250,6,29.9,10,,FEW,SCT,6000,15000,,96.63
2016/7/25 22:53,104,39.2,11,250,6,29.88,10,,FEW,SCT,6000,15000,,98.56
2016/7/25 23:49,102.2,44.6,14.29,240,8,29.86,10,,FEW,SCT,6000,15000,,98.07
2016/7/26 1:50,95,53.6,24.89,250,12,29.87,7,,FEW,BKN,6000,15000,,92.71
2016/7/26 2:50,89.6,50,25.79,270,9,29.89,7,,FEW,BKN,6000,15000,,86.7
2016/7/26 3:50,86,53.6,33.01,250,7,29.91,6,,FEW,BKN,6000,15000,HZ,84.18
2016/7/26 4:14,86,54.5,34.12,260,7,29.93,10,,CLR,,,,,84.36
2016/7/26 4:34,85.64,53.96,33.84,270,7,29.94,10,,CLR,,,,,83.95
2016/7/26 4:54,85.28,52.34,32.25,260,6,29.94,10,,CLR,,,,,83.38
2016/7/26 5:14,84.2,52.52,33.61,250,6,29.94,10,,CLR,,,,,82.58
2016/7/26 5:34,83.12,53.6,36.21,250,7,29.94,10,,CLR,,,,,81.96
2016/7/26 5:54,82.4,54.14,37.81,240,7,29.94,10,,CLR,,,,,82.4
2016/7/26 6:14,81.32,55.58,41.27,250,7,29.94,10,,CLR,,,,,81.03
2016/7/26 6:34,80.6,56.66,43.93,250,7,29.94,10,,CLR,,,,,80.72
2016/7/26 6:54,79.7,57.38,46.44,250,5,29.94,10,,CLR,,,,,79.7
2016/7/26 7:14,79.16,56.66,46.05,250,4,29.94,10,,CLR,,,,,79.16
2016/7/26 7:34,78.8,56.84,46.91,250,3,29.94,10,,CLR,,,,,78.8
2016/7/26 7:54,78.44,57.38,48.4,240,3,29.94,10,,CLR,,,,,78.44
2016/7/26 8:14,77.9,57.56,49.59,260,3,29.94,10,,CLR,,,,,77.9
2016/7/26 8:34,77.54,57.92,50.84,260,3,29.94,10,,CLR,,,,,77.54
2016/7/26 8:54,77.72,57.92,50.54,260,3,29.94,10,,CLR,,,,,77.72
2016/7/26 9:14,76.64,57.56,51.7,260,5,29.94,10,,CLR,,,,,76.64
2016/7/26 9:34,76.64,57.56,51.7,,,29.94,10,,CLR,,,,,76.64
2016/7/26 9:54,76.1,57.38,52.3,,,29.94,10,,CLR,,,,,76.1
2016/7/26 10:14,76.46,57.92,52.69,,,29.93,10,,CLR,,,,,76.46
2016/7/26 10:34,76.28,58.1,53.35,,,29.93,10,,CLR,,,,,76.28
2016/7/26 10:54,76.46,57.56,52.01,,,29.93,10,,CLR,,,,,76.46
2016/7/26 11:14,76.1,54.86,47.74,,,29.93,10,,CLR,,,,,76.1
2016/7/26 11:34,76.28,54.14,46.22,,,29.93,10,,CLR,,,,,76.28
2016/7/26 11:54,75.74,53.06,45.24,,,29.92,10,,CLR,,,,,75.74
2016/7/26 12:14,75.2,53.06,46.06,,,29.93,10,,CLR,,,,,75.2
2016/7/26 12:34,72.68,55.58,54.96,70,3,29.92,10,,CLR,,,,,72.68
2016/7/26 12:54,74.48,56.48,53.44,,,29.93,10,,CLR,,,,,74.48
2016/7/26 13:14,74.12,54.14,49.68,,,29.93,10,,CLR,,,,,74.12
2016/7/26 13:34,73.94,54.14,49.98,,,29.93,10,,CLR,,,,,73.94
2016/7/26 13:54,75.56,56.12,50.88,,,29.93,10,,CLR,,,,,75.56
2016/7/26 14:50,78.8,57.2,47.52,,,29.92,7,,CLR,,,,,78.8
2016/7/26 15:50,82.4,55.4,39.58,,,29.93,7,,CLR,,,,,82.4
2016/7/26 16:50,89.6,53.6,29.45,,,29.93,7,,FEW,,10000,,,87.36
2016/7/26 17:50,95,46.4,19.04,260,5,29.92,7,,FEW,,10000,,,91.29
2016/7/26 18:50,98.6,44.6,15.93,240,6,29.91,7,,FEW,,10000,,,94.55
2016/7/26 19:50,100.4,46.4,16.15,260,6,29.89,7,,FEW,,10000,,,96.63
2016/7/26 20:50,102.2,41,12.44,270,6,29.87,10,,FEW,,10000,,,97.39
2016/7/26 22:48,104,46.4,14.5,250,15,29.83,10,,FEW,,10000,,,100.21
2016/7/26 23:46,104,50,16.59,260,15,29.83,10,,FEW,,10000,,,101.14
2016/7/27 2:49,91.4,59,33.84,270,8,29.87,10,,CLR,,,,,91.4
2016/7/27 3:48,86,46.4,25.26,230,8,29.88,10,,CLR,,,,,83.22
2016/7/27 4:14,86,46.4,25.26,260,5,29.9,10,,CLR,,,,,83.22
2016/7/27 4:34,85.1,47.48,27.07,250,6,29.92,10,,CLR,,,,,82.63
2016/7/27 4:53,84.38,47.3,27.52,260,6,29.92,10,,CLR,,,,,82.08
2016/7/27 5:14,83.3,48.38,29.67,250,5,29.93,10,,CLR,,,,,81.42
2016/7/27 5:34,83.3,48.38,29.67,250,4,29.93,10,,CLR,,,,,81.42
2016/7/27 5:54,82.4,48.2,30.35,260,4,29.92,10,,CLR,,,,,80.8
2016/7/27 6:14,82.58,47.48,29.36,240,3,29.91,10,,CLR,,,,,80.85
2016/7/27 6:34,82.4,47.3,29.34,250,3,29.91,10,,CLR,,,,,80.72
2016/7/27 6:54,82.4,46.94,28.94,250,4,29.91,10,,CLR,,,,,80.69
2016/7/27 7:14,80.96,45.5,28.72,260,4,29.92,10,,CLR,,,,,79.69
2016/7/27 7:34,80.78,46.58,30.1,260,3,29.91,10,,CLR,,,,,79.68
2016/7/27 7:54,81.14,49.1,32.7,,,29.91,10,,CLR,,,,,80.11
2016/7/27 8:14,80.24,49.82,34.59,,,29.9,10,,CLR,,,,,80.24
2016/7/27 8:34,80.06,50.18,35.26,,,29.9,10,,CLR,,,,,80.06
2016/7/27 8:54,79.7,47.48,32.26,,,29.89,10,,CLR,,,,,79.7
2016/7/27 9:14,79.16,46.22,31.31,,,29.89,10,,CLR,,,,,79.16
2016/7/27 9:34,79.34,45.5,30.29,,,29.89,10,,CLR,,,,,79.34
2016/7/27 9:54,79.34,46.58,31.55,,,29.9,10,,CLR,,,,,79.34
2016/7/27 10:14,79.16,47.48,32.83,,,29.9,10,,CLR,,,,,79.16
2016/7/27 10:34,78.44,46.94,32.94,,,29.91,10,,CLR,,,,,78.44
2016/7/27 10:54,77.72,46.76,33.51,,,29.91,10,,CLR,,,,,77.72
2016/7/27 11:14,77.9,47.84,34.69,,,29.91,10,,CLR,,,,,77.9
2016/7/27 11:34,77.72,48.38,35.61,,,29.91,10,,CLR,,,,,77.72
2016/7/27 11:54,77.36,48.38,36.04,,,29.91,10,,CLR,,,,,77.36
2016/7/27 12:14,76.82,47.12,34.99,,,29.91,10,,CLR,,,,,76.82
2016/7/27 12:34,76.64,49.1,37.92,,,29.92,10,,CLR,,,,,76.64
2016/7/27 12:54,76.46,49.46,38.66,,,29.91,10,,CLR,,,,,76.46
2016/7/27 13:15,76.1,49.1,38.6,,,29.92,10,,CLR,,,,,76.1
2016/7/27 13:34,76.28,48.2,37.1,,,29.92,10,,CLR,,,,,76.28
2016/7/27 13:54,77.72,48.56,35.85,,,29.93,10,,CLR,,,,,77.72
2016/7/27 14:00,77,48.2,36.22,,,29.93,10,,CLR,,,,,77
2016/7/27 14:48,80.6,48.2,32.18,,,29.94,10,,CLR,,,,,80.6
2016/7/27 15:45,86,48.2,27.03,,,29.95,10,,CLR,,,,,83.4
2016/7/27 16:50,91.4,44.6,19.89,,,29.94,10,,FEW,,8000,,,87.68
2016/7/27 17:47,95,41,15.49,210,5,29.95,10,,FEW,,8000,,,90.7
2016/7/27 18:47,96.8,42.8,15.71,250,7,29.94,10,,FEW,,8000,,,92.57
2016/7/27 19:57,100.4,46.4,16.15,270,5,29.92,10,,FEW,,8000,,,96.63
2016/7/27 20:51,102.2,44.6,14.29,230,10,29.91,10,,FEW,SCT,8000,20000,,98.07
2016/7/27 21:47,102.2,44.6,14.29,230,11,29.9,10,,FEW,SCT,8000,20000,,98.07
2016/7/27 22:50,102.2,46.4,15.3,240,9,29.88,10,,FEW,SCT,8000,20000,,98.43
2016/7/27 23:50,100.4,50,18.48,230,11,29.88,10,,FEW,SCT,8000,20000,,97.42
2016/7/28 0:50,96.8,51.8,22.04,220,11,29.88,10,,FEW,,8000,,,94.12
2016/7/28 1:50,93.2,48.2,21.54,250,10,29.89,10,,CLR,,,,,89.8
2016/7/28 2:47,91.4,44.6,19.89,240,8,29.9,10,,CLR,,,,,87.68
2016/7/28 3:49,87.8,44.6,22.27,240,6,29.91,10,,CLR,,,,,84.53
2016/7/28 4:14,87.26,43.88,22.05,240,5,29.91,10,,CLR,,,,,84.03
2016/7/28 4:34,86.54,43.34,22.1,250,5,29.92,10,,CLR,,,,,83.41
2016/7/28 4:54,85.64,43.88,23.21,250,5,29.93,10,,CLR,,,,,82.74
2016/7/28 5:14,84.74,44.24,24.22,250,5,29.93,10,,CLR,,,,,82.09
2016/7/28 5:34,84.2,44.6,24.99,250,5,29.93,10,,CLR,,,,,81.73
2016/7/28 5:54,83.3,44.96,26.08,240,5,29.93,10,,CLR,,,,,81.12
2016/7/28 6:14,82.4,45.5,27.41,250,4,29.93,10,,CLR,,,,,80.57
2016/7/28 6:34,82.58,45.5,27.25,270,3,29.93,10,,CLR,,,,,80.69
2016/7/28 6:54,82.94,45.5,26.93,260,3,29.93,10,,CLR,,,,,80.92
2016/7/28 7:14,82.58,46.4,28.19,,,29.93,10,,CLR,,,,,80.76
2016/7/28 7:34,82.4,46.4,28.36,260,3,29.92,10,,CLR,,,,,80.64
2016/7/28 7:54,80.96,46.4,29.72,240,3,29.92,10,,CLR,,,,,79.76
2016/7/28 8:14,81.32,46.58,29.57,240,3,29.92,10,,CLR,,,,,79.99
2016/7/28 8:34,80.06,46.94,31.24,,,29.92,10,,CLR,,,,,80.06
2016/7/28 8:54,79.88,47.66,32.28,240,3,29.92,10,,CLR,,,,,79.88
2016/7/28 9:14,79.34,47.66,32.86,,,29.92,10,,CLR,,,,,79.34
2016/7/28 9:34,78.98,49.1,35.09,,,29.92,10,,CLR,,,,,78.98
2016/7/28 9:54,78.08,50.9,38.65,,,29.92,10,,CLR,,,,,78.08
2016/7/28 10:14,77.9,51.08,39.14,,,29.92,10,,CLR,,,,,77.9
2016/7/28 10:34,77.36,51.08,39.85,,,29.92,10,,CLR,,,,,77.36
2016/7/28 10:54,76.82,50,38.98,,,29.92,10,,CLR,,,,,76.82
2016/7/28 11:14,76.28,47.48,36.11,,,29.92,10,,CLR,,,,,76.28
2016/7/28 11:34,76.1,48.2,37.32,,,29.92,10,,CLR,,,,,76.1
2016/7/28 11:54,75.56,46.94,36.24,,,29.92,10,,CLR,,,,,74.52
2016/7/28 12:14,75.38,46.58,35.97,,,29.92,10,,CLR,,,,,74.31
2016/7/28 12:34,74.12,46.04,36.76,,,29.93,10,,CLR,,,,,72.96
2016/7/28 12:54,74.84,45.5,35.16,,,29.93,10,,CLR,,,,,73.68
2016/7/28 13:14,74.66,46.04,36.1,,,29.93,10,,CLR,,,,,73.52
2016/7/28 13:34,75.2,46.4,35.94,,,29.93,10,,CLR,,,,,74.11
2016/7/28 13:54,75.2,46.4,35.94,,,29.94,10,,CLR,,,,,74.11
2016/7/28 14:50,78.8,48.2,34.13,,,29.94,7,,CLR,,,,,78.8
2016/7/28 15:50,84.2,50,30.62,,,29.94,7,,CLR,,,,,82.24
2016/7/28 16:50,87.8,44.6,22.27,300,4,29.93,7,,CLR,,,,,84.53
2016/7/28 17:50,93.2,41,16.37,250,3,29.93,7,,FEW,,8000,,,89.03
2016/7/28 18:50,96.8,42.8,15.71,230,6,29.93,10,,FEW,,8000,,,92.57
2016/7/28 19:50,100.4,44.6,15.08,270,5,29.89,7,,CLR,,,,,96.31
2016/7/28 20:50,102.2,42.8,13.34,240,5,29.87,7,,CLR,,,,,97.76
2016/7/28 21:50,102.2,44.6,14.29,200,5,29.85,7,,CLR,,,,,98.07
2016/7/28 22:48,102.2,46.4,15.3,250,8,29.84,7,,FEW,,8000,,,98.43
2016/7/28 23:45,102.2,46.4,15.3,260,8,29.82,7,,SCT,,10000,,,98.43
2016/7/29 1:45,100.4,46.4,16.15,250,9,29.81,10,,SCT,,10000,,,96.63
2016/7/29 4:14,86.18,47.66,26.33,250,5,29.87,10,,CLR,,,,,83.48
2016/7/29 4:34,84.92,47.3,27.05,250,5,29.87,10,,CLR,,,,,82.48
2016/7/29 4:54,84.38,47.66,27.9,240,4,29.87,10,,CLR,,,,,82.11
2016/7/29 5:14,83.84,48.2,28.97,230,4,29.87,10,,CLR,,,,,81.78
2016/7/29 5:34,83.3,48.38,29.67,250,4,29.87,10,,CLR,,,,,81.42
2016/7/29 5:54,82.76,49.1,31.02,280,4,29.88,10,,CLR,,,,,81.13
2016/7/29 6:14,82.58,49.1,31.2,270,4,29.88,10,,CLR,,,,,81.01
2016/7/29 6:34,80.78,50,34.21,260,5,29.88,10,,CLR,,,,,80.78
2016/7/29 6:54,80.24,50.54,35.53,280,4,29.89,10,,CLR,,,,,80.24
2016/7/29 7:14,80.42,50.54,35.32,280,3,29.88,10,,CLR,,,,,80.42
2016/7/29 7:34,79.7,50.54,36.16,,,29.88,10,,CLR,,,,,79.7
2016/7/29 7:54,79.88,50.54,35.95,270,3,29.88,10,,CLR,,,,,79.88
2016/7/29 8:14,80.06,50.72,35.98,260,3,29.87,10,,CLR,,,,,80.06
2016/7/29 8:34,78.8,50.9,37.75,260,3,29.87,10,,CLR,,,,,78.8
2016/7/29 8:54,78.62,51.26,38.48,280,3,29.86,10,,CLR,,,,,78.62
2016/7/29 9:14,78.62,52.16,39.78,,,29.86,10,,CLR,,,,,78.62
2016/7/29 9:34,78.44,51.98,39.75,,,29.86,10,,CLR,,,,,78.44
2016/7/29 9:54,78.26,51.98,39.99,,,29.85,10,,CLR,,,,,78.26
2016/7/29 10:14,77.9,51.62,39.93,,,29.85,10,,CLR,,,,,77.9
2016/7/29 10:34,77.54,50.18,38.31,,,29.85,10,,CLR,,,,,77.54
2016/7/29 10:54,77,50,38.74,,,29.86,10,,CLR,,,,,77
2016/7/29 11:14,76.82,50.36,39.5,,,29.85,10,,CLR,,,,,76.82
2016/7/29 11:34,76.46,50.9,40.78,,,29.85,10,,CLR,,,,,76.46
2016/7/29 11:54,75.38,50.54,41.72,,,29.86,10,,CLR,,,,,75.38
2016/7/29 12:14,75.38,50.36,41.44,,,29.86,10,,CLR,,,,,75.38
2016/7/29 12:34,75.2,50.36,41.69,,,29.86,10,,CLR,,,,,75.2
2016/7/29 12:54,75.56,50.36,41.19,,,29.86,10,,CLR,,,,,75.56
2016/7/29 13:14,75.56,50.54,41.47,,,29.87,10,,CLR,,,,,75.56
2016/7/29 13:34,75.74,50.9,41.77,,,29.87,10,,CLR,,,,,75.74
2016/7/29 13:54,76.46,50.9,40.78,,,29.87,10,,CLR,,,,,76.46
2016/7/29 14:00,77,51.8,41.42,,,29.87,7,,CLR,,,,,77
2016/7/29 14:45,80.6,51.8,36.79,,,29.88,7,,CLR,,,,,80.6
2016/7/29 15:45,82.4,51.8,34.69,,,29.88,7,,CLR,,,,,81.2
2016/7/29 16:46,89.6,51.8,27.56,,,29.86,7,,CLR,,,,,87
2016/7/29 17:47,95,48.2,20.38,,,29.86,7,,CLR,,,,,91.56
2016/7/29 18:50,100.4,48.2,17.28,260,4,29.85,7,,CLR,,,,,97
2016/7/29 19:49,104,50,16.59,240,8,29.82,7,,CLR,,,,,101.14
2016/7/29 20:55,107.6,48.2,13.95,210,8,29.81,7,,CLR,,,,,104.23
2016/7/29 21:50,105.8,51.8,16.82,250,11,29.79,7,,CLR,,,,,103.57
2016/7/29 22:48,105.8,50,15.73,240,10,29.78,7,,FEW,,6000,,,102.98
2016/7/29 23:50,104,51.8,17.74,240,9,29.78,7,,FEW,,6000,,,101.69
2016/7/30 0:46,100.4,55.4,22.54,250,10,29.77,7,,CLR,,,,,99.06
2016/7/30 1:46,95,53.6,24.89,240,11,29.77,7,,FEW,,6000,,,92.71
2016/7/30 2:46,91.4,53.6,27.83,250,9,29.79,7,,FEW,,6000,,,89.08
2016/7/30 3:50,86,55.4,35.25,230,5,29.82,7,,CLR,,,,,84.54
2016/7/30 4:14,85.46,54.86,35.17,250,6,29.83,10,,CLR,,,,,83.98
2016/7/30 4:34,84.38,57.56,40.15,260,8,29.84,10,,CLR,,,,,83.7
2016/7/30 4:54,83.66,55.76,38.5,260,5,29.85,10,,CLR,,,,,83.66
2016/7/30 5:14,82.94,56.48,40.45,250,6,29.85,10,,CLR,,,,,82.34
2016/7/30 5:34,82.76,57.02,41.49,240,5,29.85,10,,CLR,,,,,82.31
2016/7/30 5:54,82.4,58.1,43.64,250,6,29.85,10,,CLR,,,,,82.26
2016/7/30 6:15,81.5,59,46.41,250,5,29.84,10,,CLR,,,,,81.78
2016/7/30 6:34,80.6,59.36,48.41,240,6,29.84,10,,CLR,,,,,81.18
2016/7/30 6:54,80.42,59.36,48.69,240,6,29.84,10,,CLR,,,,,81.05
2016/7/30 7:14,79.7,59.36,49.85,240,5,29.84,10,,CLR,,,,,79.7
2016/7/30 7:34,78.8,59.18,51.02,250,4,29.84,10,,CLR,,,,,78.8
2016/7/30 7:54,77.9,59,52.22,260,5,29.84,10,,CLR,,,,,77.9
2016/7/30 8:15,77.18,58.46,52.45,260,6,29.84,10,,CLR,,,,,77.18
2016/7/30 8:34,76.46,58.46,53.72,260,5,29.84,10,,CLR,,,,,76.46
2016/7/30 8:54,76.1,58.82,55.08,260,4,29.84,10,,CLR,,,,,76.1
2016/7/30 9:15,75.74,59.36,56.83,260,4,29.83,10,,CLR,,,,,75.74
2016/7/30 9:34,75.38,59.54,57.88,270,4,29.83,10,,CLR,,,,,75.38
2016/7/30 9:54,75.02,60.08,59.72,250,4,29.83,10,,CLR,,,,,75.02
2016/7/30 10:15,75.38,60.8,60.54,280,3,29.84,10,,CLR,,,,,75.38
2016/7/30 10:34,75.2,60.98,61.29,310,4,29.84,10,,CLR,,,,,75.2
2016/7/30 10:54,75.2,60.98,61.29,280,4,29.84,10,,CLR,,,,,75.2
2016/7/30 11:15,74.48,61.16,63.19,260,5,29.85,10,,CLR,,,,,74.48
2016/7/30 11:34,74.3,61.88,65.21,230,4,29.85,10,,CLR,,,,,74.3
2016/7/30 11:54,74.3,62.24,66.05,,,29.84,10,,CLR,,,,,74.3
2016/7/30 12:15,74.3,62.06,65.63,,,29.85,10,,CLR,,,,,74.3
2016/7/30 12:34,74.48,61.88,64.82,,,29.85,10,,CLR,,,,,74.48
2016/7/30 12:54,74.66,61.7,64.02,,,29.86,10,,CLR,,,,,74.66
2016/7/30 13:15,74.48,61.7,64.41,80,3,29.87,10,,SCT,,2600,,,74.48
2016/7/30 13:34,75.38,61.7,62.5,,,29.87,10,,OVC,,2600,,,75.38
2016/7/30 13:54,76.28,61.7,60.65,,,29.88,10,,OVC,,2600,,,76.28
2016/7/30 14:00,75.2,50,41.14,,,29.88,4,,SCT,,10000,,HZ,75.2
2016/7/30 14:45,73.4,51.8,46.71,,,29.89,4,,SCT,,10000,,HZ,73.4
2016/7/30 15:45,84.2,50,30.62,,,29.91,4,,BKN,,3400,,HZ,82.24
2016/7/30 16:45,89.6,46.4,22.53,260,3,29.88,1.5,,BKN,,2000,,HZ,86.24
2016/7/30 19:50,98.6,62.6,30.8,250,14,29.85,1,,OVC,,2100,,BLSA HZ,100.38
2016/7/30 21:51,98.6,62.6,30.8,240,9,29.84,2,,OVC,,2300,,BLSA,100.38
2016/7/30 22:45,98.6,55.4,23.81,260,15,29.82,3,,BKN,,2900,,HZ,97.09
2016/7/30 23:50,98.6,59,27.1,260,10,29.83,4,,SCT,,8000,,HZ,98.6
2016/7/31 0:50,95,59,30.26,240,9,29.82,4,,BKN,,10000,,HZ,95
2016/7/31 1:50,93.2,59,31.99,250,8,29.83,4,,BKN,,10000,,HZ,93.2
2016/7/31 2:50,89.6,59,35.81,270,7,29.84,5,,SCT,,10000,,HZ,89.6
2016/7/31 4:14,84.56,60.44,44.25,220,7,29.87,10,,CLR,,,,,84.64
2016/7/31 4:34,83.48,60.62,46.11,250,8,29.89,10,,CLR,,,,,83.76
2016/7/31 4:54,82.22,60.98,48.65,240,7,29.89,10,,CLR,,,,,82.8
2016/7/31 5:14,81.5,61.34,50.44,270,6,29.9,10,,CLR,,,,,82.3
2016/7/31 5:34,80.24,61.7,53.23,260,5,29.91,10,,CLR,,,,,81.35
2016/7/31 5:54,79.88,61.88,54.2,260,5,29.91,10,,CLR,,,,,81.09
2016/7/31 6:14,79.7,62.24,55.22,250,6,29.91,10,,CLR,,,,,81.01
2016/7/31 6:34,78.98,62.42,56.9,240,4,29.91,10,,CLR,,,,,80.44
2016/7/31 6:54,78.8,62.6,57.6,240,5,29.91,10,,CLR,,,,,80.31
2016/7/31 7:14,78.44,62.6,58.29,260,5,29.91,10,,CLR,,,,,78.44
2016/7/31 7:34,78.08,62.6,58.99,260,4,29.91,10,,CLR,,,,,78.08
2016/7/31 7:54,77.9,62.6,59.34,250,3,29.91,10,,CLR,,,,,77.9
2016/7/31 8:14,77.9,62.6,59.34,260,4,29.91,10,,CLR,,,,,77.9
2016/7/31 8:34,77.54,62.78,60.43,250,3,29.91,10,,CLR,,,,,77.54
2016/7/31 8:54,77,62.6,61.13,270,4,29.9,10,,CLR,,,,,77
2016/7/31 9:14,76.46,62.78,62.63,250,4,29.9,10,,CLR,,,,,76.46
2016/7/31 9:34,76.1,62.78,63.39,260,3,29.9,10,,CLR,,,,,76.1
2016/7/31 9:54,76.28,62.96,63.41,260,3,29.9,10,,CLR,,,,,76.28
2016/7/31 10:14,75.74,62.96,64.56,240,3,29.89,10,,CLR,,,,,75.74
2016/7/31 10:34,75.56,62.96,64.95,,,29.89,10,,CLR,,,,,75.56
2016/7/31 10:54,75.2,62.96,65.73,260,3,29.89,10,,CLR,,,,,75.2
2016/7/31 11:14,74.48,62.96,67.34,260,4,29.89,10,,CLR,,,,,74.48
2016/7/31 11:34,74.48,63.14,67.76,260,4,29.89,10,,CLR,,,,,74.48
2016/7/31 11:54,74.3,63.5,69.04,260,3,29.89,10,,CLR,,,,,74.3
2016/7/31 12:14,73.76,63.5,70.3,260,3,29.9,10,,CLR,,,,,73.76
2016/7/31 12:34,73.76,63.5,70.3,260,3,29.91,10,,CLR,,,,,73.76
2016/7/31 12:54,73.58,63.5,70.73,270,4,29.92,10,,CLR,,,,,73.58
2016/7/31 13:14,73.4,63.5,71.16,260,3,29.92,10,,CLR,,,,,73.4
2016/7/31 13:34,73.76,63.5,70.3,260,4,29.92,10,,CLR,,,,,73.76
2016/7/31 13:54,74.12,63.5,69.46,250,3,29.93,10,,CLR,,,,,74.12
2016/7/31 14:50,77,62.6,61.13,240,3,29.94,7,,SCT,,12000,,,77
2016/7/31 15:47,80.6,62.6,54.3,250,3,29.96,7,,CLR,,,,,81.84
2016/7/31 16:47,84.2,57.2,39.86,,,29.95,5,,CLR,,,,HZ,84.2
2016/7/31 17:49,87.8,57.2,35.53,,,29.95,5,,CLR,,,,HZ,86.58
2016/7/31 18:51,91.4,57.2,31.72,240,6,29.92,5,,FEW,,6000,,HZ,90.06
2016/7/31 19:47,93.2,57.2,29.99,230,5,29.91,5,,FEW,,6000,,HZ,91.91
2016/7/31 21:50,98.6,55.4,23.81,260,8,29.87,5,,FEW,,6000,,HZ,97.09
2016/7/31 22:50,96.8,55.4,25.15,270,12,29.86,5,,FEW,,6000,,HZ,95.14
2016/7/31 23:48,95,55.4,26.58,240,14,29.86,5,,FEW,,6000,,HZ,93.22
2016/8/1 0:50,93.2,53.6,26.31,260,13,29.87,5,,FEW,,6000,,HZ,90.86
2016/8/1 1:50,89.6,53.6,29.45,240,11,29.87,6,,FEW,,6000,,HZ,87.36
2016/8/1 2:50,86,51.8,30.9,240,10,29.88,6,,CLR,,,,HZ,83.87
2016/8/1 3:54,82.4,51.8,34.69,250,8,29.91,6,,CLR,,,,HZ,81.2
2016/8/1 4:14,80.78,51.98,36.82,240,8,29.93,10,,CLR,,,,,80.78
2016/8/1 4:34,80.06,53.78,40.27,240,5,29.94,10,,CLR,,,,,79.99
2016/8/1 4:54,79.16,53.6,41.2,250,7,29.94,10,,CLR,,,,,79.16
2016/8/1 5:14,78.8,55.58,44.82,240,7,29.94,10,,CLR,,,,,78.8
2016/8/1 5:34,77.9,56.48,47.7,250,6,29.94,10,,CLR,,,,,77.9
2016/8/1 5:54,77.36,56.84,49.19,250,6,29.94,10,,CLR,,,,,77.36
2016/8/1 6:14,76.82,57.38,51.06,250,5,29.94,10,,CLR,,,,,76.82
2016/8/1 6:34,76.46,58.1,53.03,240,4,29.94,10,,CLR,,,,,76.46
2016/8/1 6:54,76.1,59,55.43,220,3,29.94,10,,CLR,,,,,76.1
2016/8/1 7:14,75.38,59.36,57.51,240,4,29.95,10,,CLR,,,,,75.38
2016/8/1 7:34,74.66,59.9,60.06,260,3,29.95,10,,CLR,,,,,74.66
2016/8/1 7:54,73.94,60.26,62.32,250,4,29.94,10,,CLR,,,,,73.94
2016/8/1 8:14,73.4,60.8,64.69,260,5,29.94,10,,CLR,,,,,73.4
2016/8/1 8:34,72.86,60.8,65.88,260,4,29.93,10,,CLR,,,,,72.86
2016/8/1 8:54,72.86,61.16,66.73,270,4,29.93,10,,CLR,,,,,72.86
2016/8/1 9:14,72.32,61.16,67.96,260,4,29.93,10,,CLR,,,,,72.32
2016/8/1 9:34,71.96,61.16,68.79,250,3,29.93,10,,CLR,,,,,71.96
2016/8/1 9:54,72.14,61.34,68.81,260,3,29.93,10,,CLR,,,,,72.14
2016/8/1 10:14,71.6,61.34,70.08,260,3,29.94,10,,CLR,,,,,71.6
2016/8/1 10:34,71.24,61.7,71.85,260,4,29.94,10,,CLR,,,,,71.24
2016/8/1 10:54,71.24,61.7,71.85,260,3,29.94,10,,CLR,,,,,71.24
2016/8/1 11:14,70.7,61.52,72.72,270,4,29.94,10,,CLR,,,,,70.7
2016/8/1 11:33,70.7,61.7,73.18,250,3,29.94,10,,CLR,,,,,70.7
2016/8/1 11:54,70.52,61.7,73.63,,,29.94,10,,CLR,,,,,70.52
2016/8/1 12:14,70.52,61.88,74.1,,,29.94,10,,CLR,,,,,70.52
2016/8/1 12:33,70.7,61.88,73.65,250,3,29.95,10,,CLR,,,,,70.7
2016/8/1 12:54,70.7,62.06,74.12,,,29.95,10,,CLR,,,,,70.7
2016/8/1 13:14,70.7,62.06,74.12,,,29.96,10,,CLR,,,,,70.7
2016/8/1 13:34,70.7,61.7,73.18,,,29.96,10,,CLR,,,,,70.7
2016/8/1 13:54,71.6,61.88,71.43,,,29.97,10,,CLR,,,,,71.6
2016/8/1 14:00,71.6,62.6,73.27,,,29.97,6,,CLR,,,,HZ,71.6
2016/8/1 14:48,73.4,62.6,68.94,,,29.97,5,,CLR,,,,HZ,73.4
2016/8/1 17:48,86,57.2,37.62,310,4,29.99,5,,CLR,,,,HZ,84.97
2016/8/1 18:50,91.4,57.2,31.72,280,4,29.97,5,,CLR,,,,HZ,90.06
2016/8/1 19:50,93.2,55.4,28.1,220,6,29.95,5,,CLR,,,,HZ,91.35
2016/8/1 20:45,95,55.4,26.58,260,6,29.94,5,,CLR,,,,HZ,93.22
2016/8/1 21:50,96.8,53.6,23.55,270,9,29.92,5,,FEW,,6000,,HZ,94.59
2016/8/1 22:50,98.6,53.6,22.29,260,10,29.9,5,,FEW,,6000,,HZ,96.51
2016/8/1 23:55,95,53.6,24.89,250,13,29.9,5,,FEW,,6000,,HZ,92.71
2016/8/2 0:50,93.2,51.8,24.63,250,14,29.9,5,,FEW,,6000,,HZ,90.45
2016/8/2 1:50,89.6,53.6,29.45,240,12,29.92,5,,CLR,,,,HZ,87.36
2016/8/2 2:50,84.2,57.2,39.86,230,10,29.95,7,,CLR,,,,,84.2
2016/8/2 3:50,80.6,57.2,44.8,240,9,29.97,7,,CLR,,,,,80.81
2016/8/2 4:13,80.6,58.64,47.18,260,6,29.98,10,,CLR,,,,,81.05
2016/8/2 4:34,79.7,58.46,48.27,260,8,29.99,10,,CLR,,,,,79.7
2016/8/2 4:53,78.8,58.28,49.4,260,6,30,10,,CLR,,,,,78.8
2016/8/2 5:14,78.44,58.46,50.32,250,6,30.01,10,,CLR,,,,,78.44
2016/8/2 5:34,77.9,58.46,51.22,240,5,30.01,10,,CLR,,,,,77.9
2016/8/2 5:53,77.36,59.36,53.85,250,6,30.01,10,,CLR,,,,,77.36
2016/8/2 6:14,76.46,59.9,56.56,250,3,30.02,10,,CLR,,,,,76.46
2016/8/2 6:34,75.74,60.08,58.31,250,5,30.02,10,,CLR,,,,,75.74
2016/8/2 6:53,75.38,60.26,59.39,260,5,30.02,10,,CLR,,,,,75.38
2016/8/2 7:14,74.48,60.62,61.99,260,5,30.02,10,,CLR,,,,,74.48
2016/8/2 7:34,73.94,60.8,63.53,250,4,30.02,10,,CLR,,,,,73.94
2016/8/2 7:53,73.94,60.62,63.12,240,3,30.01,10,,CLR,,,,,73.94
2016/8/2 8:14,73.4,60.08,63.06,250,4,30.01,10,,CLR,,,,,73.4
2016/8/2 8:34,73.4,60.08,63.06,250,4,30.01,10,,CLR,,,,,73.4
2016/8/2 8:53,72.68,59.9,64.19,260,4,30.01,10,,CLR,,,,,72.68
2016/8/2 9:14,72.5,59.9,64.59,260,3,30.01,10,,CLR,,,,,72.5
2016/8/2 9:34,71.96,60.26,66.63,280,3,30,10,,CLR,,,,,71.96
2016/8/2 9:53,71.6,60.44,67.88,250,4,30,10,,CLR,,,,,71.6
2016/8/2 10:14,70.88,60.8,70.45,260,3,30,10,,CLR,,,,,70.88
2016/8/2 10:34,70.88,60.8,70.45,250,3,30,10,,CLR,,,,,70.88
2016/8/2 10:53,70.7,60.8,70.88,260,3,30,10,,CLR,,,,,70.7
2016/8/2 11:14,70.34,60.8,71.76,260,3,29.99,10,,CLR,,,,,70.34
2016/8/2 11:34,69.98,60.8,72.65,260,4,30,10,,CLR,,,,,69.98
2016/8/2 11:53,69.8,60.8,73.09,260,3,30,10,,CLR,,,,,69.8
2016/8/2 12:14,69.8,60.98,73.56,260,4,30,10,,CLR,,,,,69.8
2016/8/2 12:34,69.8,61.34,74.51,260,3,30.01,10,,CLR,,,,,69.8
2016/8/2 12:53,69.62,61.7,75.93,250,4,30.01,10,,CLR,,,,,69.62
2016/8/2 13:14,69.26,61.7,76.87,270,3,30.02,10,,CLR,,,,,69.26
2016/8/2 13:34,69.62,61.7,75.93,270,3,30.03,10,,CLR,,,,,69.62
2016/8/2 13:53,70.16,62.06,75.49,260,5,30.03,10,,CLR,,,,,70.16
2016/8/2 14:00,69.8,62.6,77.9,240,3,30.03,5,,CLR,,,,HZ,69.8
2016/8/2 14:45,73.4,62.6,68.94,230,3,30.04,5,,CLR,,,,HZ,73.4
2016/8/2 15:45,75.2,57.2,53.55,,,30.04,4,,CLR,,,,HZ,75.2
2016/8/2 16:45,78.8,59,50.69,230,3,30.03,4,,CLR,,,,HZ,78.8
2016/8/2 17:51,84.2,57.2,39.86,,,30.03,4,,CLR,,,,HZ,84.2
2016/8/2 18:50,86,55.4,35.25,280,3,30.01,4,,CLR,,,,HZ,84.54
2016/8/2 20:55,95,55.4,26.58,,,29.96,4,,SCT,,8000,,HZ,93.22
2016/8/2 21:50,96.8,51.8,22.04,260,8,29.94,5,,SCT,,8000,,HZ,94.12
2016/8/2 23:49,98.6,50,19.52,230,9,29.9,6,,FEW,,8000,,HZ,95.56
2016/8/3 0:50,96.8,48.2,19.28,230,14,29.9,6,,FEW,,8000,,HZ,93.36
2016/8/3 1:50,91.4,50,24.37,240,13,29.91,6,,FEW,,8000,,HZ,88.36
2016/8/3 2:50,86,50,28.9,230,8,29.95,6,,SCT,,8000,,HZ,83.62
2016/8/3 3:50,82.4,53.6,37.07,220,7,29.98,5,,SCT,,8000,,HZ,82.4
2016/8/3 4:14,81.14,56.3,42.61,240,6,30,10,,CLR,,,,,81.03
2016/8/3 4:34,79.88,57.92,47.07,240,7,30.01,10,,CLR,,,,,79.88
2016/8/3 4:54,79.16,59.18,50.42,260,7,30.01,10,,CLR,,,,,79.16
2016/8/3 5:14,78.44,59.9,52.97,240,5,30.01,10,,CLR,,,,,78.44
2016/8/3 5:33,77.9,59.9,53.93,240,6,30.01,10,,CLR,,,,,77.9
2016/8/3 5:54,77.36,59.9,54.9,240,5,30.01,10,,CLR,,,,,77.36
2016/8/3 6:14,77,59.9,55.56,230,4,30.02,10,,CLR,,,,,77
2016/8/3 6:34,76.1,59.9,57.24,240,5,30.02,10,,CLR,,,,,76.1
2016/8/3 6:54,75.38,60.26,59.39,250,6,30.03,10,,CLR,,,,,75.38
2016/8/3 7:14,75.2,60.26,59.75,240,5,30.02,10,,CLR,,,,,75.2
2016/8/3 7:34,74.48,60.44,61.6,250,5,30.02,10,,CLR,,,,,74.48
2016/8/3 7:54,73.94,60.8,63.53,250,5,30.02,10,,CLR,,,,,73.94
2016/8/3 8:14,73.58,60.8,64.3,260,6,30.01,10,,CLR,,,,,73.58
2016/8/3 8:34,72.86,60.62,65.46,250,4,30.01,10,,CLR,,,,,72.86
2016/8/3 8:54,72.5,60.8,66.69,250,5,30.01,10,,CLR,,,,,72.5
2016/8/3 9:14,72.14,60.8,67.5,260,5,30.01,10,,CLR,,,,,72.14
2016/8/3 9:34,71.24,60.8,69.59,260,4,30.01,10,,CLR,,,,,71.24
2016/8/3 9:54,70.7,60.8,70.88,250,4,30.01,10,,CLR,,,,,70.7
2016/8/3 10:14,70.34,60.8,71.76,,,30,10,,CLR,,,,,70.34
2016/8/3 10:34,70.16,60.8,72.2,,,30,10,,CLR,,,,,70.16
2016/8/3 10:54,70.7,60.8,70.88,,,30,10,,CLR,,,,,70.7
2016/8/3 11:14,71.06,60.98,70.47,240,4,29.99,10,,CLR,,,,,71.06
2016/8/3 11:34,70.7,60.8,70.88,250,5,29.99,10,,CLR,,,,,70.7
2016/8/3 11:54,70.52,60.98,71.78,250,6,29.99,10,,CLR,,,,,70.52
2016/8/3 12:14,69.98,60.98,73.11,250,5,30,10,,CLR,,,,,69.98
2016/8/3 12:34,69.44,60.98,74.47,260,4,30,10,,CLR,,,,,69.44
2016/8/3 12:53,69.08,60.98,75.4,260,5,30,10,,CLR,,,,,69.08
2016/8/3 13:14,68.9,61.16,76.35,260,4,30.01,10,,CLR,,,,,68.9
2016/8/3 13:34,69.08,61.34,76.36,260,4,30.01,10,,CLR,,,,,69.08
2016/8/3 13:53,69.44,61.7,76.4,250,3,30.01,10,,CLR,,,,,69.44
2016/8/3 14:00,69.8,62.6,77.9,230,3,30.01,4,,SCT,,10000,,HZ,69.8
2016/8/3 15:45,71.6,62.6,73.27,,,30.02,4,,SCT,,10000,,HZ,71.6
2016/8/3 16:50,77,60.8,57.36,220,3,30.01,5,,SCT,,10000,,HZ,77
2016/8/3 17:50,84.2,55.4,37.35,280,5,30,6,,FEW,SCT,6000,12000,HZ,83.09
2016/8/3 18:50,87.8,53.6,31.17,220,5,29.98,6,,FEW,SCT,6000,12000,HZ,85.72
2016/8/3 21:50,96.8,50,20.62,220,8,29.93,7,,FEW,SCT,6000,12000,,93.71
2016/8/3 22:50,95,51.8,23.3,260,11,29.91,7,,FEW,SCT,6000,10000,,92.26
2016/8/4 0:48,93.2,50,23.04,240,12,29.89,7,,FEW,,6000,,,90.1
2016/8/4 1:49,89.6,48.2,24.11,240,13,29.89,7,,FEW,,6000,,,86.44
2016/8/4 2:48,84.2,55.4,37.35,240,12,29.91,7,,FEW,,6000,,,83.09
2016/8/4 3:47,80.6,59,47.79,230,8,29.93,7,,CLR,,,,,81.11
2016/8/4 4:14,78.8,59.18,51.02,240,8,29.94,10,,CLR,,,,,78.8
2016/8/4 4:34,78.08,59.36,52.58,250,6,29.96,10,,CLR,,,,,78.08
2016/8/4 4:53,77.36,59.36,53.85,250,6,29.96,10,,CLR,,,,,77.36
2016/8/4 5:14,76.64,60.08,56.59,250,6,29.96,10,,CLR,,,,,76.64
2016/8/4 5:34,75.74,60.8,59.82,240,6,29.96,10,,CLR,,,,,75.74
2016/8/4 5:53,75.02,60.8,61.27,250,8,29.95,10,,CLR,,,,,75.02
2016/8/4 6:14,74.3,61.16,63.57,250,6,29.95,10,,CLR,,,,,74.3
2016/8/4 6:34,73.76,61.34,65.15,240,6,29.96,10,,CLR,,,,,73.76
2016/8/4 6:53,72.86,61.34,67.15,270,7,29.96,10,,CLR,,,,,72.86
2016/8/4 7:14,72.5,61.16,67.54,260,6,29.95,10,,CLR,,,,,72.5
2016/8/4 7:34,71.78,61.16,69.21,260,5,29.94,10,,CLR,,,,,71.78
2016/8/4 7:53,71.6,60.98,69.19,250,5,29.94,10,,CLR,,,,,71.6
2016/8/4 8:14,71.42,61.16,70.06,260,6,29.94,10,,CLR,,,,,71.42
2016/8/4 8:34,70.88,61.16,71.36,260,4,29.94,10,,CLR,,,,,70.88
2016/8/4 8:54,70.7,61.16,71.8,260,5,29.94,10,,CLR,,,,,70.7
2016/8/4 9:14,70.7,61.16,71.8,250,4,29.93,10,,CLR,,,,,70.7
2016/8/4 9:34,70.34,60.98,72.22,,,29.93,10,,CLR,,,,,70.34
2016/8/4 9:54,69.98,60.98,73.11,250,3,29.92,10,,CLR,,,,,69.98
2016/8/4 10:14,70.16,61.16,73.13,250,5,29.92,10,,CLR,,,,,70.16
2016/8/4 10:34,69.8,60.98,73.56,250,4,29.93,10,,CLR,,,,,69.8
2016/8/4 10:53,69.8,60.98,73.56,260,3,29.93,10,,CLR,,,,,69.8
2016/8/4 11:14,69.08,60.98,75.4,260,3,29.93,10,,CLR,,,,,69.08
2016/8/4 11:34,68.9,60.98,75.86,260,5,29.93,10,,CLR,,,,,68.9
2016/8/4 11:54,69.26,60.98,74.93,,,29.94,10,,CLR,,,,,69.26
2016/8/4 12:14,69.26,60.98,74.93,,,29.93,10,,CLR,,,,,69.26
2016/8/4 12:34,68.9,60.8,75.38,,,29.93,10,,CLR,,,,,68.9
2016/8/4 12:54,68.36,60.44,75.82,260,5,29.93,10,,CLR,,,,,68.36
2016/8/4 13:14,68.54,60.8,76.32,,,29.94,10,,CLR,,,,,68.54
2016/8/4 13:34,69.26,60.98,74.93,260,5,29.94,10,,CLR,,,,,69.26
2016/8/4 13:54,69.44,60.8,74,250,3,29.95,10,,CLR,,,,,69.44
2016/8/4 14:00,69.8,62.6,77.9,240,3,29.95,5,,SCT,,10000,,HZ,69.8
2016/8/4 14:48,71.6,62.6,73.27,,,29.95,5,,SCT,,10000,,HZ,71.6
2016/8/4 15:45,73.4,62.6,68.94,,,29.95,5,,SCT,,10000,,HZ,73.4
2016/8/4 16:46,78.8,60.8,54.05,,,29.93,5,,SCT,,10000,,HZ,78.8
2016/8/4 17:47,82.4,59,45.07,230,3,29.93,5,,SCT,,10000,,HZ,82.46
2016/8/4 19:50,91.4,55.4,29.72,230,5,29.89,6,,SCT,,10000,,,89.53
2016/8/4 20:47,93.2,55.4,28.1,270,7,29.86,6,,FEW,,10000,,HZ,91.35
2016/8/4 21:47,96.8,53.6,23.55,240,8,29.84,6,,FEW,,10000,,HZ,94.59
2016/8/4 22:50,96.8,53.6,23.55,240,8,29.81,7,,FEW,,10000,,,94.59
2016/8/4 23:50,95,55.4,26.58,250,12,29.81,7,,FEW,,10000,,,93.22
2016/8/5 0:48,93.2,57.2,29.99,230,12,29.81,7,,FEW,,10000,,,91.91
2016/8/5 1:50,87.8,57.2,35.53,240,11,29.83,7,,FEW,,6000,,,86.58
2016/8/5 2:50,84.2,59,42.52,230,8,29.85,7,,FEW,,10000,,,83.92
2016/8/5 3:48,80.6,59,,,,29.87,24007,,CLR,,,,,
2016/8/5 4:14,79.7,59.36,49.85,240,7,29.88,10,,CLR,,,,,79.7
2016/8/5 4:34,78.8,59.36,51.35,250,7,29.89,10,,CLR,,,,,78.8
2016/8/5 4:54,78.08,59,51.91,250,6,29.89,10,,CLR,,,,,78.08
2016/8/5 5:13,77.72,59,52.53,250,6,29.89,10,,CLR,,,,,77.72
2016/8/5 5:34,76.82,58.64,53.43,260,6,29.89,10,,CLR,,,,,76.82
2016/8/5 5:54,76.28,59.36,55.81,250,6,29.89,10,,CLR,,,,,76.28
2016/8/5 6:14,75.74,59.9,57.93,250,5,29.89,10,,CLR,,,,,75.74
2016/8/5 6:33,75.02,59.9,59.34,250,4,29.89,10,,CLR,,,,,75.02
2016/8/5 6:54,74.12,59.9,61.16,250,6,29.89,10,,CLR,,,,,74.12
2016/8/5 8:14,71.6,60.08,67.01,260,6,29.89,10,,CLR,,,,,71.6
2016/8/5 8:33,70.88,60.26,69.11,260,5,29.89,10,,CLR,,,,,70.88
2016/8/5 8:54,70.34,60.26,70.39,250,4,29.89,10,,CLR,,,,,70.34
2016/8/5 9:14,70.16,60.44,71.28,260,5,29.89,10,,CLR,,,,,70.16
2016/8/5 9:33,69.8,60.8,73.09,260,4,29.89,10,,CLR,,,,,69.8
2016/8/5 9:54,69.26,60.44,73.51,260,4,29.89,10,,CLR,,,,,69.26
2016/8/5 10:14,68.9,60.62,74.9,250,4,29.89,10,,CLR,,,,,68.9
2016/8/5 10:33,68.54,60.8,76.32,250,3,29.88,10,,CLR,,,,,68.54
2016/8/5 10:54,68.18,60.8,77.27,260,4,29.88,10,,CLR,,,,,68.18
2016/8/5 11:14,68.18,60.62,76.78,260,3,29.88,10,,CLR,,,,,68.18
2016/8/5 11:33,68,60.8,77.75,260,4,29.89,10,,CLR,,,,,68
2016/8/5 11:54,67.28,60.8,79.7,260,3,29.89,10,,CLR,,,,,67.28
2016/8/5 12:14,67.28,60.8,79.7,270,3,29.9,10,,CLR,,,,,67.28
2016/8/5 12:34,66.74,60.8,81.2,260,4,29.9,10,,CLR,,,,,66.74
2016/8/5 12:54,66.74,60.98,81.72,250,4,29.9,7,,CLR,,,,,66.74
2016/8/5 13:14,66.74,61.16,82.25,250,4,29.9,7,,CLR,,,,,66.74
2016/8/5 13:34,66.56,60.98,82.24,260,3,29.91,7,,CLR,,,,,66.56
2016/8/5 14:00,66.2,62.6,88.18,230,4,29.91,3,,CLR,,,,HZ,66.2
2016/8/5 14:45,69.8,62.6,77.9,250,3,29.91,3,,CLR,,,,HZ,69.8
2016/8/5 15:45,71.6,62.6,73.27,,,29.91,3,,CLR,,,,HZ,71.6
2016/8/5 16:46,75.2,62.6,64.91,,,29.91,3,,CLR,,,,HZ,75.2
2016/8/5 17:48,82.4,55.4,39.58,310,3,29.91,3,,CLR,,,,HZ,82.4
2016/8/5 18:47,84.2,57.2,39.86,,,29.89,4,,CLR,,,,HZ,84.2
2016/8/5 20:50,91.4,57.2,31.72,280,7,29.85,4,,CLR,,,,HZ,90.06
2016/8/5 21:50,93.2,55.4,28.1,260,6,29.83,4,,FEW,,6000,,HZ,91.35
2016/8/5 23:50,95,55.4,26.58,260,9,29.81,5,,FEW,,6000,,HZ,93.22
2016/8/6 0:50,91.4,55.4,29.72,240,10,29.8,7,,CLR,,,,,89.53
2016/8/6 1:55,84.2,59,42.52,240,12,29.82,7,,CLR,,,,,83.92
2016/8/6 2:48,82.4,59,45.07,240,10,29.84,7,,CLR,,,,,82.46
2016/8/6 3:48,78.8,60.8,54.05,230,6,29.86,7,,CLR,,,,,78.8
2016/8/6 4:14,77.9,60.8,55.68,240,6,29.87,10,,CLR,,,,,77.9
2016/8/6 4:33,77,60.8,57.36,240,7,29.87,10,,CLR,,,,,77
2016/8/6 4:54,76.1,61.16,59.86,240,6,29.87,10,,CLR,,,,,76.1
2016/8/6 5:14,75.38,61.7,62.5,250,5,29.87,10,,CLR,,,,,75.38
2016/8/6 5:34,74.48,61.7,64.41,250,7,29.87,10,,CLR,,,,,74.48
2016/8/6 5:54,74.3,61.7,64.8,250,5,29.87,10,,CLR,,,,,74.3
2016/8/6 6:14,73.4,61.7,66.79,250,5,29.87,10,,CLR,,,,,73.4
2016/8/6 6:34,72.5,61.7,68.85,250,6,29.88,10,,CLR,,,,,72.5
2016/8/6 6:54,72.5,61.7,68.85,250,5,29.88,10,,CLR,,,,,72.5
2016/8/6 7:14,71.78,61.7,70.55,250,4,29.88,10,,CLR,,,,,71.78
2016/8/6 7:34,71.6,61.88,71.43,250,4,29.88,10,,CLR,,,,,71.6
2016/8/6 7:54,71.24,61.7,71.85,250,4,29.89,10,,CLR,,,,,71.24
2016/8/6 8:14,70.34,61.7,74.08,260,3,29.89,10,,CLR,,,,,70.34
2016/8/6 8:34,70.34,61.7,74.08,250,5,29.89,10,,CLR,,,,,70.34
2016/8/6 8:54,69.8,61.7,75.46,260,4,29.89,10,,CLR,,,,,69.8
2016/8/6 9:14,69.26,61.7,76.87,260,6,29.89,10,,CLR,,,,,69.26
2016/8/6 9:34,68.9,61.7,77.82,260,4,29.88,10,,CLR,,,,,68.9
2016/8/6 9:54,68.36,61.34,78.28,250,4,29.88,10,,CLR,,,,,68.36
2016/8/6 10:14,68.36,61.34,78.28,260,3,29.89,10,,CLR,,,,,68.36
2016/8/6 10:34,68,61.16,78.75,260,4,29.88,10,,CLR,,,,,68
2016/8/6 10:54,67.46,61.16,80.23,250,3,29.88,10,,CLR,,,,,67.46
2016/8/6 11:14,67.1,60.8,80.2,260,4,29.88,7,,CLR,,,,,67.1
2016/8/6 11:34,66.74,60.8,81.2,260,3,29.88,7,,CLR,,,,,66.74
2016/8/6 11:54,66.56,60.8,81.71,260,3,29.88,7,,CLR,,,,,66.56
2016/8/6 12:14,66.2,60.44,81.69,260,3,29.88,7,,CLR,,,,,66.2
2016/8/6 12:33,65.84,60.44,82.71,260,3,29.89,7,,CLR,,,,,65.84
2016/8/6 12:54,65.48,60.26,83.22,260,4,29.89,7,,CLR,,,,,65.48
2016/8/6 13:14,65.66,60.8,84.3,250,3,29.89,7,,CLR,,,,,65.66
2016/8/6 13:33,65.48,60.44,83.76,250,4,29.89,7,,SCT,SCT,1500,1900,,65.48
2016/8/6 13:54,66.02,60.8,83.26,,,29.89,7,,BKN,BKN,1500,1900,,66.02
2016/8/6 14:50,68,60.8,77.75,,,29.9,3,,BKN,,1300,,HZ,68
2016/8/6 15:50,,,,300,3,29.98,3,,SCT,,1300,,HZ,
2016/8/6 16:50,77,60.8,57.36,,,29.89,3,,FEW,,1300,,HZ,77
2016/8/6 17:48,80.6,59,47.79,,,29.88,4,,CLR,,,,HZ,81.11
2016/8/6 18:48,84.2,57.2,39.86,240,4,29.87,4,,CLR,,,,HZ,84.2
2016/8/6 19:50,89.6,57.2,33.56,230,5,29.84,4,,CLR,,,,HZ,88.28
2016/8/6 20:47,91.4,57.2,31.72,270,4,29.82,4,,CLR,,,,HZ,90.06
2016/8/6 21:48,93.2,55.4,28.1,270,6,29.8,4,,CLR,,,,HZ,91.35
2016/8/6 22:50,95,55.4,26.58,270,8,29.78,5,,CLR,,,,HZ,93.22
2016/8/6 23:48,95,55.4,26.58,260,11,29.78,5,,CLR,,,,HZ,93.22
2016/8/7 1:47,87.8,57.2,35.53,250,12,29.78,5,,CLR,,,,HZ,86.58
2016/8/7 2:50,80.6,59,47.79,230,9,29.8,5,,CLR,,,,HZ,81.11
2016/8/7 3:48,77,60.8,57.36,230,6,29.82,5,,CLR,,,,HZ,77
2016/8/7 4:14,77.18,60.8,57.02,250,5,29.83,10,,CLR,,,,,77.18
2016/8/7 4:33,76.28,60.8,58.75,240,6,29.84,10,,CLR,,,,,76.28
2016/8/7 4:54,75.2,60.8,60.9,240,6,29.84,10,,CLR,,,,,75.2
2016/8/7 5:14,73.94,60.8,63.53,250,6,29.84,10,,CLR,,,,,73.94
2016/8/7 5:33,73.4,60.8,64.69,260,5,29.85,10,,CLR,,,,,73.4
2016/8/7 5:54,72.5,60.8,66.69,260,6,29.85,10,,CLR,,,,,72.5
2016/8/7 6:14,71.78,60.8,68.33,260,5,29.85,10,,CLR,,,,,71.78
2016/8/7 6:34,71.06,60.8,70.02,260,6,29.86,10,,CLR,,,,,71.06
2016/8/7 6:54,70.7,60.62,70.43,260,7,29.86,10,,CLR,,,,,70.7
2016/8/7 7:14,69.98,60.44,71.72,260,5,29.87,10,,CLR,,,,,69.98
2016/8/7 7:33,69.8,60.44,72.16,260,5,29.87,10,,CLR,,,,,69.8
2016/8/7 7:54,69.44,60.62,73.53,260,4,29.87,10,,CLR,,,,,69.44
2016/8/7 8:14,68.9,60.26,73.95,260,6,29.87,10,,CLR,,,,,68.9
2016/8/7 8:34,68.36,60.26,75.33,260,6,29.87,10,,CLR,,,,,68.36
2016/8/7 8:54,68.18,60.26,75.8,260,5,29.86,10,,CLR,,,,,68.18
2016/8/7 9:14,68,60.08,75.78,260,4,29.86,10,,CLR,,,,,68
2016/8/7 9:34,67.82,60.26,76.74,250,4,29.86,10,,CLR,,,,,67.82
2016/8/7 9:54,67.28,60.08,77.69,250,3,29.85,10,,CLR,,,,,67.28
2016/8/7 10:14,66.92,60.08,78.66,260,3,29.85,10,,CLR,,,,,66.92
2016/8/7 10:34,66.56,59.9,79.14,260,3,29.85,10,,CLR,,,,,66.56
2016/8/7 10:54,66.38,59.9,79.63,260,3,29.85,10,,CLR,,,,,66.38
2016/8/7 11:14,66.2,59.9,80.13,240,3,29.84,10,,CLR,,,,,66.2
2016/8/7 11:34,66.2,59.9,80.13,260,3,29.84,7,,CLR,,,,,66.2
2016/8/7 11:54,65.48,59.9,82.16,260,4,29.84,7,,CLR,,,,,65.48
2016/8/7 12:14,65.66,60.08,82.17,250,4,29.84,7,,CLR,,,,,65.66
2016/8/7 12:34,65.3,59.9,82.68,250,3,29.84,7,,CLR,,,,,65.3
2016/8/7 12:54,64.94,59.9,83.72,260,4,29.84,7,,CLR,,,,,64.94
2016/8/7 13:14,64.76,59.9,84.25,250,3,29.84,7,,SCT,,1200,,,64.76
2016/8/7 13:34,64.76,59.9,84.25,260,3,29.85,7,,SCT,,1200,,,64.76
2016/8/7 13:54,65.48,60.44,83.76,260,3,29.85,7,,SCT,,1200,,,65.48
2016/8/7 14:50,68,60.8,77.75,,,29.86,3,,FEW,,1200,,HZ,68
2016/8/7 15:50,71.6,60.8,68.75,,,,3,,CLR,,,,HZ,71.6
2016/8/7 16:48,75.2,59,57.12,,,29.85,3,,CLR,,,,HZ,75.2
2016/8/7 17:50,80.6,59,47.79,,,29.84,4,,CLR,,,,HZ,81.11
2016/8/7 18:47,86,57.2,37.62,220,3,29.83,4,,CLR,,,,HZ,84.97
2016/8/7 19:55,89.6,57.2,33.56,240,7,29.81,4,,CLR,,,,HZ,88.28
2016/8/7 20:47,93.2,55.4,28.1,270,10,29.79,5,,CLR,,,,HZ,91.35
2016/8/7 21:48,95,55.4,26.58,240,12,29.79,7,,CLR,,,,,93.22
2016/8/7 22:47,95,53.6,24.89,270,10,29.77,7,,CLR,,,,,92.71
2016/8/8 0:48,91.4,55.4,29.72,250,10,29.77,7,,CLR,,,,,89.53
2016/8/8 1:48,86,57.2,37.62,240,12,29.78,7,,CLR,,,,,84.97
2016/8/8 2:48,80.6,59,47.79,250,9,29.79,7,,CLR,,,,,81.11
2016/8/8 3:48,77,59,53.8,250,6,29.81,7,,CLR,,,,,77
2016/8/8 4:13,77.18,60.26,55.94,270,6,29.82,10,,CLR,,,,,77.18
2016/8/8 4:34,76.1,60.44,58.35,260,6,29.82,10,,CLR,,,,,76.1
2016/8/8 4:54,75.38,60.44,59.77,250,6,29.82,10,,CLR,,,,,75.38
2016/8/8 5:13,75.2,60.44,60.13,260,4,29.82,10,,CLR,,,,,75.2
2016/8/8 5:34,74.48,60.62,61.99,240,4,29.83,10,,CLR,,,,,74.48
2016/8/8 5:54,74.12,60.8,63.15,250,4,29.83,10,,CLR,,,,,74.12
2016/8/8 6:13,73.04,60.44,64.65,260,5,29.83,10,,CLR,,,,,73.04
2016/8/8 6:34,72.5,60.44,65.84,250,5,29.83,10,,CLR,,,,,72.5
2016/8/8 6:53,72.32,60.44,66.24,250,4,29.84,10,,CLR,,,,,72.32
2016/8/8 7:14,71.24,60.44,68.71,260,5,29.84,10,,CLR,,,,,71.24
2016/8/8 7:34,70.88,60.62,70,250,5,29.84,10,,CLR,,,,,70.88
2016/8/8 7:53,70.52,60.44,70.41,260,4,29.84,10,,CLR,,,,,70.52
2016/8/8 8:14,69.44,60.26,72.59,260,4,29.84,10,,CLR,,,,,69.44
2016/8/8 8:34,68.9,60.26,73.95,260,3,29.84,10,,CLR,,,,,68.9
2016/8/8 8:53,68.54,60.26,74.87,260,4,29.84,10,,CLR,,,,,68.54
2016/8/8 9:14,68,60.26,76.27,260,5,29.84,10,,CLR,,,,,68
2016/8/8 9:34,67.64,60.44,77.72,260,5,29.84,10,,CLR,,,,,67.64
2016/8/8 9:53,67.1,60.26,78.68,260,4,29.84,10,,CLR,,,,,67.1
2016/8/8 10:14,66.92,60.26,79.17,250,4,29.83,10,,CLR,,,,,66.92
2016/8/8 10:34,66.2,60.08,80.65,250,4,29.82,10,,CLR,,,,,66.2
2016/8/8 10:53,66.2,60.26,81.17,270,4,29.82,10,,CLR,,,,,66.2
2016/8/8 11:14,65.66,60.08,82.17,,,29.82,7,,CLR,,,,,65.66
2016/8/8 11:34,65.66,60.26,82.7,270,4,29.82,7,,CLR,,,,,65.66
2016/8/8 11:53,64.94,59.9,83.72,250,4,29.82,7,,CLR,,,,,64.94
2016/8/8 12:14,64.94,60.08,84.26,240,3,29.82,7,,CLR,,,,,64.94
2016/8/8 12:34,65.3,60.08,83.21,250,3,29.82,7,,CLR,,,,,65.3
2016/8/8 12:53,64.58,59.9,84.78,250,3,29.83,7,,CLR,,,,,64.58
2016/8/8 13:14,64.58,60.08,85.33,260,3,29.83,7,,CLR,,,,,64.58
2016/8/8 13:34,64.4,60.08,85.86,250,3,29.83,5,,CLR,,,,BR,64.4
2016/8/8 13:53,65.12,60.8,85.9,250,3,29.83,5,,CLR,,,,BR,65.12
2016/8/8 14:00,66.2,62.6,88.18,250,5,29.83,3,,CLR,,,,HZ,66.2
2016/8/8 14:45,66.2,62.6,88.18,240,5,29.85,3,,SCT,,3000,,HZ,66.2
2016/8/8 15:48,68,62.6,82.86,,,29.86,3,,BKN,,1100,,HZ,68
2016/8/8 17:47,75.2,59,57.12,230,5,29.86,3,,CLR,,,,HZ,75.2
2016/8/8 18:49,82.4,59,45.07,230,6,29.84,3,,CLR,,,,HZ,82.46
2016/8/8 19:49,86,57.2,37.62,220,5,29.83,3,,CLR,,,,HZ,84.97
2016/8/8 21:48,93.2,53.6,26.31,260,8,29.8,3,,CLR,,,,HZ,90.86
2016/8/8 22:48,93.2,53.6,26.31,230,8,29.79,3,,CLR,,,,HZ,90.86
2016/8/8 23:55,91.4,53.6,27.83,240,8,29.79,3,,CLR,,,,HZ,89.08
2016/8/9 0:55,89.6,55.4,31.45,240,11,29.78,5,,CLR,,,,HZ,87.78
2016/8/9 1:50,84.2,57.2,39.86,240,12,29.79,5,,CLR,,,,HZ,84.2
2016/8/9 2:50,78.8,59,50.69,250,12,29.81,5,,CLR,,,,HZ,78.8
2016/8/9 3:48,75.2,59,57.12,240,7,29.83,5,,CLR,,,,HZ,75.2
2016/8/9 4:14,74.48,60.44,61.6,240,7,29.84,10,,CLR,,,,,74.48
2016/8/9 4:34,73.76,60.62,63.51,250,7,29.85,10,,CLR,,,,,73.76
2016/8/9 4:54,72.86,60.62,65.46,250,7,29.85,10,,CLR,,,,,72.86
2016/8/9 5:14,72.32,60.8,67.09,240,5,29.86,10,,CLR,,,,,72.32
2016/8/9 5:34,71.6,60.8,68.75,250,6,29.86,10,,CLR,,,,,71.6
2016/8/9 5:54,70.88,60.44,69.56,260,6,29.87,10,,CLR,,,,,70.88
2016/8/9 6:14,70.16,60.62,71.74,260,6,29.87,10,,CLR,,,,,70.16
2016/8/9 6:34,69.62,60.62,73.08,260,4,29.87,10,,CLR,,,,,69.62
2016/8/9 6:54,69.08,60.8,74.92,250,5,29.87,10,,CLR,,,,,69.08
2016/8/9 7:14,68.72,60.44,74.88,250,4,29.87,10,,CLR,,,,,68.72
2016/8/9 7:34,68,60.44,76.76,250,4,29.87,10,,CLR,,,,,68
2016/8/9 7:54,68,60.44,76.76,250,5,29.87,10,,CLR,,,,,68
2016/8/9 8:14,67.28,60.26,78.19,260,4,29.87,10,,CLR,,,,,67.28
2016/8/9 8:34,67.1,60.62,79.69,250,5,29.87,10,,CLR,,,,,67.1
2016/8/9 8:54,66.74,60.44,80.17,250,5,29.87,10,,CLR,,,,,66.74
2016/8/9 9:14,66.2,60.44,81.69,250,4,29.87,7,,CLR,,,,,66.2
2016/8/9 9:34,66.2,60.26,81.17,240,4,29.86,7,,CLR,,,,,66.2
2016/8/9 9:54,65.66,60.08,82.17,260,4,29.86,7,,SCT,,1400,,,65.66
2016/8/9 10:14,65.48,60.62,84.29,260,4,29.86,7,,OVC,,1400,,,65.48
2016/8/9 10:34,66.2,60.98,83.27,250,4,29.87,7,,OVC,,1400,,,66.2
2016/8/9 10:54,66.38,60.8,82.22,260,3,29.87,7,,OVC,,1400,,,66.38
2016/8/9 11:14,66.38,60.8,82.22,,,29.87,5,,OVC,,1400,,HZ,66.38
2016/8/9 11:34,66.38,60.8,82.22,,,29.86,5,,OVC,,1000,,HZ,66.38
2016/8/9 11:54,66.92,60.98,81.22,,,29.86,5,,OVC,,1000,,HZ,66.92
2016/8/9 12:14,67.1,60.8,80.2,,,29.86,5,,OVC,,1000,,HZ,67.1
2016/8/9 12:34,67.1,60.8,80.2,,,29.87,5,,OVC,,1000,,HZ,67.1
2016/8/9 12:54,67.1,60.8,80.2,,,29.87,5,,OVC,,1000,,HZ,67.1
2016/8/9 13:14,67.1,60.8,80.2,,,29.87,5,,OVC,,1000,,HZ,67.1
2016/8/9 13:34,67.1,60.8,80.2,70,4,29.87,5,,OVC,,1000,,HZ,67.1
2016/8/9 13:53,67.1,60.8,80.2,,,29.87,5,,OVC,,1000,,HZ,67.1
2016/8/9 14:00,66.2,60.8,82.74,,,29.88,3,,BKN,,1000,,HZ,66.2
2016/8/9 14:48,69.8,62.6,77.9,,,29.89,3,,BKN,,1200,,HZ,69.8
2016/8/9 15:50,69.8,59,68.55,,,29.9,3,,SCT,,1400,,HZ,69.8
2016/8/9 16:46,75.2,59,57.12,280,6,29.9,3,,CLR,,,,HZ,75.2
2016/8/9 17:47,78.8,64.4,61.36,280,6,29.89,3,,CLR,,,,HZ,80.56
2016/8/9 18:50,84.2,53.6,34.97,250,5,29.89,3,,CLR,,,,HZ,82.76
2016/8/9 19:48,86,46.4,25.26,260,4,29.88,4,,CLR,,,,HZ,83.22
2016/8/9 22:48,93.2,59,31.99,240,11,29.82,6,,CLR,,,,HZ,93.2
2016/8/9 23:50,93.2,46.4,20.13,230,11,29.81,7,,CLR,,,,,89.55
2016/8/10 0:49,91.4,48.2,22.78,240,12,29.81,7,,CLR,,,,,88.09
2016/8/10 1:50,86,50,28.9,240,11,29.82,7,,CLR,,,,,83.62
2016/8/10 2:48,80.6,55.4,41.97,240,9,29.83,7,,CLR,,,,,80.53
2016/8/10 3:47,77,55.4,47.25,240,6,29.86,7,,CLR,,,,,77
2016/8/10 4:14,75.74,55.58,49.6,250,6,29.87,10,,CLR,,,,,75.74
2016/8/10 4:34,75.2,55.4,50.17,250,6,29.88,10,,CLR,,,,,75.2
2016/8/10 4:54,74.48,55.4,51.39,250,3,29.89,10,,CLR,,,,,74.48
2016/8/10 5:14,73.4,55.58,53.64,250,5,29.89,10,,CLR,,,,,73.4
2016/8/10 5:34,72.86,55.94,55.34,250,5,29.9,10,,CLR,,,,,72.86
2016/8/10 5:54,72.14,56.3,57.45,250,5,29.9,10,,CLR,,,,,72.14
2016/8/10 6:14,71.6,56.66,59.28,240,4,29.9,10,,CLR,,,,,71.6
2016/8/10 6:34,71.06,57.02,61.16,250,4,29.9,10,,CLR,,,,,71.06
2016/8/10 6:54,70.34,57.2,63.09,260,4,29.91,10,,CLR,,,,,70.34
2016/8/10 7:14,70.16,57.92,65.14,250,5,29.91,10,,CLR,,,,,70.16
2016/8/10 7:34,69.08,57.56,66.72,250,3,29.9,10,,CLR,,,,,69.08
2016/8/10 7:54,68.36,58.1,69.73,260,4,29.9,10,,CLR,,,,,68.36
2016/8/10 8:14,68,57.92,70.15,260,4,29.9,10,,CLR,,,,,68
2016/8/10 8:34,67.64,58.1,71.48,260,4,29.91,10,,CLR,,,,,67.64
2016/8/10 8:54,67.46,58.28,72.4,250,3,29.91,10,,CLR,,,,,67.46
2016/8/10 9:14,67.1,58.64,74.25,240,3,29.91,10,,CLR,,,,,67.1
2016/8/10 9:34,66.56,58.64,75.65,260,3,29.9,10,,CLR,,,,,66.56
2016/8/10 9:54,66.56,59,76.64,,,29.9,10,,CLR,,,,,66.56
2016/8/10 10:14,66.2,58.64,76.6,240,3,29.89,10,,CLR,,,,,66.2
2016/8/10 10:34,65.66,59,79.07,,,29.89,10,,CLR,,,,,65.66
2016/8/10 10:54,65.48,59,79.56,,,29.89,10,,CLR,,,,,65.48
2016/8/10 11:14,65.3,55.76,71.24,160,3,29.89,10,,CLR,,,,,65.3
2016/8/10 11:34,65.3,55.76,71.24,,,29.89,10,,CLR,,,,,65.3
2016/8/10 11:54,61.7,53.78,75.21,90,3,29.89,10,,CLR,,,,,61.7
2016/8/10 12:14,63.14,53.6,71.02,,,29.9,10,,CLR,,,,,63.14
2016/8/10 12:34,63.14,53.78,71.49,,,29.91,10,,CLR,,,,,63.14
2016/8/10 12:54,62.96,53.96,72.42,,,29.91,10,,CLR,,,,,62.96
2016/8/10 13:14,62.78,53.78,72.4,90,3,29.92,10,,CLR,,,,,62.78
2016/8/10 13:34,60.08,52.34,75.56,,,29.92,10,,CLR,,,,,60.08
2016/8/10 13:54,63.14,54.32,72.91,,,29.93,10,,CLR,,,,,63.14
2016/8/10 14:00,62.6,59,88,,,29.92,5,,CLR,,,,HZ,62.6
2016/8/10 14:48,66.2,62.6,88.18,,,29.94,6,,CLR,,,,HZ,66.2
2016/8/10 16:46,75.2,59,57.12,,,29.96,6,,CLR,,,,HZ,75.2
2016/8/10 18:52,87.8,41,19.4,300,5,29.94,7,,CLR,,,,,84.3
2016/8/10 19:50,91.4,41,17.32,270,5,29.92,7,,CLR,,,,,87.4
2016/8/10 20:48,93.2,39.2,15.27,310,7,29.9,7,,CLR,,,,,88.92
2016/8/10 21:45,95,39.2,14.44,270,8,29.9,7,,CLR,,,,,90.57
2016/8/10 22:50,96.8,37.4,12.73,,,29.86,7,,CLR,,,,,92.04
2016/8/10 23:47,95,39.2,14.44,240,10,29.85,7,,CLR,,,,,90.57
2016/8/11 0:50,91.4,48.2,22.78,250,12,29.85,7,,CLR,,,,,88.09
2016/8/11 1:28,86,51.8,30.9,250,12,29.87,7,,CLR,,,,,83.87
2016/8/11 2:47,80.6,53.6,39.3,240,11,29.89,7,,CLR,,,,,80.6
2016/8/11 3:47,75.2,55.4,50.17,240,8,29.93,7,,CLR,,,,,75.2
2016/8/11 4:13,75.56,54.86,48.6,240,5,29.94,10,,CLR,,,,,75.56
2016/8/11 4:34,74.84,54.68,49.46,240,5,29.96,10,,CLR,,,,,74.84
2016/8/11 4:54,73.94,54.5,50.64,240,6,29.96,10,,CLR,,,,,73.94
2016/8/11 5:13,73.58,54.86,51.94,230,5,29.97,10,,CLR,,,,,73.58
2016/8/11 5:34,73.22,54.86,52.57,240,4,29.97,10,,CLR,,,,,73.22
2016/8/11 5:54,72.5,55.4,54.93,240,3,29.97,10,,CLR,,,,,72.5
2016/8/11 6:13,71.6,55.4,56.63,240,3,29.98,10,,CLR,,,,,71.6
2016/8/11 6:34,70.88,55.4,58.03,250,3,29.98,10,,CLR,,,,,70.88
2016/8/11 6:54,69.8,55.4,60.21,260,4,29.99,10,,CLR,,,,,69.8
2016/8/11 7:14,68.9,55.76,62.91,260,4,29.99,10,,CLR,,,,,68.9
2016/8/11 7:34,68.18,55.94,64.91,250,3,29.99,10,,CLR,,,,,68.18
2016/8/11 7:54,67.82,56.3,66.58,250,4,29.98,10,,CLR,,,,,67.82
2016/8/11 8:14,67.1,56.3,68.25,260,3,29.98,10,,CLR,,,,,67.1
2016/8/11 8:34,67.1,56.3,68.25,,,29.98,10,,CLR,,,,,67.1
2016/8/11 8:54,67.1,56.84,69.6,,,29.98,10,,CLR,,,,,67.1
2016/8/11 9:14,66.38,56.66,70.89,260,3,29.98,10,,CLR,,,,,66.38
2016/8/11 9:34,66.02,56.66,71.78,,,29.98,10,,CLR,,,,,66.02
2016/8/11 9:54,65.66,53.78,65.46,,,29.99,10,,CLR,,,,,65.66
2016/8/11 10:14,65.12,50.54,59.2,,,29.99,10,,CLR,,,,,65.12
2016/8/11 10:34,64.04,48.2,56.33,190,3,29.99,10,,CLR,,,,,64.04
2016/8/11 10:54,64.04,49.1,58.26,180,3,29.99,10,,CLR,,,,,64.04
2016/8/11 11:13,64.04,49.28,58.66,170,3,29.98,10,,CLR,,,,,64.04
2016/8/11 11:34,63.5,49.28,59.78,150,3,29.98,10,,CLR,,,,,63.5
2016/8/11 11:54,63.14,50,62.18,,,29.98,10,,CLR,,,,,63.14
2016/8/11 12:13,61.16,48.56,63.2,,,29.99,10,,CLR,,,,,61.16
2016/8/11 12:34,60.44,49.1,66.15,,,30,10,,CLR,,,,,60.44
2016/8/11 12:54,60.44,48.92,65.71,,,30,10,,CLR,,,,,60.44
2016/8/11 13:14,60.26,48.74,65.69,,,30,10,,CLR,,,,,60.26
2016/8/11 13:34,61.7,49.82,64.98,,,30.01,10,,CLR,,,,,61.7
2016/8/11 14:00,57.2,44.6,62.69,,,30.01,6,,CLR,,,,HZ,57.2
2016/8/11 15:45,69.8,53.6,56.38,,,30.02,7,,CLR,,,,,69.8
2016/8/11 16:46,75.2,53.6,46.98,280,6,30.03,7,,CLR,,,,,75.2
2016/8/11 17:47,80.6,55.4,41.97,,,30.03,7,,CLR,,,,,80.53
2016/8/11 18:48,84.2,53.6,34.97,270,4,30.02,7,,CLR,,,,,82.76
2016/8/11 19:49,89.6,50,25.79,270,7,30.01,7,,CLR,,,,,86.7
2016/8/11 20:48,93.2,41,16.37,220,8,29.99,7,,CLR,,,,,89.03
2016/8/11 21:48,93.2,41,16.37,250,8,29.97,7,,CLR,,,,,89.03
2016/8/11 22:47,93.2,41,16.37,280,6,29.96,7,,CLR,,,,,89.03
2016/8/11 23:47,95,48.2,20.38,250,9,29.94,7,,CLR,,,,,91.56
2016/8/12 0:50,89.6,53.6,29.45,250,14,29.94,7,,CLR,,,,,87.36
2016/8/12 1:50,86,53.6,33.01,240,12,29.94,7,,CLR,,,,,84.18
2016/8/12 2:50,80.6,55.4,41.97,240,8,29.96,7,,CLR,,,,,80.53
2016/8/12 3:48,77,57.2,50.43,250,8,29.99,7,,CLR,,,,,77
2016/8/12 4:14,76.46,56.66,50.35,270,7,30.01,10,,CLR,,,,,76.46
2016/8/12 4:34,75.74,57.02,52.25,270,6,30.01,10,,CLR,,,,,75.74
2016/8/12 4:54,75.2,57.2,53.55,250,6,30.02,10,,CLR,,,,,75.2
2016/8/12 5:14,74.3,57.38,55.54,250,7,30.03,10,,CLR,,,,,74.3
2016/8/12 5:34,73.58,57.74,57.64,250,7,30.03,10,,CLR,,,,,73.58
2016/8/12 5:54,72.86,57.92,59.44,250,5,30.03,10,,CLR,,,,,72.86
2016/8/12 6:14,72.5,58.1,60.56,250,5,30.03,10,,CLR,,,,,72.5
2016/8/12 6:34,71.96,58.1,61.67,250,5,30.04,10,,CLR,,,,,71.96
2016/8/12 6:54,71.24,58.1,63.2,250,5,30.04,10,,CLR,,,,,71.24
2016/8/12 7:14,71.06,58.46,64.41,250,4,30.04,10,,CLR,,,,,71.06
2016/8/12 7:34,70.7,58.46,65.21,260,5,30.04,10,,CLR,,,,,70.7
2016/8/12 7:54,70.16,58.64,66.85,260,5,30.04,10,,CLR,,,,,70.16
2016/8/12 8:14,69.8,58.64,67.67,250,3,30.03,10,,CLR,,,,,69.8
2016/8/12 8:34,69.62,58.82,68.53,260,5,30.03,10,,CLR,,,,,69.62
2016/8/12 8:54,68.9,58.64,69.79,260,3,30.03,10,,CLR,,,,,68.9
2016/8/12 9:14,68.54,58.64,70.66,,,30.03,10,,CLR,,,,,68.54
2016/8/12 9:34,68.36,58.82,71.56,260,3,30.03,10,,CLR,,,,,68.36
2016/8/12 9:54,68,58.82,72.45,260,3,30.03,10,,CLR,,,,,68
2016/8/12 10:14,68,59,72.92,,,30.02,10,,CLR,,,,,68
2016/8/12 10:34,67.46,58.82,73.81,260,3,30.02,10,,CLR,,,,,67.46
2016/8/12 10:54,67.1,59,75.22,260,3,30.02,10,,CLR,,,,,67.1
2016/8/12 11:14,67.28,59,74.75,,,30.02,10,,CLR,,,,,67.28
2016/8/12 11:34,67.28,59.18,75.23,,,30.01,10,,CLR,,,,,67.28
2016/8/12 11:54,67.1,59.18,75.7,,,30.01,10,,CLR,,,,,67.1
2016/8/12 12:13,67.64,59.36,74.78,,,30.01,10,,CLR,,,,,67.64
2016/8/12 12:34,67.64,59.36,74.78,,,30.01,10,,CLR,,,,,67.64
2016/8/12 12:54,67.46,59.36,75.25,,,30.02,10,,CLR,,,,,67.46
2016/8/12 13:13,67.46,59.36,75.25,,,30.02,10,,CLR,,,,,67.46
2016/8/12 13:34,66.92,59,75.69,270,3,30.03,10,,CLR,,,,,66.92
2016/8/12 13:54,67.64,59.36,74.78,260,4,30.04,10,,CLR,,,,,67.64
2016/8/12 14:00,66.2,57.2,72.74,250,5,30.04,5,,CLR,,,,HZ,66.2
2016/8/12 14:49,69.8,62.6,77.9,250,6,30.05,5,,CLR,,,,HZ,69.8
2016/8/12 15:45,69.8,62.6,77.9,,,30.05,6,,CLR,,,,HZ,69.8
2016/8/12 16:46,77,59,53.8,250,8,30.05,6,,CLR,,,,HZ,77
2016/8/12 17:47,82.4,57.2,42.25,270,5,30.05,5,,CLR,,,,HZ,82.08
2016/8/12 18:48,84.2,57.2,39.86,,,30.03,6,,FEW,,10000,,HZ,84.2
2016/8/12 19:50,89.6,53.6,29.45,230,5,30,5,,CLR,,,,HZ,87.36
2016/8/12 20:46,93.2,53.6,26.31,260,7,29.98,5,,FEW,,6000,,HZ,90.86
2016/8/12 21:49,95,51.8,23.3,220,7,29.95,5,,FEW,,6000,,HZ,92.26
2016/8/12 22:50,96.8,53.6,23.55,250,10,29.93,7,,FEW,,6000,,,94.59
2016/8/12 23:49,95,53.6,24.89,240,10,29.91,7,,FEW,,6000,,,92.71
2016/8/13 0:47,93.2,55.4,28.1,260,9,29.9,7,,FEW,,6000,,,91.35
2016/8/13 1:52,89.6,55.4,31.45,230,10,29.91,7,,FEW,,6000,,,87.78
2016/8/13 2:48,84.2,53.6,34.97,230,9,29.93,7,,FEW,,6000,,,82.76
2016/8/13 3:49,82.4,55.4,39.58,230,6,29.96,7,,CLR,,,,,82.4
2016/8/13 4:14,80.6,55.22,41.7,250,6,29.97,10,,CLR,,,,,80.51
2016/8/13 4:34,79.88,54.86,42.14,250,7,29.98,10,,CLR,,,,,79.88
2016/8/13 4:53,78.98,54.5,42.83,250,4,29.99,10,,CLR,,,,,78.98
2016/8/13 5:14,78.44,53.6,42.19,260,5,29.99,10,,CLR,,,,,78.44
2016/8/13 5:34,77.72,53.6,43.21,240,6,29.98,10,,CLR,,,,,77.72
2016/8/13 5:53,76.82,53.24,43.93,250,5,29.98,10,,CLR,,,,,76.82
2016/8/13 6:14,76.28,53.78,45.62,250,5,29.98,10,,CLR,,,,,76.28
2016/8/13 6:34,76.1,54.5,47.12,240,3,29.99,10,,CLR,,,,,76.1
2016/8/13 6:54,75.92,54.86,48.03,240,3,29.99,10,,CLR,,,,,75.92
2016/8/13 7:14,75.2,55.4,50.17,,,29.99,10,,CLR,,,,,75.2
2016/8/13 7:33,75.38,55.76,50.52,,,29.99,10,,CLR,,,,,75.38
2016/8/13 7:54,74.84,55.58,51.11,270,3,29.98,10,,CLR,,,,,74.84
2016/8/13 8:14,74.48,55.94,52.41,,,29.97,10,,CLR,,,,,74.48
2016/8/13 8:33,74.3,56.3,53.42,270,3,29.97,10,,CLR,,,,,74.3
2016/8/13 8:54,72.86,55.76,54.98,250,3,29.96,10,,CLR,,,,,72.86
2016/8/13 9:14,73.4,56.66,55.78,240,3,29.96,10,,CLR,,,,,73.4
2016/8/13 9:34,72.5,57.02,58.25,,,29.96,10,,CLR,,,,,72.5
2016/8/13 9:53,72.5,57.56,59.39,,,29.96,10,,CLR,,,,,72.5
2016/8/13 10:14,71.78,58.1,62.05,,,29.96,10,,CLR,,,,,71.78
2016/8/13 10:34,71.78,58.28,62.45,,,29.96,10,,CLR,,,,,71.78
2016/8/13 10:54,71.6,58.28,62.84,,,29.96,10,,CLR,,,,,71.6
2016/8/13 11:14,70.7,58.1,64.37,,,29.95,10,,CLR,,,,,70.7
2016/8/13 11:34,70.7,58.46,65.21,,,29.96,10,,CLR,,,,,70.7
2016/8/13 11:54,70.88,58.64,65.23,,,29.95,10,,CLR,,,,,70.88
2016/8/13 12:14,70.7,57.38,62.72,,,29.95,10,,CLR,,,,,70.7
2016/8/13 12:34,69.8,57.2,64.26,,,29.95,10,,CLR,,,,,69.8
2016/8/13 12:54,69.8,56.12,61.8,,,29.95,10,,CLR,,,,,69.8
2016/8/13 13:14,69.44,55.94,62.16,,,29.96,10,,CLR,,,,,69.44
2016/8/13 13:34,68.9,55.4,62.09,,,29.96,10,,CLR,,,,,68.9
2016/8/13 13:54,69.8,55.4,60.21,,,29.97,10,,CLR,,,,,69.8
2016/8/13 14:00,69.8,57.2,64.26,,,29.97,7,,CLR,,,,,69.8
2016/8/13 14:45,73.4,55.4,53.29,,,29.97,7,,CLR,,,,,73.4
2016/8/13 15:45,78.8,57.2,47.52,,,29.98,7,,CLR,,,,,78.8
2016/8/13 16:46,82.4,55.4,39.58,,,29.97,7,,CLR,,,,,82.4
2016/8/13 17:47,87.8,55.4,33.29,280,6,29.96,7,,CLR,,,,,86.11
2016/8/13 18:46,93.2,51.8,24.63,230,5,29.95,7,,FEW,,6000,,,90.45
2016/8/13 19:54,95,53.6,24.89,270,7,29.92,7,,FEW,,6000,,,92.71
2016/8/13 21:48,100.4,46.4,16.15,280,5,29.88,7,,FEW,,10000,,,96.63
2016/8/13 22:48,93.2,41,16.37,240,14,29.86,7,,FEW,,10000,,,89.03
2016/8/13 23:50,102.2,48.2,16.37,270,8,29.85,7,,FEW,,6000,,,98.83
2016/8/14 0:50,98.6,53.6,22.29,240,8,29.84,7,,FEW,,6000,,,96.51
2016/8/14 1:51,95,53.6,24.89,240,8,29.84,7,,CLR,,,,,92.71
2016/8/14 2:49,89.6,53.6,29.45,230,8,29.86,7,,CLR,,,,,87.36
2016/8/14 3:48,86,53.6,33.01,240,6,29.98,7,,CLR,,,,,84.18
2016/8/14 4:14,85.1,53.06,33.31,270,4,29.89,10,,CLR,,,,,83.36
2016/8/14 4:34,84.38,53.6,34.77,270,5,29.89,10,,CLR,,,,,82.89
2016/8/14 4:53,83.48,53.06,35.09,250,4,29.9,10,,CLR,,,,,82.13
2016/8/14 5:14,82.94,52.16,34.55,250,6,29.91,10,,CLR,,,,,81.62
2016/8/14 5:34,82.22,51.44,34.44,240,5,29.91,10,,CLR,,,,,81.04
2016/8/14 5:53,81.14,50.9,34.96,260,4,29.91,10,,CLR,,,,,81.14
2016/8/14 6:14,80.24,50.54,35.53,250,5,29.91,10,,CLR,,,,,80.24
2016/8/14 6:33,79.7,50.36,35.92,260,4,29.91,10,,CLR,,,,,79.7
2016/8/14 6:54,79.16,50.9,37.3,280,4,29.91,10,,CLR,,,,,79.16
2016/8/14 7:14,79.16,51.8,38.57,280,3,29.91,10,,CLR,,,,,79.16
2016/8/14 7:34,78.62,52.7,40.58,260,4,29.91,10,,CLR,,,,,78.62
2016/8/14 7:54,77.72,53.06,42.36,270,3,29.91,10,,CLR,,,,,77.72
2016/8/14 8:14,76.82,53.42,44.22,250,4,29.9,10,,CLR,,,,,76.82
2016/8/14 8:34,76.28,53.78,45.62,250,4,29.9,10,,CLR,,,,,76.28
2016/8/14 8:54,77,54.5,45.73,,,29.89,10,,CLR,,,,,77
2016/8/14 9:14,76.64,54.5,46.28,,,29.89,10,,CLR,,,,,76.64
2016/8/14 9:34,76.82,53.96,45.1,,,29.89,10,,CLR,,,,,76.82
2016/8/14 9:54,76.1,54.14,46.5,,,29.89,10,,CLR,,,,,76.1
2016/8/14 10:14,76.1,53.6,45.59,,,29.89,10,,CLR,,,,,76.1
2016/8/14 10:33,74.48,53.96,48.76,,,29.89,10,,CLR,,,,,74.48
2016/8/14 10:54,73.94,55.04,51.65,,,29.89,10,,CLR,,,,,73.94
2016/8/14 11:14,74.3,53.06,47.47,,,29.89,10,,CLR,,,,,74.3
2016/8/14 11:33,73.58,53.06,48.63,,,29.89,10,,CLR,,,,,73.58
2016/8/14 11:54,73.4,53.06,48.92,,,29.89,10,,CLR,,,,,73.4
2016/8/14 12:14,73.4,54.14,50.9,,,29.89,10,,CLR,,,,,73.4
2016/8/14 12:33,71.24,54.32,55.12,,,29.9,10,,CLR,,,,,71.24
2016/8/14 12:54,72.14,55.22,55.24,,,29.91,10,,CLR,,,,,72.14
2016/8/14 13:14,72.32,55.22,54.91,,,29.91,10,,CLR,,,,,72.32
2016/8/14 13:33,71.6,54.86,55.53,,,29.92,10,,CLR,,,,,71.6
2016/8/14 13:54,72.68,55.22,54.24,,,29.92,10,,CLR,,,,,72.68
2016/8/14 14:47,57.2,53.6,87.74,,,29.93,7,,CLR,,,,,57.2
2016/8/14 15:47,80.6,53.6,39.3,,,29.94,7,,CLR,,,,,80.6
2016/8/14 16:49,86,53.6,33.01,,,29.93,7,,CLR,,,,,84.18
2016/8/14 17:47,93.2,51.8,24.63,,,29.92,10,,FEW,,6000,,,90.45
2016/8/14 18:47,95,50,21.79,300,3,29.91,10,,FEW,,6000,,,91.89
2016/8/14 19:50,100.4,51.8,19.76,290,5,29.89,10,,FEW,,6000,,,97.9
2016/8/14 20:49,102.2,50,17.51,250,5,29.88,10,,FEW,,6000,,,99.28
2016/8/14 21:50,104,48.2,15.52,270,9,29.85,10,,FEW,,9000,,,100.65
2016/8/14 22:48,104,48.2,15.52,270,9,29.84,10,,FEW,,6000,,,100.65
2016/8/14 23:49,102.2,55.4,21.36,250,11,29.84,10,,CLR,,,,,101.04
2016/8/15 2:50,91.4,57.2,31.72,220,4,29.86,10,,CLR,,,,,90.06
2016/8/15 3:48,87.8,55.4,33.29,250,4,29.87,10,,CLR,,,,,86.11
2016/8/15 4:14,87.44,53.96,31.95,250,4,29.89,10,,CLR,,,,,85.48
2016/8/15 4:33,86.54,52.7,31.39,250,5,29.89,10,,CLR,,,,,84.47
2016/8/15 4:54,85.46,52.88,32.71,260,5,29.89,10,,CLR,,,,,83.62
2016/8/15 5:14,84.38,53.24,34.32,270,4,29.9,10,,CLR,,,,,82.83
2016/8/15 5:33,84.74,53.42,34.15,270,3,29.9,10,,CLR,,,,,83.14
2016/8/15 5:54,84.38,53.6,34.77,,,29.9,10,,CLR,,,,,82.89
2016/8/15 6:14,84.38,53.78,35,,,29.9,10,,CLR,,,,,82.92
2016/8/15 6:33,84.02,53.78,35.41,,,29.91,10,,CLR,,,,,82.65
2016/8/15 6:54,84.02,53.6,35.18,,,29.91,10,,CLR,,,,,82.62
2016/8/15 7:14,83.66,53.6,35.59,,,29.91,10,,CLR,,,,,82.35
2016/8/15 7:33,82.58,53.78,37.1,,,29.91,10,,CLR,,,,,82.58
2016/8/15 7:54,80.42,54.86,41.4,,,29.91,10,,CLR,,,,,80.35
2016/8/15 8:14,79.88,54.86,42.14,,,29.91,10,,CLR,,,,,79.88
2016/8/15 8:34,80.24,55.4,42.47,,,29.91,10,,CLR,,,,,80.31
2016/8/15 8:54,79.16,55.76,44.58,,,29.9,10,,CLR,,,,,79.16
2016/8/15 9:14,78.98,56.3,45.73,90,3,29.9,10,,CLR,,,,,78.98
2016/8/15 9:34,79.34,56.3,45.19,,,29.9,10,,CLR,,,,,79.34
2016/8/15 9:54,77.54,56.84,48.9,,,29.9,10,,CLR,,,,,77.54
2016/8/15 10:14,77,55.94,48.19,,,29.9,10,,CLR,,,,,77
2016/8/15 10:34,77.18,56.12,48.21,,,29.89,10,,CLR,,,,,77.18
2016/8/15 10:54,75.38,56.3,51.52,,,29.89,10,,CLR,,,,,75.38
2016/8/15 11:14,76.1,55.76,49.33,,,29.9,10,,CLR,,,,,76.1
2016/8/15 11:34,75.38,53.78,47.01,,,29.9,10,,CLR,,,,,75.38
2016/8/15 11:54,75.56,53.42,46.11,,,29.9,10,,CLR,,,,,75.56
2016/8/15 12:14,75.56,53.06,45.51,,,29.9,10,,CLR,,,,,75.56
2016/8/15 12:34,75.56,54.5,47.97,,,29.9,10,,CLR,,,,,75.56
2016/8/15 12:53,74.66,54.14,48.79,,,29.91,10,,CLR,,,,,74.66
2016/8/15 13:14,73.58,52.34,47.36,,,29.92,10,,CLR,,,,,73.58
2016/8/15 13:34,73.94,51.44,45.26,,,29.92,10,,CLR,,,,,73.94
2016/8/15 13:53,74.66,50,41.88,,,29.93,10,,CLR,,,,,74.66
2016/8/15 14:00,75.2,57.2,53.55,,,29.93,7,,CLR,,,,,75.2
2016/8/15 14:55,80.6,50,34.41,,,29.94,7,,CLR,,,,,80.6
2016/8/15 15:45,84.2,50,30.62,,,29.94,7,,CLR,,,,,82.24
2016/8/15 16:46,91.4,44.6,19.89,,,29.94,7,,CLR,,,,,87.68
2016/8/15 17:50,96.8,44.6,16.83,230,3,29.94,10,,CLR,,,,,92.79
2016/8/15 18:50,100.4,41,13.14,,,29.92,10,,CLR,,,,,95.79
2016/8/15 19:50,102.2,39.2,11.6,,,29.91,10,,CLR,,,,,96.99
2016/8/15 20:50,104,33.8,8.88,270,5,29.88,10,,CLR,,,,,97.55
2016/8/15 21:50,107.6,33.8,7.99,220,8,29.87,10,,CLR,,,,,100.66
2016/8/15 22:50,107.6,35.6,8.58,220,9,29.85,10,,CLR,,,,,100.98
2016/8/15 23:50,105.8,39.2,10.43,250,11,29.84,10,,CLR,,,,,100.14
2016/8/16 0:50,104,39.2,11,240,11,29.83,10,,CLR,,,,,98.56
2016/8/16 1:50,100.4,46.4,16.15,270,8,29.84,10,,CLR,,,,,96.63
2016/8/16 2:50,91.4,35.6,14.02,260,7,29.87,10,,CLR,,,,,87.17
2016/8/16 3:50,87.8,33.8,14.61,,,29.89,7,,CLR,,,,,84.1
2016/8/16 4:14,88.16,36.14,15.86,260,4,29.9,10,,CLR,,,,,84.43
2016/8/16 4:34,86.54,36.68,17.05,250,5,29.9,10,,CLR,,,,,83.13
2016/8/16 4:54,86.9,37.22,17.22,,,29.91,10,,CLR,,,,,83.43
2016/8/16 5:14,86.18,35.96,16.77,,,29.91,10,,CLR,,,,,82.84
2016/8/16 5:34,84.92,35.96,17.46,320,3,29.9,10,,CLR,,,,,81.87
2016/8/16 5:54,83.84,35.24,17.57,,,29.9,10,,CLR,,,,,81.07
2016/8/16 6:14,82.76,38.12,20.38,,,29.9,10,,CLR,,,,,80.4
2016/8/16 6:34,79.16,38.48,23.24,,,29.9,10,,CLR,,,,,77.87
2016/8/16 6:54,79.52,40.1,24.47,,,29.89,10,,CLR,,,,,78.32
2016/8/16 7:14,77.36,42.08,28.37,,,29.89,10,,CLR,,,,,76.13
2016/8/16 7:34,76.28,41.18,28.4,70,3,29.89,10,,CLR,,,,,74.94
2016/8/16 7:54,77.9,41.36,27.1,,,29.89,10,,CLR,,,,,76.66
2016/8/16 8:14,74.3,41,30.13,,,29.89,10,,CLR,,,,,72.85
2016/8/16 8:34,74.66,40.46,29.15,,,29.89,10,,CLR,,,,,73.2
2016/8/16 8:54,73.76,40.64,30.25,,,29.89,10,,CLR,,,,,72.26
2016/8/16 9:14,73.22,41,31.24,,,29.89,10,,CLR,,,,,71.71
2016/8/16 9:34,71.78,39.74,31.23,,,29.89,10,,CLR,,,,,70.13
2016/8/16 9:54,72.68,40.28,30.94,,,29.89,10,,CLR,,,,,71.1
2016/8/16 10:14,71.42,39.92,31.84,,,29.89,10,,CLR,,,,,69.76
2016/8/16 10:34,69.44,36.86,30.22,,,29.89,10,,CLR,,,,,69.44
2016/8/16 10:54,70.16,34.7,27.06,50,3,29.88,10,,CLR,,,,,68.15
2016/8/16 11:14,69.26,33.98,27.12,70,4,29.88,10,,CLR,,,,,69.26
2016/8/16 11:34,70.52,32.18,24.17,,,29.88,10,,CLR,,,,,68.41
2016/8/16 11:54,66.92,32,27.15,,,29.88,10,,CLR,,,,,66.92
2016/8/16 12:14,69.44,28.94,21.98,80,3,29.88,10,,CLR,,,,,69.44
2016/8/16 12:34,68.36,30.2,24.02,,,29.89,10,,CLR,,,,,68.36
2016/8/16 12:54,67.64,31.64,26.1,,,29.89,10,,CLR,,,,,67.64
2016/8/16 13:14,67.28,32,26.81,,,29.9,10,,CLR,,,,,67.28
2016/8/16 13:34,67.46,30.74,25.32,,,29.91,10,,CLR,,,,,67.46
2016/8/16 14:00,68,32,26.15,,,29.91,7,,CLR,,,,,68
2016/8/16 15:45,82.4,32,16.17,,,29.93,7,,CLR,,,,,80
2016/8/16 16:46,87.8,39.2,18.09,,,29.93,7,,CLR,,,,,84.22
2016/8/16 17:47,96.8,26.6,8.24,,,29.92,10,,CLR,,,,,90.57
2016/8/16 18:46,100.4,23,6.36,,,29.9,7,,CLR,,,,,93.25
2016/8/16 19:45,102.2,41,12.44,270,6,29.88,7,,CLR,,,,,97.39
2016/8/16 20:50,104,17.6,4.53,230,5,29.87,7,,CLR,,,,,95.83
2016/8/16 21:50,104,24.8,6.15,210,7,29.84,7,,CLR,,,,,96.42
2016/8/16 22:46,104,26.6,6.63,190,7,29.83,7,,CLR,,,,,96.6
2016/8/16 23:50,104,21.2,5.29,240,9,29.82,7,,CLR,,,,,96.09
2016/8/17 0:50,102.2,37.4,10.81,220,7,29.82,7,,CLR,,,,,96.63
2016/8/17 1:50,98.6,39.2,12.94,230,8,29.82,7,,CLR,,,,,93.89
2016/8/17 2:50,91.4,39.2,16.15,240,7,29.84,7,,CLR,,,,,87.3
2016/8/17 3:50,87.8,42.8,20.79,,,29.87,7,,CLR,,,,,84.4
2016/8/17 4:14,87.26,42.44,20.86,260,3,29.88,10,,CLR,,,,,83.93
2016/8/17 4:34,86.18,43.7,22.66,240,3,29.88,10,,CLR,,,,,83.15
2016/8/17 4:54,84.38,45.14,25.36,250,4,29.88,10,,CLR,,,,,81.9
2016/8/17 5:14,82.4,45.86,27.78,260,4,29.88,10,,CLR,,,,,80.6
2016/8/17 5:34,80.96,47.3,30.74,260,4,29.89,10,,CLR,,,,,79.84
2016/8/17 5:54,80.24,47.84,32.12,240,4,29.89,10,,CLR,,,,,80.24
2016/8/17 6:14,78.8,47.66,33.45,240,3,29.89,10,,CLR,,,,,78.8
2016/8/17 6:34,79.34,47.48,32.64,260,3,29.9,10,,CLR,,,,,79.34
2016/8/17 6:54,78.26,46.58,32.69,280,3,29.9,10,,CLR,,,,,78.26
2016/8/17 7:14,77.54,46.58,33.48,,,29.9,10,,CLR,,,,,77.54
2016/8/17 7:34,77.72,46.4,33.05,270,3,29.9,10,,CLR,,,,,77.72
2016/8/17 7:54,76.64,44.06,31.34,,,29.9,10,,CLR,,,,,75.48
2016/8/17 8:14,75.02,42.26,30.88,,,29.89,10,,CLR,,,,,73.67
2016/8/17 8:34,72.5,43.88,35.76,,,29.89,10,,CLR,,,,,71.13
2016/8/17 8:54,71.6,42.26,34.65,90,3,29.89,10,,CLR,,,,,70.09
2016/8/17 9:14,71.24,43.52,36.81,,,29.88,10,,CLR,,,,,69.79
2016/8/17 9:34,69.62,44.96,41.1,,,29.88,10,,CLR,,,,,69.62
2016/8/17 9:54,69.8,45.32,41.41,,,29.88,10,,CLR,,,,,69.8
2016/8/17 10:14,70.88,45.5,40.18,,,29.88,10,,CLR,,,,,69.56
2016/8/17 10:34,68.72,42.62,38.75,,,29.88,10,,CLR,,,,,68.72
2016/8/17 10:54,68,41.18,37.58,60,3,29.88,10,,CLR,,,,,68
2016/8/17 11:14,69.08,39.92,34.48,90,3,29.88,10,,CLR,,,,,69.08
2016/8/17 11:34,69.08,42.62,38.28,,,29.88,10,,CLR,,,,,69.08
2016/8/17 11:54,69.98,41.18,35.11,,,29.88,10,,CLR,,,,,69.98
2016/8/17 12:14,68.72,42.8,39.02,,,29.88,10,,CLR,,,,,68.72
2016/8/17 12:34,68,41.9,38.64,,,29.88,10,,CLR,,,,,68
2016/8/17 12:54,66.2,39.2,37.03,70,3,29.88,10,,CLR,,,,,66.2
2016/8/17 13:14,65.48,38.66,37.18,,,29.89,10,,CLR,,,,,65.48
2016/8/17 13:34,67.46,37.58,33.27,80,3,29.89,10,,CLR,,,,,67.46
2016/8/17 13:54,66.2,35.42,31.91,90,3,29.89,10,,CLR,,,,,66.2
2016/8/17 14:00,66.2,35.6,32.14,,,29.9,7,,CLR,,,,,66.2
2016/8/17 14:45,73.4,41,31.05,,,29.91,7,,CLR,,,,,71.9
2016/8/17 15:45,80.6,37.4,21.25,,,29.9,7,,CLR,,,,,79.02
2016/8/17 17:50,95,30.2,10.09,,,29.88,7,,CLR,,,,,89.48
2016/8/17 18:50,100.4,28.4,7.95,240,5,29.88,7,,CLR,,,,,93.77
2016/8/17 19:50,104,24.8,6.15,260,6,29.85,7,,CLR,,,,,96.42
2016/8/17 20:50,105.8,28.4,6.77,270,23.33,29.84,7,,CLR,,,,,98.33
2016/8/17 21:50,105.8,26.6,6.29,270,12,29.83,7,,CLR,,,,,98.12
2016/8/17 22:50,104,28.4,7.14,250,13,29.82,7,,CLR,,,,,96.81
2016/8/17 23:47,102.2,28.4,7.53,260,10,29.81,7,,CLR,,,,,95.28
2016/8/18 1:50,95,24.8,8.08,240,10,29.81,7,,CLR,,,,,88.91
2016/8/18 2:50,91.4,24.8,9.04,240,5,29.83,7,,CLR,,,,,86.21
2016/8/18 3:47,89.6,28.4,11.09,230,4,29.85,7,,CLR,,,,,85.17
2016/8/18 4:14,87.08,33.8,14.95,240,5,29.86,10,,CLR,,,,,83.51
2016/8/18 4:34,86.18,37.22,17.62,,,29.87,10,,CLR,,,,,82.86
2016/8/18 4:54,86.18,41.18,20.57,,,29.87,10,,CLR,,,,,83.01
2016/8/18 5:14,84.56,45.14,25.21,260,3,29.87,10,,CLR,,,,,82.03
2016/8/18 5:34,82.4,45.32,27.22,,,29.87,10,,CLR,,,,,80.56
2016/8/18 5:54,83.3,38.48,20.31,,,29.87,10,,CLR,,,,,80.78
2016/8/18 6:14,80.06,33.08,18.22,,,29.87,10,,CLR,,,,,78.62
2016/8/18 6:34,79.7,32,17.65,,,29.87,10,,CLR,,,,,78.2
2016/8/18 6:54,79.16,32,17.97,,,29.88,10,,CLR,,,,,77.62
2016/8/18 7:14,76.82,30.2,18.05,,,29.88,10,,CLR,,,,,75.05
2016/8/18 7:34,77.72,31.46,18.44,,,29.88,10,,CLR,,,,,76.06
2016/8/18 7:54,76.64,32.54,19.96,,,29.88,10,,CLR,,,,,74.94
2016/8/18 8:14,76.82,32,19.41,,,29.89,10,,CLR,,,,,75.11
2016/8/18 8:34,75.56,32,20.24,,,29.88,10,,CLR,,,,,73.77
2016/8/18 8:54,74.48,32.54,21.45,,,29.88,10,,CLR,,,,,72.64
2016/8/18 9:14,75.02,33.26,21.68,,,29.88,10,,CLR,,,,,73.24
2016/8/18 9:34,73.94,31.82,21.22,,,29.88,10,,CLR,,,,,72.03
2016/8/18 9:54,72.86,32,22.16,,,29.88,10,,CLR,,,,,70.89
2016/8/18 10:14,72.86,29.66,20.16,,,29.88,10,,CLR,,,,,70.79
2016/8/18 10:34,74.12,32,21.24,,,29.89,10,,CLR,,,,,72.23
2016/8/18 10:54,72.86,34.34,24.34,,,29.89,10,,CLR,,,,,70.99
2016/8/18 11:14,70.88,32.72,24.4,,,29.89,10,,CLR,,,,,68.81
2016/8/18 11:34,71.96,34.7,25.46,,,29.89,10,,CLR,,,,,70.05
2016/8/18 11:54,70.16,34.88,27.26,,,29.89,10,,CLR,,,,,68.16
2016/8/18 12:14,69.62,33.44,26.21,,,29.89,10,,CLR,,,,,69.62
2016/8/18 12:34,69.26,33.8,26.92,,,29.89,10,,CLR,,,,,69.26
2016/8/18 12:54,68.18,34.88,29.17,,,29.9,10,,CLR,,,,,68.18
2016/8/18 13:14,67.28,35.78,31.18,,,29.9,10,,CLR,,,,,67.28
2016/8/18 13:34,65.48,34.7,31.8,50,3,29.91,10,,CLR,,,,,65.48
2016/8/18 13:54,68.72,35.24,29.05,,,29.91,10,,CLR,,,,,68.72
2016/8/18 14:50,73.4,35.6,25.13,,,29.92,7,,FEW,,12000,,,71.62
2016/8/18 15:50,80.6,39.2,22.81,,,29.92,7,,FEW,,12000,,,79.1
2016/8/18 16:50,86,35.6,16.63,,,29.92,7,,FEW,,12000,,,82.69
2016/8/18 17:50,93.2,32,11.48,260,3,29.91,7,,FEW,,12000,,,88.31
2016/8/18 18:50,98.6,28.4,8.4,230,5,29.9,7,,FEW,,12000,,,92.25
2016/8/18 19:50,102.2,28.4,7.53,210,5,29.88,7,,FEW,,12000,,,95.28
2016/8/18 20:50,104,30.2,7.68,290,8,29.86,7,,FEW,,12000,,,97.03
2016/8/18 21:50,104,32,8.27,220,5,29.82,7,,SCT,,12000,,,97.28
2016/8/18 22:50,104,35.6,9.54,250,12,29.81,7,,SCT,,12000,,,97.85
2016/8/18 23:47,102.2,39.2,11.6,250,14,29.8,7,,FEW,,12000,,,96.99
2016/8/19 0:50,98.6,37.4,12.05,260,12,29.81,7,,FEW,,12000,,,93.54
2016/8/19 1:50,93.2,32,11.48,250,10,29.82,7,,CLR,,,,,88.31
2016/8/19 2:47,89.6,32,12.84,230,6,29.85,7,,CLR,,,,,85.54
2016/8/19 3:50,84.2,32,15.25,230,5,29.89,7,,CLR,,,,,81.28
2016/8/19 4:14,83.3,37.04,19.19,270,3,29.89,10,,CLR,,,,,80.73
2016/8/19 4:34,81.5,43.52,26.17,260,4,29.9,10,,CLR,,,,,79.87
2016/8/19 4:54,80.6,44.6,28.08,260,4,29.91,10,,CLR,,,,,79.42
2016/8/19 5:14,80.6,46.76,30.48,240,5,29.91,10,,CLR,,,,,79.59
2016/8/19 5:34,79.7,49.1,34.27,240,6,29.91,10,,CLR,,,,,79.7
2016/8/19 5:54,78.26,50,37.16,260,5,29.91,10,,CLR,,,,,78.26
2016/8/19 6:14,76.64,50.9,40.54,260,5,29.91,10,,CLR,,,,,76.64
2016/8/19 6:34,76.28,51.8,42.42,270,5,29.91,10,,CLR,,,,,76.28
2016/8/19 6:54,75.74,53.06,45.24,,,29.92,10,,CLR,,,,,75.74
2016/8/19 7:14,74.3,53.06,47.47,240,6,29.91,10,,CLR,,,,,74.3
2016/8/19 7:34,74.48,53.96,48.76,260,4,29.92,10,,CLR,,,,,74.48
2016/8/19 7:54,73.58,55.04,52.28,260,4,29.92,10,,CLR,,,,,73.58
2016/8/19 8:14,72.5,56.3,56.75,270,5,29.93,10,,CLR,,,,,72.5
2016/8/19 8:34,71.6,56.84,59.66,270,5,29.93,10,,CLR,,,,,71.6
2016/8/19 8:54,70.7,57.38,62.72,240,6,29.93,10,,CLR,,,,,70.7
2016/8/19 9:14,70.34,57.56,63.91,240,4,29.93,10,,CLR,,,,,70.34
2016/8/19 9:34,69.98,57.56,64.7,240,5,29.93,10,,CLR,,,,,69.98
2016/8/19 9:54,69.26,57.38,65.89,250,4,29.92,10,,CLR,,,,,69.26
2016/8/19 10:14,69.26,57.56,66.31,,,29.92,10,,CLR,,,,,69.26
2016/8/19 10:34,69.26,57.74,66.74,,,29.92,10,,CLR,,,,,69.26
2016/8/19 10:54,68.72,57.56,67.55,260,3,29.92,10,,CLR,,,,,68.72
2016/8/19 11:14,68.54,57.74,68.41,,,29.92,10,,CLR,,,,,68.54
2016/8/19 11:34,68,57.38,68.8,260,3,29.92,10,,CLR,,,,,68
2016/8/19 11:54,67.82,57.92,70.58,260,3,29.92,10,,CLR,,,,,67.82
2016/8/19 12:14,67.46,57.56,70.55,,,29.92,10,,CLR,,,,,67.46
2016/8/19 12:34,67.82,58.1,71.04,,,29.92,10,,CLR,,,,,67.82
2016/8/19 12:54,67.46,53.24,60.3,170,3,29.92,10,,CLR,,,,,67.46
2016/8/19 13:14,67.64,51.62,56.46,,,29.93,10,,CLR,,,,,67.64
2016/8/19 13:34,68,51.8,56.13,,,29.93,10,,CLR,,,,,68
2016/8/19 13:54,67.1,52.34,59.07,,,29.94,10,,CLR,,,,,67.1
2016/8/19 14:49,71.6,53.6,53.03,,,29.94,10,,FEW,,6000,,,71.6
2016/8/19 15:55,75.2,55.4,50.17,,,29.94,10,,FEW,,6000,,,75.2
2016/8/19 16:50,80.6,53.6,39.3,,,29.94,10,,FEW,,6000,,,80.6
2016/8/19 17:48,86,50,28.9,,,29.94,7,,FEW,,6000,,,83.62
2016/8/19 18:47,91.4,44.6,19.89,270,4,29.93,7,,FEW,,6000,,,87.68
2016/8/19 19:50,96.8,41,14.66,240,6,29.91,7,,FEW,,6000,,,92.39
2016/8/19 20:47,98.6,39.2,12.94,250,10,29.89,7,,FEW,,6000,,,93.89
2016/8/19 21:47,98.6,46.4,17.05,260,10,29.87,7,,FEW,,6000,,,94.84
2016/8/19 22:50,98.6,41,13.87,270,11,29.85,7,,FEW,,6000,,,94.09
2016/8/19 23:47,98.6,44.6,15.93,260,12,29.84,7,,FEW,,6000,,,94.55
2016/8/20 0:50,95,39.2,14.44,280,12,29.84,7,,FEW,,6000,,,90.57
2016/8/20 1:48,93.2,35.6,13.25,260,7,29.85,7,,FEW,,6000,,,88.76
2016/8/20 2:50,86,46.4,25.26,230,7,29.87,7,,CLR,,,,,83.22
2016/8/20 3:50,82.4,48.2,30.35,230,7,29.91,7,,CLR,,,,,80.8
2016/8/20 4:14,80.96,48.02,31.59,240,7,29.92,10,,CLR,,,,,79.9
2016/8/20 4:33,80.42,48.2,32.37,240,6,29.93,10,,CLR,,,,,80.42
2016/8/20 4:54,79.34,47.48,32.64,250,5,29.94,10,,CLR,,,,,79.34
2016/8/20 5:14,77.9,44.78,30.9,260,6,29.94,10,,CLR,,,,,76.84
2016/8/20 5:34,76.64,45.5,33.11,260,4,29.95,10,,CLR,,,,,75.56
2016/8/20 5:53,76.1,46.4,34.88,250,4,29.96,10,,CLR,,,,,75.05
2016/8/20 6:14,75.74,46.76,35.78,250,3,29.96,10,,CLR,,,,,74.7
2016/8/20 6:34,75.2,46.4,35.94,250,4,29.96,10,,CLR,,,,,74.11
2016/8/20 6:53,74.3,47.3,38.32,250,5,29.96,10,,CLR,,,,,73.23
2016/8/20 7:14,72.86,48.2,41.6,240,5,29.96,10,,CLR,,,,,71.8
2016/8/20 7:34,71.96,49.28,44.66,270,3,29.96,10,,CLR,,,,,70.95
2016/8/20 7:53,71.6,49.82,46.12,270,3,29.96,10,,CLR,,,,,71.6
2016/8/20 8:14,71.06,50.36,47.93,270,3,29.96,10,,CLR,,,,,71.06
2016/8/20 8:34,70.16,51.8,52.13,250,4,29.95,10,,CLR,,,,,70.16
2016/8/20 8:53,70.34,51.98,52.15,,,29.95,10,,CLR,,,,,70.34
2016/8/20 9:14,70.7,52.34,52.21,,,29.95,10,,CLR,,,,,70.7
2016/8/20 9:34,70.16,52.16,52.82,,,29.94,10,,CLR,,,,,70.16
2016/8/20 9:53,70.16,52.88,54.24,,,29.94,10,,CLR,,,,,70.16
2016/8/20 10:14,69.44,51.8,53.43,,,29.94,10,,CLR,,,,,69.44
2016/8/20 10:34,69.98,50.9,50.73,,,29.94,10,,CLR,,,,,69.98
2016/8/20 10:53,69.44,49.46,48.98,,,29.94,10,,CLR,,,,,69.44
2016/8/20 11:14,68.54,47.66,47.23,,,29.94,10,,CLR,,,,,68.54
2016/8/20 11:34,68.18,48.2,48.79,,,29.94,10,,CLR,,,,,68.18
2016/8/20 11:53,67.46,48.02,49.68,,,29.94,10,,CLR,,,,,67.46
2016/8/20 12:14,66.02,47.48,51.17,,,29.94,10,,CLR,,,,,66.02
2016/8/20 12:34,67.82,48.56,50.07,,,29.94,10,,CLR,,,,,67.82
2016/8/20 12:53,65.84,48.02,52.55,,,29.94,10,,CLR,,,,,65.84
2016/8/20 13:14,67.1,48.2,50.65,,,29.95,10,,CLR,,,,,67.1
2016/8/20 13:34,66.38,48.92,53.34,,,29.95,10,,CLR,,,,,66.38
2016/8/20 13:53,66.74,47.84,50.59,,,29.95,10,,CLR,,,,,66.74
2016/8/20 14:47,69.8,48.2,46.16,,,29.95,10,,FEW,,10000,,,69.8
2016/8/20 15:47,75.2,50,41.14,,,29.95,10,,FEW,,10000,,,75.2
2016/8/20 16:47,82.4,42.8,24.72,220,4,29.96,10,,FEW,,10000,,,80.39
2016/8/20 17:48,86,42.8,22.02,260,5,29.96,10,,FEW,,6000,,,82.95
2016/8/20 18:50,89.6,46.4,22.53,210,4,29.94,10,,FEW,BKN,6000,20000,,86.24
2016/8/20 19:47,91.4,46.4,,,,29.92,24007,,FEW,BKN,6000,20000,,
2016/8/20 20:53,93.2,44.6,18.8,230,4,29.91,10,,FEW,BKN,6000,20000,,89.34
2016/8/20 22:52,95,46.4,19.04,270,8,29.87,10,,FEW,BKN,6000,20000,,91.29
2016/8/20 23:48,93.2,44.6,18.8,270,5,29.86,10,,FEW,BKN,6000,20000,,89.34
2016/8/21 0:50,91.4,46.4,21.29,240,7,29.85,10,,FEW,SCT,6000,20000,,87.86
2016/8/21 1:50,87.8,48.2,25.52,250,8,29.85,10,,SCT,,20000,,,84.87
2016/8/21 2:50,84.2,50,30.62,230,7,29.87,10,,SCT,,20000,,,82.24
2016/8/21 3:50,80.6,50,34.41,240,6,29.89,10,,SCT,,20000,,,80.6
2016/8/21 4:13,78.98,50.36,36.78,250,6,29.9,10,,CLR,,,,,78.98
2016/8/21 4:34,78.44,50,36.94,240,6,29.9,10,,CLR,,,,,78.44
2016/8/21 4:54,77.54,49.1,36.8,260,4,29.9,10,,CLR,,,,,77.54
2016/8/21 5:13,77,47.66,35.5,250,4,29.9,10,,CLR,,,,,77
2016/8/21 5:34,76.28,48.92,38.11,270,3,29.91,10,,CLR,,,,,76.28
2016/8/21 5:54,76.64,47.3,35.44,260,3,29.91,10,,CLR,,,,,76.64
2016/8/21 6:13,76.28,47.12,35.63,,,29.91,10,,CLR,,,,,76.28
2016/8/21 6:34,76.64,47.66,35.92,230,4,29.91,10,,CLR,,,,,76.64
2016/8/21 6:54,74.66,46.4,36.6,,,29.91,10,,CLR,,,,,73.55
2016/8/21 7:13,75.02,45.14,34.47,,,29.91,10,,CLR,,,,,73.84
2016/8/21 7:34,74.84,44.42,33.74,,,29.91,10,,CLR,,,,,73.61
2016/8/21 7:54,74.12,44.24,34.33,,,29.91,10,,CLR,,,,,72.85
2016/8/21 8:13,74.12,44.6,34.8,240,3,29.9,10,,CLR,,,,,72.87
2016/8/21 8:34,73.04,45.14,36.84,,,29.9,10,,CLR,,,,,71.78
2016/8/21 8:54,73.58,45.14,36.18,,,29.9,10,,CLR,,,,,72.34
2016/8/21 9:13,73.58,44.96,35.93,,,29.9,10,,CLR,,,,,72.33
2016/8/21 9:34,71.96,51.08,47.75,,,29.9,10,,CLR,,,,,71.96
2016/8/21 9:54,71.06,50.72,48.57,,,29.9,10,,CLR,,,,,71.06
2016/8/21 10:13,71.42,51.08,48.63,,,29.9,10,,CLR,,,,,71.42
2016/8/21 10:34,70.88,51.08,49.53,,,29.9,10,,CLR,,,,,70.88
2016/8/21 10:53,70.34,51.8,51.81,,,29.9,10,,CLR,,,,,70.34
2016/8/21 11:14,70.52,50.9,49.81,,,29.9,10,,CLR,,,,,70.52
2016/8/21 11:34,69.98,51.08,51.07,,,29.9,10,,CLR,,,,,69.98
2016/8/21 11:53,69.8,50.9,51.05,,,29.9,10,,CLR,,,,,69.8
2016/8/21 12:14,67.82,49.46,51.79,70,4,29.9,10,,CLR,,,,,67.82
2016/8/21 12:34,68.9,50.18,51.25,,,29.91,10,,CLR,,,,,68.9
2016/8/21 12:53,68.9,50.54,51.94,,,29.92,10,,CLR,,,,,68.9
2016/8/21 13:14,68.9,51.08,52.99,,,29.92,10,,CLR,,,,,68.9
2016/8/21 13:34,68.18,49.82,51.84,,,29.93,10,,CLR,,,,,68.18
2016/8/21 13:53,68.9,48.92,48.9,,,29.93,10,,CLR,,,,,68.9
2016/8/21 14:48,71.6,50,46.43,,,29.94,10,,SCT,,12000,,,71.6
2016/8/21 16:48,77,50,38.74,,,29.96,10,,BKN,,12000,,,77
2016/8/21 17:50,84.2,46.4,26.76,,,29.96,10,,BKN,,12000,,,81.87
2016/8/21 18:50,87.8,46.4,23.85,310,6,29.94,10,,BKN,,12000,,,84.68
2016/8/21 20:50,93.2,46.4,20.13,230,4,29.91,10,,SCT,BKN,96900,12000,,89.55
2016/8/21 21:50,93.2,42.8,17.55,250,7,29.88,7,,FEW,BKN,6000,12000,,89.17
2016/8/21 22:49,95,48.2,20.38,280,9,29.86,10,,FEW,BKN,6000,12000,,91.56
2016/8/21 23:49,95,48.2,20.38,240,8,29.85,10,,FEW,FEW,6000,12000,,91.56
2016/8/22 0:50,93.2,50,23.04,260,9,29.85,7,,FEW,,6000,,,90.1
2016/8/22 1:50,91.4,51.8,26.05,260,9,29.85,7,,CLR,,,,,88.69
2016/8/22 2:50,86,53.6,33.01,240,5,29.86,7,,CLR,,,,,84.18
2016/8/22 3:50,82.4,55.4,39.58,220,4,29.88,7,,CLR,,,,,82.4
2016/8/22 4:13,81.14,55.4,41.24,260,5,29.89,10,,CLR,,,,,80.88
2016/8/22 4:34,80.24,54.5,41.1,250,6,29.89,10,,CLR,,,,,80.19
2016/8/22 4:54,78.98,53.6,41.45,250,5,29.89,10,,CLR,,,,,78.98
2016/8/22 5:13,78.8,52.52,40.07,250,4,29.89,10,,CLR,,,,,78.8
2016/8/22 5:34,78.8,50.9,37.75,280,3,29.89,10,,CLR,,,,,78.8
2016/8/22 5:54,78.08,49.64,36.89,270,3,29.89,10,,CLR,,,,,78.08
2016/8/22 6:13,78.44,47.12,33.17,280,3,29.9,10,,CLR,,,,,78.44
2016/8/22 6:34,77.18,47.3,34.81,280,3,29.9,10,,CLR,,,,,77.18
2016/8/22 6:54,77,46.4,33.85,260,3,29.9,10,,CLR,,,,,75.99
2016/8/22 7:13,77.72,47.12,33.96,,,29.9,10,,CLR,,,,,77.72
2016/8/22 7:34,74.84,44.06,33.28,260,5,29.9,10,,CLR,,,,,73.59
2016/8/22 7:54,75.38,43.88,32.46,250,4,29.91,10,,CLR,,,,,74.14
2016/8/22 8:14,73.58,42.62,32.86,280,3,29.91,10,,CLR,,,,,72.18
2016/8/22 8:34,74.48,42.44,31.66,,,29.91,10,,CLR,,,,,73.12
2016/8/22 8:54,74.3,44.24,34.12,,,29.91,10,,CLR,,,,,73.03
2016/8/22 9:14,73.04,43.7,34.87,,,29.91,10,,CLR,,,,,71.68
2016/8/22 9:33,73.04,42.8,33.69,,,29.91,10,,CLR,,,,,71.63
2016/8/22 9:54,72.68,42.98,34.34,,,29.91,10,,CLR,,,,,71.26
2016/8/22 10:14,72.68,44.06,35.79,,,29.91,10,,CLR,,,,,71.33
2016/8/22 10:34,71.06,48.38,44.52,,,29.91,10,,CLR,,,,,69.96
2016/8/22 10:54,70.88,50.54,48.55,,,29.91,10,,CLR,,,,,70.88
2016/8/22 11:13,69.08,47.84,46.68,,,29.91,10,,CLR,,,,,69.08
2016/8/22 11:34,67.64,52.16,57.59,,,29.92,10,,CLR,,,,,67.64
2016/8/22 11:53,68.9,51.44,53.7,,,29.92,10,,CLR,,,,,68.9
2016/8/22 12:14,68.9,50.36,51.6,,,29.92,10,,CLR,,,,,68.9
2016/8/22 12:34,68.36,50,51.87,,,29.92,10,,CLR,,,,,68.36
2016/8/22 12:53,67.1,50.54,55.27,,,29.92,10,,CLR,,,,,67.1
2016/8/22 13:14,66.92,50.18,54.87,,,29.92,10,,CLR,,,,,66.92
2016/8/22 13:34,67.1,50.36,54.9,,,29.93,10,,CLR,,,,,67.1
2016/8/22 13:53,67.28,50,53.83,,,29.94,10,,CLR,,,,,67.28
2016/8/22 14:45,71.6,55.4,56.63,,,29.94,7,,CLR,,,,,71.6
2016/8/22 15:45,75.2,46.4,35.94,,,29.94,7,,CLR,,,,,74.11
2016/8/22 16:46,80.6,46.4,30.07,,,29.96,7,,CLR,,,,,79.56
2016/8/22 17:47,86,46.4,25.26,320,3,29.96,7,,FEW,,6000,,,83.22
2016/8/22 18:52,89.6,41,18.33,210,3,29.94,7,,FEW,,6000,,,85.82
2016/8/22 19:47,93.2,44.6,18.8,230,6,29.93,7,,FEW,,6000,,,89.34
2016/8/22 21:50,95,46.4,19.04,280,5,29.89,7,,FEW,,6000,,,91.29
2016/8/22 22:47,95,44.6,17.78,240,8,29.88,7,,FEW,,6000,,,91.06
2016/8/22 23:46,95,46.4,19.04,230,12,29.87,7,,FEW,,6000,,,91.29
2016/8/23 0:50,91.4,46.4,21.29,240,12,29.88,7,,SCT,,6000,,,87.86
2016/8/23 1:50,86,48.2,27.03,230,10,29.9,7,,SCT,,6000,,,83.4
2016/8/23 2:50,82.4,44.6,26.49,230,8,29.91,7,,FEW,,6000,,,80.5
2016/8/23 4:13,79.34,50.9,37.08,260,4,29.94,10,,CLR,,,,,79.34
2016/8/23 4:34,78.62,55.04,44.21,260,4,29.94,10,,CLR,,,,,78.62
2016/8/23 4:54,77.9,55.58,46.17,250,4,29.94,10,,CLR,,,,,77.9
2016/8/23 5:13,77,55.58,47.56,240,4,29.94,10,,CLR,,,,,77
2016/8/23 5:34,76.64,55.58,48.13,260,4,29.96,10,,CLR,,,,,76.64
2016/8/23 5:54,76.1,55.04,48.05,250,4,29.96,10,,CLR,,,,,76.1
2016/8/23 6:13,75.92,55.76,49.62,240,5,29.97,10,,CLR,,,,,75.92
2016/8/23 6:34,75.2,56.12,51.5,240,3,29.97,10,,CLR,,,,,75.2
2016/8/23 6:53,74.48,56.3,53.1,240,5,29.97,10,,CLR,,,,,74.48
2016/8/23 7:14,74.3,56.84,54.47,240,5,29.97,10,,CLR,,,,,74.3
2016/8/23 7:34,73.58,57.2,56.53,260,3,29.99,10,,CLR,,,,,73.58
2016/8/23 7:53,72.86,57.2,57.92,270,3,29.99,10,,CLR,,,,,72.86
2016/8/23 8:14,71.96,57.02,59.32,250,4,29.98,10,,CLR,,,,,71.96
2016/8/23 8:34,71.42,57.02,60.42,260,3,29.98,10,,CLR,,,,,71.42
2016/8/23 8:54,70.52,57.2,62.7,260,4,29.99,10,,CLR,,,,,70.52
2016/8/23 9:14,70.7,57.56,63.13,,,29.99,10,,CLR,,,,,70.7
2016/8/23 9:34,70.16,57.56,64.3,,,29.99,10,,CLR,,,,,70.16
2016/8/23 9:54,70.7,57.56,63.13,,,29.99,10,,CLR,,,,,70.7
2016/8/23 10:13,70.34,57.38,63.5,,,29.99,10,,CLR,,,,,70.34
2016/8/23 10:34,69.98,57.56,64.7,,,29.99,10,,CLR,,,,,69.98
2016/8/23 10:54,69.62,57.2,64.66,,,29.99,10,,CLR,,,,,69.62
2016/8/23 11:14,69.98,57.2,63.87,,,29.98,10,,CLR,,,,,69.98
2016/8/23 11:34,69.26,55.4,61.33,,,29.98,10,,CLR,,,,,69.26
2016/8/23 11:54,68.18,56.48,66.19,,,29.98,10,,CLR,,,,,68.18
2016/8/23 12:13,68.9,55.76,62.91,,,29.99,10,,CLR,,,,,68.9
2016/8/23 12:34,68.9,55.04,61.28,,,29.99,10,,CLR,,,,,68.9
2016/8/23 12:54,68,54.5,61.98,,,29.99,10,,CLR,,,,,68
2016/8/23 13:14,67.64,55.58,65.27,,,30,10,,CLR,,,,,67.64
2016/8/23 13:34,68.36,54.86,62.02,,,30,10,,CLR,,,,,68.36
2016/8/23 13:54,64.94,54.5,68.91,,,30.01,10,,CLR,,,,,64.94
2016/8/23 14:00,64.4,55.4,72.56,,,30.01,7,,CLR,,,,,64.4
2016/8/23 14:45,71.6,55.4,56.63,,,30.03,7,,CLR,,,,,71.6
2016/8/23 16:46,80.6,53.6,39.3,,,30.05,7,,CLR,,,,,80.6
2016/8/23 18:46,89.6,44.6,21.04,250,5,30.04,7,,CLR,,,,,86.07
2016/8/23 19:49,91.4,44.6,19.89,240,8,30.03,7,,CLR,,,,,87.68
2016/8/23 20:50,93.2,39.2,15.27,270,10,30.02,7,,CLR,,,,,88.92
2016/8/23 21:50,95,44.6,17.78,260,9,30,6,,CLR,,,,HZ,91.06
2016/8/23 22:50,95,41,15.49,280,7,29.99,6,,CLR,,,,HZ,90.7
2016/8/23 23:47,93.2,41,16.37,240,8,29.98,6,,CLR,,,,HZ,89.03
2016/8/24 0:50,93.2,39.2,15.27,250,9,29.98,6,,CLR,,,,HZ,88.92
2016/8/24 1:50,89.6,42.8,19.64,230,10,29.99,7,,CLR,,,,,85.93
2016/8/24 2:50,84.2,46.4,26.76,240,9,30.01,7,,CLR,,,,,81.87
2016/8/24 3:50,82.4,48.2,30.35,230,4,30.03,6,,CLR,,,,HZ,80.8
2016/8/24 4:14,80.06,51.08,36.46,240,5,30.04,10,,CLR,,,,,80.06
2016/8/24 4:33,79.34,52.16,38.85,250,4,30.04,10,,CLR,,,,,79.34
2016/8/24 4:54,77.9,53.42,42.67,250,4,30.05,10,,CLR,,,,,77.9
2016/8/24 5:14,77.9,54.14,43.81,250,4,30.05,10,,CLR,,,,,77.9
2016/8/24 5:33,77,54.5,45.73,260,3,30.05,10,,CLR,,,,,77
2016/8/24 5:54,76.28,54.86,47.45,250,5,30.05,10,,CLR,,,,,76.28
2016/8/24 6:14,75.56,55.76,50.22,270,3,30.06,10,,CLR,,,,,75.56
2016/8/24 6:34,74.84,55.94,51.78,260,4,30.06,10,,CLR,,,,,74.84
2016/8/24 6:54,74.3,56.3,53.42,260,3,30.05,10,,CLR,,,,,74.3
2016/8/24 7:14,74.3,56.3,53.42,240,3,30.06,10,,CLR,,,,,74.3
2016/8/24 7:34,73.94,56.3,54.07,270,4,30.05,10,,CLR,,,,,73.94
2016/8/24 7:54,74.12,56.3,53.74,,,30.05,10,,CLR,,,,,74.12
2016/8/24 8:14,73.94,56.3,54.07,,,30.05,10,,CLR,,,,,73.94
2016/8/24 8:34,72.68,56.3,56.41,,,30.05,10,,CLR,,,,,72.68
2016/8/24 8:54,73.04,54.14,51.52,,,30.04,10,,CLR,,,,,73.04
2016/8/24 9:14,71.42,51.62,49.61,,,30.04,10,,CLR,,,,,71.42
2016/8/24 9:34,71.42,51.44,49.28,,,30.04,10,,CLR,,,,,71.42
2016/8/24 9:54,69.62,51.08,51.7,,,30.04,10,,CLR,,,,,69.62
2016/8/24 10:14,69.8,51.44,52.08,,,30.04,10,,CLR,,,,,69.8
2016/8/24 10:34,69.08,51.8,54.09,,,30.04,10,,CLR,,,,,69.08
2016/8/24 10:54,69.62,51.62,52.75,,,30.03,10,,CLR,,,,,69.62
2016/8/24 11:14,69.98,52.16,53.15,,,30.03,10,,CLR,,,,,69.98
2016/8/24 11:34,69.08,51.98,54.45,,,30.03,10,,CLR,,,,,69.08
2016/8/24 11:54,69.08,52.34,55.18,,,30.03,10,,CLR,,,,,69.08
2016/8/24 12:14,69.26,52.7,55.57,,,30.04,10,,CLR,,,,,69.26
2016/8/24 12:33,68.9,52.88,56.63,,,30.04,10,,CLR,,,,,68.9
2016/8/24 12:54,66.92,51.8,58.26,,,30.04,10,,CLR,,,,,66.92
2016/8/24 13:14,68.36,52.7,57.31,,,30.04,10,,CLR,,,,,68.36
2016/8/24 13:33,68,52.88,58.41,,,30.05,10,,CLR,,,,,68
2016/8/24 13:54,67.82,52.88,58.77,,,30.05,10,,CLR,,,,,67.82
2016/8/24 14:00,64.4,55.4,72.56,,,30.05,7,,CLR,,,,,64.4
2016/8/24 14:45,71.6,55.4,56.63,,,30.06,6,,CLR,,,,HZ,71.6
2016/8/24 15:45,75.2,53.6,46.98,,,30.06,6,,CLR,,,,HZ,75.2
2016/8/24 16:50,80.6,55.4,41.97,,,30.06,5,,CLR,,,,HZ,80.53
2016/8/24 17:50,86,53.6,33.01,,,30.04,5,,CLR,,,,HZ,84.18
2016/8/24 18:50,89.6,46.4,22.53,300,5,30.02,5,,CLR,,,,HZ,86.24
2016/8/24 19:51,93.2,46.4,20.13,240,8,30,5,,CLR,,,,HZ,89.55
2016/8/24 20:48,95,46.4,19.04,250,5,29.98,5,,CLR,,,,,91.29
2016/8/24 21:47,96.8,44.6,16.83,260,8,29.96,7,,CLR,,,,,92.79
2016/8/25 0:47,93.2,71.6,49.62,260,11,29.92,7,,CLR,,,,,100.88
2016/8/25 1:50,89.6,55.4,31.45,240,11,29.92,7,,CLR,,,,,87.78
2016/8/25 2:48,84.2,57.2,39.86,270,7,29.94,7,,CLR,,,,,84.2
2016/8/25 3:48,80.6,57.2,44.8,230,6,29.97,7,,CLR,,,,,80.81
2016/8/25 4:13,79.88,55.58,43.25,250,6,29.97,10,,CLR,,,,,79.88
2016/8/25 4:34,78.98,55.22,43.97,260,6,29.98,10,,CLR,,,,,78.98
2016/8/25 4:54,78.26,55.4,45.32,250,4,29.98,10,,CLR,,,,,78.26
2016/8/25 5:13,77.36,55.4,46.69,250,6,29.98,10,,CLR,,,,,77.36
2016/8/25 5:34,76.46,55.4,48.11,250,5,29.99,10,,CLR,,,,,76.46
2016/8/25 5:54,75.92,55.4,48.98,250,4,29.98,10,,CLR,,,,,75.92
2016/8/25 6:13,74.66,55.4,51.08,260,3,29.97,10,,CLR,,,,,74.66
2016/8/25 6:34,73.94,55.4,52.33,260,4,29.97,10,,CLR,,,,,73.94
2016/8/25 6:54,73.22,55.94,54.67,250,4,29.98,10,,CLR,,,,,73.22
2016/8/25 7:13,72.86,56.3,56.07,260,3,29.97,10,,CLR,,,,,72.86
2016/8/25 7:34,73.04,56.66,56.46,,,29.97,10,,CLR,,,,,73.04
2016/8/25 7:54,72.5,56.48,57.12,260,3,29.97,10,,CLR,,,,,72.5
2016/8/25 8:13,71.78,56.48,58.53,,,29.97,10,,CLR,,,,,71.78
2016/8/25 8:34,71.96,56.66,58.56,,,29.96,10,,CLR,,,,,71.96
2016/8/25 8:54,71.6,56.48,58.89,,,29.96,10,,CLR,,,,,71.6
2016/8/25 9:13,70.7,56.3,60.33,280,3,29.96,10,,CLR,,,,,70.7
2016/8/25 9:34,70.34,56.48,61.47,,,29.96,10,,CLR,,,,,70.34
2016/8/25 9:54,70.7,56.84,61.51,,,29.96,10,,CLR,,,,,70.7
2016/8/25 10:13,70.7,56.66,61.12,,,29.96,10,,CLR,,,,,70.7
2016/8/25 10:34,70.16,55.58,59.86,,,29.96,10,,CLR,,,,,70.16
2016/8/25 10:54,69.8,55.4,60.21,,,29.95,10,,CLR,,,,,69.8
2016/8/25 11:13,69.08,55.58,62.12,,,29.95,10,,CLR,,,,,69.08
2016/8/25 11:34,67.64,54.86,63.58,,,29.95,10,,CLR,,,,,67.64
2016/8/25 11:54,68,55.22,63.63,,,29.95,10,,CLR,,,,,68
2016/8/25 12:14,68,55.04,63.21,,,29.95,10,,CLR,,,,,68
2016/8/25 12:34,68.54,55.04,62.05,,,29.96,10,,CLR,,,,,68.54
2016/8/25 12:54,68,55.4,64.04,,,29.96,10,,CLR,,,,,68
2016/8/25 13:14,67.82,57.2,68.78,,,29.96,10,,CLR,,,,,67.82
2016/8/25 13:34,67.46,57.2,69.64,,,29.97,10,,CLR,,,,,67.46
2016/8/25 13:50,66.2,57.2,72.74,,,29.97,5,,CLR,,,,HZ,66.2
2016/8/25 13:53,67.46,57.2,69.64,,,29.97,10,,CLR,,,,,67.46
2016/8/25 14:50,69.8,57.2,64.26,,,29.98,4,,CLR,,,,HZ,69.8
2016/8/25 15:50,73.4,57.2,56.88,,,29.99,4,,CLR,,,,HZ,73.4
2016/8/25 16:50,78.8,55.4,44.52,,,29.98,4,,CLR,,,,HZ,78.8
2016/8/25 17:50,82.4,53.6,37.07,,,29.97,5,,CLR,,,,HZ,82.4
2016/8/25 18:48,86,50,28.9,230,5,29.95,5,,CLR,,,,HZ,83.62
2016/8/25 19:50,91.4,50,24.37,330,10,29.92,6,,CLR,,,,HZ,88.36
2016/8/25 20:50,93.2,50,23.04,280,5,29.89,5,,CLR,,,,HZ,90.1
2016/8/25 21:47,95,51.8,23.3,230,7,29.87,5,,CLR,,,,,92.26
2016/8/25 22:47,95,53.6,24.89,240,12,29.86,5,,CLR,,,,HZ,92.71
2016/8/26 1:50,82.4,55.4,39.58,240,8,29.89,5,,CLR,,,,HZ,82.4
2016/8/26 2:48,77,57.2,50.43,230,7,29.9,5,,CLR,,,,HZ,77
2016/8/26 3:47,75.2,57.2,53.55,230,4,29.92,5,,CLR,,,,HZ,75.2
2016/8/26 4:14,73.4,57.74,57.99,250,6,29.93,10,,CLR,,,,,73.4
2016/8/26 4:34,72.5,57.56,59.39,250,6,29.93,10,,CLR,,,,,72.5
2016/8/26 4:53,71.96,57.38,60.1,250,5,29.93,10,,CLR,,,,,71.96
2016/8/26 5:14,70.88,57.38,62.34,260,6,29.93,10,,CLR,,,,,70.88
2016/8/26 5:34,70.34,57.38,63.5,260,5,29.93,10,,CLR,,,,,70.34
2016/8/26 5:53,69.8,57.2,64.26,250,3,29.93,10,,CLR,,,,,69.8
2016/8/26 6:14,69.26,57.2,65.46,260,3,29.93,10,,CLR,,,,,69.26
2016/8/26 6:34,68.72,57.2,66.68,250,4,29.93,10,,CLR,,,,,68.72
2016/8/26 6:53,68.18,57.2,67.93,260,5,29.93,10,,CLR,,,,,68.18
2016/8/26 7:14,68,57.2,68.35,250,5,29.94,10,,CLR,,,,,68
2016/8/26 7:34,67.46,57.92,71.47,260,5,29.93,10,,CLR,,,,,67.46
2016/8/26 7:53,66.92,57.56,71.87,240,3,29.94,10,,CLR,,,,,66.92
2016/8/26 8:14,66.38,57.92,74.19,250,6,29.94,10,,CLR,,,,,66.38
2016/8/26 8:34,65.84,58.1,76.08,250,5,29.94,10,,CLR,,,,,65.84
2016/8/26 8:53,64.76,57.92,78.49,250,4,29.93,10,,CLR,,,,,64.76
2016/8/26 9:14,64.4,57.92,79.48,260,4,29.93,10,,CLR,,,,,64.4
2016/8/26 9:34,63.86,58.1,81.52,260,5,29.93,10,,CLR,,,,,63.86
2016/8/26 9:53,63.5,57.74,81.5,260,4,29.93,10,,CLR,,,,,63.5
2016/8/26 10:14,63.5,58.1,82.56,250,4,29.93,10,,CLR,,,,,63.5
2016/8/26 10:34,62.78,57.56,83.04,260,5,29.94,10,,CLR,,,,,62.78
2016/8/26 10:53,62.6,57.92,84.66,260,5,29.94,7,,CLR,,,,,62.6
2016/8/26 11:14,62.24,57.74,85.19,250,4,29.94,7,,CLR,,,,,62.24
2016/8/26 11:34,62.42,58.1,85.75,240,4,29.94,7,,CLR,,,,,62.42
2016/8/26 11:54,62.24,58.1,86.3,250,3,29.94,7,,BKN,,1300,,,62.24
2016/8/26 12:14,62.96,58.82,86.34,270,4,29.94,5,,OVC,,1100,,BR,62.96
2016/8/26 12:34,63.5,59,85.26,270,3,29.94,5,,OVC,,900,,BR,63.5
2016/8/26 12:53,63.5,59,85.26,260,3,29.95,5,,OVC,,900,,HZ,63.5
2016/8/26 13:14,63.68,59,84.73,,,29.95,5,,OVC,,900,,HZ,63.68
2016/8/26 13:33,63.86,59,84.19,,,29.96,5,,OVC,,900,,HZ,63.86
2016/8/26 13:54,63.86,59,84.19,,,29.96,5,,OVC,,900,,HZ,63.86
2016/8/26 14:00,55.4,50,81.99,,,29.96,2,,OVC,,900,,BR,55.4
2016/8/26 14:45,64.4,55.4,72.56,,,29.98,2,,OVC,,900,,BR,64.4
2016/8/26 15:45,66.2,59,77.6,,,29.98,3,,OVC,,1100,,HZ,66.2
2016/8/26 16:46,68,59,72.92,,,30,3,,OVC,,1300,,HZ,68
2016/8/26 17:50,73.4,57.2,56.88,,,30,3,,FEW,,1300,,HZ,73.4
2016/8/26 18:50,77,57.2,50.43,280,5,29.98,3,,CLR,,,,HZ,77
2016/8/26 20:46,82.4,53.6,37.07,230,8,29.95,3,,FEW,,6000,,HZ,82.4
2016/8/26 21:46,86,48.2,27.03,230,7,29.92,3,,FEW,,6000,,HZ,83.4
2016/8/26 22:50,89.6,48.2,24.11,270,7,29.9,5,,FEW,,6000,,HZ,86.44
2016/8/26 23:50,87.8,48.2,25.52,260,10,29.9,7,,CLR,,,,,84.87
2016/8/27 0:50,84.2,50,30.62,240,11,29.9,7,,CLR,,,,,82.24
2016/8/27 1:50,78.8,51.8,39.02,250,12,29.91,7,,CLR,,,,,78.8
2016/8/27 2:55,73.4,53.6,49.9,250,11,29.93,7,,CLR,,,,,73.4
2016/8/27 3:46,71.6,55.4,56.63,250,8,29.95,7,,CLR,,,,,71.6
2016/8/27 4:14,69.8,55.4,60.21,260,8,29.96,10,,CLR,,,,,69.8
2016/8/27 4:34,68.9,55.4,62.09,250,7,29.97,10,,CLR,,,,,68.9
2016/8/27 4:53,68.18,55.58,64.06,270,8,29.97,10,,CLR,,,,,68.18
2016/8/27 5:14,67.64,55.94,66.13,250,5,29.98,10,,CLR,,,,,67.64
2016/8/27 5:34,67.28,56.3,67.83,250,5,29.97,10,,CLR,,,,,67.28
2016/8/27 5:53,67.1,56.3,68.25,240,5,29.98,10,,CLR,,,,,67.1
2016/8/27 6:14,66.38,56.3,69.98,250,6,29.98,10,,CLR,,,,,66.38
2016/8/27 6:34,65.48,56.48,72.67,260,4,29.98,10,,CLR,,,,,65.48
2016/8/27 6:53,65.12,56.48,73.59,260,5,29.98,10,,CLR,,,,,65.12
2016/8/27 7:14,64.76,56.48,74.52,260,5,29.97,10,,CLR,,,,,64.76
2016/8/27 7:34,64.4,56.3,74.97,260,4,29.98,10,,CLR,,,,,64.4
2016/8/27 7:53,64.04,56.48,76.41,260,4,29.98,10,,CLR,,,,,64.04
2016/8/27 8:14,63.5,56.3,77.37,240,4,29.97,10,,CLR,,,,,63.5
2016/8/27 8:34,63.86,56.48,76.9,240,4,29.97,10,,CLR,,,,,63.86
2016/8/27 8:53,63.5,56.3,77.37,260,4,29.97,10,,CLR,,,,,63.5
2016/8/27 9:14,62.6,56.3,79.86,250,4,29.97,10,,CLR,,,,,62.6
2016/8/27 9:34,62.24,56.3,80.88,260,4,29.96,10,,SCT,,1800,,,62.24
2016/8/27 9:53,62.42,56.48,80.89,240,4,29.97,10,,SCT,,1800,,,62.42
2016/8/27 10:14,62.6,56.3,79.86,250,5,29.97,10,,BKN,,1800,,,62.6
2016/8/27 10:34,62.6,56.66,80.9,250,4,29.97,10,,OVC,,1600,,,62.6
2016/8/27 10:53,62.78,56.66,80.39,250,5,29.97,10,,OVC,,1600,,,62.78
2016/8/27 11:14,62.96,56.84,80.41,240,4,29.97,7,,OVC,,1400,,,62.96
2016/8/27 11:34,62.96,56.66,79.88,260,5,29.96,7,,OVC,,1400,,,62.96
2016/8/27 11:53,63.14,56.84,79.9,260,5,29.97,7,,OVC,,1400,,,63.14
2016/8/27 12:14,63.32,56.66,78.88,260,4,29.97,7,,OVC,,1200,,,63.32
2016/8/27 12:34,63.5,56.66,78.38,260,3,29.97,5,,OVC,,1200,,HZ,63.5
2016/8/27 12:53,63.5,56.66,78.38,250,3,29.98,5,,OVC,,1200,,HZ,63.5
2016/8/27 13:14,63.32,56.66,78.88,220,3,29.98,5,,OVC,,1200,,HZ,63.32
2016/8/27 13:34,63.5,56.66,78.38,270,3,29.99,5,,OVC,,1200,,HZ,63.5
2016/8/27 13:50,62.6,57.2,82.5,,,30,2,,OVC,,1200,,HZ,62.6
2016/8/27 13:54,63.5,56.66,78.38,,,30,5,,OVC,,1200,,HZ,63.5
2016/8/27 14:47,64.4,57.2,77.45,,,30.01,2,,OVC,,1200,,HZ,64.4
2016/8/27 15:50,64.4,55.4,72.56,,,30.02,2,,OVC,,1400,,HZ,64.4
2016/8/27 16:17,64.4,55.4,72.56,240,4,30.02,3,,OVC,,1400,,HZ,64.4
2016/8/27 17:50,66.2,55.4,68.15,,,30.02,3,,BKN,,1600,,HZ,66.2
2016/8/27 18:55,73.4,55.4,53.29,290,5,30.01,3,,FEW,,6000,,HZ,73.4
2016/8/27 19:50,77,55.4,47.25,210,4,29.99,3,,FEW,,6000,,HZ,77
2016/8/27 20:46,80.6,53.6,39.3,,,29.98,3,,FEW,,6000,,HZ,80.6
2016/8/27 21:50,84.2,51.8,32.73,240,8,29.95,3,,FEW,,5000,,HZ,82.48
2016/8/27 22:47,84.2,50,30.62,220,6,29.94,4,,FEW,,6000,,HZ,82.24
2016/8/27 23:50,87.8,50,27.29,270,4,29.92,4,,FEW,,6000,,HZ,85.11
2016/8/28 0:46,86,50,28.9,260,7,29.92,4,,FEW,,6000,,HZ,83.62
2016/8/28 1:48,82.4,53.6,37.07,240,10,29.92,4,,CLR,,,,HZ,82.4
2016/8/28 2:49,77,55.4,47.25,230,5,29.96,4,,CLR,,,,HZ,77
2016/8/28 3:48,75.2,55.4,50.17,250,6,29.97,4,,CLR,,,,HZ,75.2
2016/8/28 4:14,74.48,55.4,51.39,260,5,29.98,10,,CLR,,,,,74.48
2016/8/28 4:34,73.94,55.4,52.33,250,5,29.99,10,,CLR,,,,,73.94
2016/8/28 4:54,73.4,55.58,53.64,250,4,29.99,10,,CLR,,,,,73.4
2016/8/28 5:14,72.5,55.94,56.02,250,4,29.99,10,,CLR,,,,,72.5
2016/8/28 5:34,71.6,56.3,58.51,260,5,30,10,,CLR,,,,,71.6
2016/8/28 5:54,70.88,56.48,60.35,260,3,30.01,10,,CLR,,,,,70.88
2016/8/28 6:14,70.34,56.48,61.47,260,4,30,10,,CLR,,,,,70.34
2016/8/28 6:34,69.98,56.66,62.63,250,4,30.01,10,,CLR,,,,,69.98
2016/8/28 6:54,69.08,56.84,65.01,270,3,30.01,10,,CLR,,,,,69.08
2016/8/28 7:14,68.72,56.84,65.82,260,4,30.01,10,,CLR,,,,,68.72
2016/8/28 7:34,68.54,57.2,67.1,260,3,30.01,10,,CLR,,,,,68.54
2016/8/28 7:54,68,57.02,67.91,260,3,30.01,10,,CLR,,,,,68
2016/8/28 8:14,68,57.38,68.8,260,3,30.01,10,,CLR,,,,,68
2016/8/28 8:34,67.28,57.2,70.07,,,30,10,,CLR,,,,,67.28
2016/8/28 8:54,67.1,57.56,71.43,250,3,30,10,,CLR,,,,,67.1
2016/8/28 9:14,66.74,57.38,71.86,230,3,30.01,10,,CLR,,,,,66.74
2016/8/28 9:34,66.74,57.56,72.32,,,30,10,,CLR,,,,,66.74
2016/8/28 9:54,66.38,57.74,73.71,,,30.01,10,,CLR,,,,,66.38
2016/8/28 10:14,66.2,57.74,74.17,,,30.01,10,,CLR,,,,,66.2
2016/8/28 10:34,66.2,57.74,74.17,,,30.01,10,,CLR,,,,,66.2
2016/8/28 10:54,65.3,57.38,75.54,250,4,30.01,10,,CLR,,,,,65.3
2016/8/28 11:14,65.48,58.1,77.04,,,30.01,10,,CLR,,,,,65.48
2016/8/28 11:34,65.66,58.1,76.56,,,30.01,10,,CLR,,,,,65.66
2016/8/28 11:54,65.84,58.28,76.57,,,30,10,,CLR,,,,,65.84
2016/8/28 12:14,65.66,57.92,76.06,,,30,10,,CLR,,,,,65.66
2016/8/28 12:34,65.48,56.84,73.62,,,30,10,,CLR,,,,,65.48
2016/8/28 12:54,64.4,55.4,72.56,,,30.01,10,,CLR,,,,,64.4
2016/8/28 13:14,64.4,55.4,72.56,,,30.02,10,,CLR,,,,,64.4
2016/8/28 13:34,63.86,54.86,72.51,,,30.03,10,,CLR,,,,,63.86
2016/8/28 13:54,63.68,54.68,72.49,,,30.03,10,,CLR,,,,,63.68
2016/8/28 14:50,66.2,55.4,68.15,,,30.03,4,,CLR,,,,HZ,66.2
2016/8/28 15:50,73.4,57.2,56.88,,,30.04,4,,CLR,,,,HZ,73.4
2016/8/28 16:47,77,57.2,50.43,,,30.04,4,,CLR,,,,HZ,77
2016/8/28 17:46,82.4,53.6,37.07,,,30.03,4,,CLR,,,,HZ,82.4
2016/8/28 18:46,87.8,53.6,31.17,,,30.01,4,,FEW,,6000,,HZ,85.72
2016/8/28 19:50,91.4,51.8,26.05,250,3,29.99,5,,FEW,,6000,,HZ,88.69
2016/8/28 20:50,95,51.8,23.3,260,6,29.98,5,,FEW,,6000,,HZ,92.26
2016/8/28 22:46,98.6,44.6,15.93,270,8,29.94,5,,FEW,,6000,,HZ,94.55
2016/8/28 23:50,96.8,46.4,18.02,260,10,29.93,6,,CLR,,,,HZ,93.05
2016/8/29 0:50,95,46.4,19.04,250,8,29.93,6,,CLR,,,,HZ,91.29
2016/8/29 1:50,89.6,53.6,29.45,230,10,29.94,6,,CLR,,,,HZ,87.36
2016/8/29 4:13,79.7,50.36,35.92,240,3,29.99,10,,CLR,,,,,79.7
2016/8/29 4:34,79.34,50.18,36.11,250,4,30,10,,CLR,,,,,79.34
2016/8/29 4:54,78.8,50.36,37,260,4,30,10,,CLR,,,,,78.8
2016/8/29 5:13,77.9,51.26,39.41,270,4,30,10,,CLR,,,,,77.9
2016/8/29 5:34,77,51.62,41.14,270,5,30.01,10,,CLR,,,,,77
2016/8/29 5:54,76.28,51.98,42.7,270,3,30.01,10,,CLR,,,,,76.28
2016/8/29 6:14,75.92,52.52,44.08,,,30.01,10,,CLR,,,,,75.92
2016/8/29 6:34,76.28,52.7,43.85,,,30.01,10,,CLR,,,,,76.28
2016/8/29 6:54,75.92,52.7,44.38,,,30.01,10,,CLR,,,,,75.92
2016/8/29 7:13,75.92,52.7,44.38,,,30.01,10,,CLR,,,,,75.92
2016/8/29 7:34,75.74,52.7,44.64,,,30.01,10,,CLR,,,,,75.74
2016/8/29 7:54,75.02,52.7,45.73,,,30,10,,CLR,,,,,75.02
2016/8/29 8:13,73.58,52.34,47.36,,,30,10,,CLR,,,,,73.58
2016/8/29 8:34,71.24,52.52,51.6,,,30,10,,CLR,,,,,71.24
2016/8/29 8:54,71.96,52.34,50.02,,,30,10,,CLR,,,,,71.96
2016/8/29 9:14,71.42,52.7,51.62,,,30,10,,CLR,,,,,71.42
2016/8/29 9:34,70.7,54.5,56.51,,,30,10,,CLR,,,,,70.7
2016/8/29 9:54,70.88,54.5,56.16,,,30,10,,CLR,,,,,70.88
2016/8/29 10:13,69.98,53.96,56.78,,,30,10,,CLR,,,,,69.98
2016/8/29 10:34,68.9,53.42,57.76,,,29.99,10,,CLR,,,,,68.9
2016/8/29 10:54,69.8,54.5,58.27,,,29.99,10,,CLR,,,,,69.8
2016/8/29 11:13,69.08,54.5,59.72,,,29.98,10,,CLR,,,,,69.08
2016/8/29 11:34,68.54,53.96,59.65,,,29.97,10,,CLR,,,,,68.54
2016/8/29 11:54,67.82,53.78,60.74,,,29.97,10,,CLR,,,,,67.82
2016/8/29 12:13,65.48,53.06,64.16,,,29.97,10,,CLR,,,,,65.48
2016/8/29 12:34,67.1,51.44,57.14,80,4,29.97,10,,CLR,,,,,67.1
2016/8/29 12:54,66.02,50.9,58.14,,,29.98,10,,CLR,,,,,66.02
2016/8/29 13:13,66.2,52.52,61.34,,,29.98,10,,CLR,,,,,66.2
2016/8/29 13:34,66.56,52.34,60.18,,,29.98,10,,CLR,,,,,66.56
2016/8/29 13:54,67.1,51.98,58.29,,,29.98,10,,CLR,,,,,67.1
2016/8/29 14:00,66.2,55.4,68.15,,,29.98,7,,CLR,,,,,66.2
2016/8/29 14:45,71.6,59,64.48,,,30,6,,,,,,HZ,71.6
2016/8/29 15:45,77,53.6,44.25,,,30,6,,CLR,,,,HZ,77
2016/8/29 16:46,84.2,50,30.62,,,29.99,6,,CLR,,,,HZ,82.24
2016/8/29 17:47,89.6,48.2,24.11,230,5,29.98,6,,CLR,,,,HZ,86.44
2016/8/29 18:48,95,48.2,20.38,310,5.83,29.96,6,,FEW,,6000,,HZ,91.56
2016/8/29 19:46,98.6,44.6,15.93,280,6,29.94,6,,FEW,,6000,,HZ,94.55
2016/8/29 20:50,102.2,44.6,14.29,280,7,29.91,6,,FEW,,6000,,HZ,98.07
2016/8/29 21:50,102.2,46.4,15.3,240,10,29.88,6,,FEW,,6000,,HZ,98.43
2016/8/29 22:50,104,44.6,13.54,230,11,29.85,6,,FEW,,6000,,HZ,99.82
2016/8/29 23:50,102.2,50,17.51,240,11,29.84,6,,FEW,,6000,,HZ,99.28
2016/8/30 0:50,98.6,53.6,22.29,250,10,29.84,6,,FEW,,6000,,HZ,96.51
2016/8/30 1:50,93.2,57.2,29.99,230,8,29.85,6,,CLR,,,,HZ,91.91
2016/8/30 2:50,89.6,57.2,33.56,210,5,29.87,5,,CLR,,,,HZ,88.28
2016/8/30 3:50,86,57.2,37.62,260,6,29.89,5,,CLR,,,,HZ,84.97
2016/8/30 4:14,84.2,58.64,41.98,250,5,29.9,10,,CLR,,,,,83.82
2016/8/30 4:34,83.3,59,43.77,270,4,29.91,10,,CLR,,,,,83.18
2016/8/30 4:54,82.94,59,44.29,260,3,29.91,10,,CLR,,,,,82.89
2016/8/30 5:14,83.3,59.18,44.06,,,29.92,10,,CLR,,,,,83.22
2016/8/30 5:34,82.58,59.18,45.1,,,29.92,10,,CLR,,,,,82.65
2016/8/30 5:54,82.04,59.36,46.19,280,3,29.92,10,,CLR,,,,,82.27
2016/8/30 6:14,81.5,59.9,47.92,,,29.92,10,,CLR,,,,,81.97
2016/8/30 6:34,80.96,59.72,48.46,,,29.92,10,,CLR,,,,,81.52
2016/8/30 6:54,80.6,59.9,49.35,,,29.92,10,,CLR,,,,,81.28
2016/8/30 7:14,80.6,59.9,49.35,,,29.92,10,,CLR,,,,,81.28
2016/8/30 7:34,79.34,59.54,50.77,,,29.92,10,,CLR,,,,,79.34
2016/8/30 7:54,78.26,58.46,50.62,130,3,29.91,10,,CLR,,,,,78.26
2016/8/30 8:14,76.1,58.46,54.37,,,29.9,10,,CLR,,,,,76.1
2016/8/30 8:34,74.84,58.46,56.7,,,29.9,10,,CLR,,,,,74.84
2016/8/30 8:54,75.02,58.82,57.1,,,29.89,10,,CLR,,,,,75.02
2016/8/30 9:14,75.02,59,57.47,,,29.89,10,,CLR,,,,,75.02
2016/8/30 9:34,75.56,59.9,58.28,,,29.89,10,,CLR,,,,,75.56
2016/8/30 9:54,73.4,58.1,58.75,,,29.89,10,,CLR,,,,,73.4
2016/8/30 10:14,74.3,57.38,55.54,,,29.89,10,,CLR,,,,,74.3
2016/8/30 10:34,74.84,56.3,52.46,,,29.89,10,,CLR,,,,,74.84
2016/8/30 10:53,74.84,57.38,54.55,,,29.89,10,,CLR,,,,,74.84
2016/8/30 11:14,73.94,57.38,56.22,,,29.89,10,,CLR,,,,,73.94
2016/8/30 11:34,73.4,57.2,56.88,,,29.89,10,,CLR,,,,,73.4
2016/8/30 11:53,73.04,57.38,57.94,,,29.89,10,,CLR,,,,,73.04
2016/8/30 12:14,70.7,55.4,58.39,,,29.89,10,,CLR,,,,,70.7
2016/8/30 12:33,70.88,53.96,55.07,80,4,29.89,10,,CLR,,,,,70.88
2016/8/30 12:54,71.78,55.22,55.92,,,29.89,10,,CLR,,,,,71.78
2016/8/30 13:14,70.7,54.86,57.25,,,29.89,10,,CLR,,,,,70.7
2016/8/30 13:33,71.06,54.5,55.82,100,3,29.9,10,,CLR,,,,,71.06
2016/8/30 13:54,69.62,52.88,55.25,,,29.9,10,,CLR,,,,,69.62
2016/8/30 14:00,68,55.4,64.04,,,29.9,6,,CLR,,,,HZ,68
2016/8/30 14:45,75.2,53.6,46.98,,,29.91,6,,CLR,,,,HZ,75.2
2016/8/30 15:45,80.6,57.2,44.8,,,29.9,6,,CLR,,,,HZ,80.81
2016/8/30 16:46,82.4,57.2,42.25,320,3,29.9,6,,CLR,,,,HZ,82.08
2016/8/30 17:55,91.4,53.6,27.83,,,29.89,6,,CLR,,,,HZ,89.08
2016/8/30 18:50,96.8,50,20.62,310,3,29.87,6,,CLR,,,,HZ,93.71
2016/8/30 19:50,100.4,50,18.48,230,6,29.85,6,,FEW,,6000,,HZ,97.42
2016/8/30 20:50,102.2,50,17.51,260,8,29.83,6,,FEW,,6000,,HZ,99.28
2016/8/30 21:50,102.2,51.8,18.72,290,8,29.8,6,,FEW,SCT,6000,12000,HZ,99.8
2016/8/30 22:48,104,46.4,14.5,260,9,29.79,6,,FEW,SCT,6000,12000,HZ,100.21
2016/8/30 23:50,100.4,53.6,21.11,230,10,29.79,6,,FEW,SCT,6000,12000,HZ,98.44
2016/8/31 0:55,96.8,55.4,25.15,220,9,29.8,6,,FEW,SCT,6000,12000,HZ,95.14
2016/8/31 1:50,93.2,55.4,28.1,240,8,29.81,6,,FEW,SCT,6000,12000,HZ,91.35
2016/8/31 2:50,87.8,55.4,33.29,240,6,29.82,6,,FEW,BKN,6000,12000,HZ,86.11
2016/8/31 3:50,84.2,57.2,39.86,250,5,29.81,6,,FEW,BKN,6000,12000,HZ,84.2
2016/8/31 4:14,84.2,57.38,40.12,260,3,29.85,10,,CLR,,,,,83.51
2016/8/31 4:34,83.12,57.56,41.81,260,3,29.86,10,,CLR,,,,,82.7
2016/8/31 4:53,82.58,57.92,43.1,250,4,29.86,10,,CLR,,,,,82.36
2016/8/31 5:14,82.4,58.28,43.92,230,4,29.86,10,,CLR,,,,,82.3
2016/8/31 5:34,81.32,58.28,45.49,250,4,29.87,10,,CLR,,,,,81.5
2016/8/31 5:53,80.06,57.92,46.79,260,7,29.87,10,,CLR,,,,,80.56
2016/8/31 6:14,79.88,56.84,45.27,250,5,29.88,10,,CLR,,,,,79.88
2016/8/31 6:34,78.8,57.2,47.52,,,29.88,10,,CLR,,,,,78.8
2016/8/31 6:53,78.98,57.38,47.55,,,29.88,10,,CLR,,,,,78.98
2016/8/31 7:14,78.98,57.38,47.55,,,29.88,10,,CLR,,,,,78.98
2016/8/31 7:34,78.8,57.38,47.83,,,29.87,10,,CLR,,,,,78.8
2016/8/31 7:53,77.9,57.02,48.63,,,29.87,10,,CLR,,,,,77.9
2016/8/31 8:14,77,57.38,50.76,80,3,29.87,10,,CLR,,,,,77
2016/8/31 8:34,76.28,57.2,51.65,,,29.87,10,,CLR,,,,,76.28
2016/8/31 8:53,76.64,57.02,50.71,,,29.86,10,,CLR,,,,,76.64
2016/8/31 9:14,75.2,56.12,51.5,,,29.86,10,,CLR,,,,,75.2
2016/8/31 9:34,74.3,57.56,55.9,,,29.86,10,,CLR,,,,,74.3
2016/8/31 9:53,74.66,57.02,54.17,,,29.86,10,,CLR,,,,,74.66
2016/8/31 10:14,74.12,54.5,50.34,,,29.86,10,,CLR,,,,,74.12
2016/8/31 10:34,74.3,55.58,52.04,,,29.86,10,,CLR,,,,,74.3
2016/8/31 10:53,73.76,55.4,52.65,,,29.86,10,,CLR,,,,,73.76
2016/8/31 11:14,73.22,53.6,50.21,,,29.85,10,,CLR,,,,,73.22
2016/8/31 11:34,72.5,52.7,49.77,,,29.85,10,,CLR,,,,,72.5
2016/8/31 11:53,71.96,53.42,52.04,,,29.85,10,,CLR,,,,,71.96
2016/8/31 12:14,70.52,56.12,60.3,,,29.85,10,,CLR,,,,,70.52
2016/8/31 12:34,69.08,55.22,61.31,80,4,29.85,10,,CLR,,,,,69.08
2016/8/31 12:53,70.34,53.96,56.09,90,3,29.85,10,,CLR,,,,,70.34
2016/8/31 13:14,70.34,54.14,56.46,200,4,29.86,10,,CLR,,,,,70.34
2016/8/31 13:34,70.88,53.6,54.34,,,29.87,10,,CLR,,,,,70.88
2016/8/31 13:53,71.24,53.06,52.63,,,29.88,10,,CLR,,,,,71.24
2016/8/31 14:00,71.6,53.6,53.03,,,29.88,7,,CLR,,,,,71.6
2016/8/31 14:45,75.2,53.6,46.98,,,29.88,7,,CLR,,,,,75.2
2016/8/31 15:45,75.2,53.6,46.98,,,29.88,7,,FEW,,8000,,,75.2
2016/8/31 16:50,89.6,53.6,29.45,,,29.88,7,,FEW,,10000,,,87.36
2016/8/31 17:50,96.8,46.4,18.02,270,5,29.88,7,,SCT,,10000,,,93.05
2016/8/31 18:50,98.6,44.6,15.93,270,5,29.85,7,,SCT,,10000,,,94.55
2016/8/31 19:50,100.4,46.4,16.15,230,6,29.88,7,,BKN,,10000,,,96.63
2016/8/31 20:50,102.2,44.6,14.29,230,9,29.85,7,,FEW,BKN,6000,12000,,98.07
2016/8/31 21:50,104,39.2,11,240,11,29.84,7,,FEW,,6000,,,98.56
2016/8/31 22:50,104,39.2,11,250,16,29.83,7,,FEW,,10000,,,98.56
2016/8/31 23:50,102.2,41,12.44,270,10,29.82,7,,FEW,,10000,,,97.39
